Ownership Type,County,City,Province,Postcode,Timezone,area_code,Latitude,Longitude
Company Owned,丰台区,北京市,11,100000,GMT+08:00 Asia/Beijing,,39.9,116.32
Company Owned,海淀区,北京市,11,100000,GMT+08:00 Asia/Beijing,010,39.97,116.32
Company Owned,朝阳区朝阳公园路6号,北京市,11,100000,GMT+08:00 Asia/Beijing,010,39.95,116.47
Company Owned,朝阳区,北京市,11,100000,GMT+08:00 Asia/Beijing,010,39.97,116.45
Company Owned,朝阳区,北京市,11,100000,GMT+08:00 Asia/Beijing,,39.93,116.46
Company Owned,西城区,北京市,11,100000,GMT+08:00 Asia/Beijing,010,39.92,116.36
Company Owned,东城区,北京市,11,100000,GMT+08:00 Asia/Beijing,,39.91,116.43
Company Owned,昌平区,北京市,11,102200,GMT+08:00 Asia/Beijing,010,40.1,116.29
Company Owned,东城区,北京市,11,100000,GMT+08:00 Asia/Beijing,,39.91,116.42
Company Owned,朝阳区,北京市,11,100000,GMT+08:00 Asia/Beijing,,39.98,116.49
Company Owned,朝阳区,北京市,11,100000,GMT+08:00 Asia/Beijing,,39.91,116.45
Company Owned,惠新东街4号,北京市,11,100000,GMT+08:00 Asia/Beijing,010,39.99,116.42
Company Owned,东城区,北京市,11,100000,GMT+08:00 Asia/Beijing,010,39.89,116.45
Company Owned,东城区,北京市,11,100000,GMT+08:00 Asia/Beijing,010,39.93,116.44
Company Owned,西城区,北京市,11,100000,GMT+08:00 Asia/Beijing,010,39.91,116.38
Company Owned,海淀区,北京市,11,100000,GMT+08:00 Asia/Beijing,,40.05,116.36
Company Owned,通州区,北京市,11,101100,GMT+08:00 Asia/Beijing,,39.89,116.66
Company Owned,海淀区,北京市,11,100000,GMT+08:00 Asia/Beijing,010,39.91,116.28
Company Owned,顺义区,北京市,11,101300,GMT+08:00 Asia/Beijing,010,40.08,116.6
Company Owned,北京市,北京市,11,100000,GMT+08:00 Asia/Beijing,,39.82,116.3
Company Owned,朝阳区,北京市,11,100000,GMT+08:00 Asia/Beijing,,40.0,116.48
Company Owned,朝阳区,北京市,11,100000,GMT+08:00 Asia/Beijing,010,39.99,116.43
Company Owned,朝阳区,北京市,11,100000,GMT+08:00 Asia/Beijing,,39.95,116.46
Company Owned,海淀区,北京市,11,100000,GMT+08:00 Asia/Beijing,,39.91,116.31
Company Owned,东城区,北京市,11,100000,GMT+08:00 Asia/Beijing,010,39.94,116.4
Company Owned,大兴区,北京市,11,102600,GMT+08:00 Asia/Beijing,,39.78,116.53
Company Owned,东城区,北京市,11,100000,GMT+08:00 Asia/Beijing,010,39.91,116.41
Company Owned,东城区,北京市,11,100000,GMT+08:00 Asia/Beijing,,39.9,116.42
Company Owned,朝阳区,北京市,11,100000,GMT+08:00 Asia/Beijing,010,39.93,116.46
Company Owned,朝阳区,北京市,11,100000,GMT+08:00 Asia/Beijing,010,39.91,116.48
Company Owned,顺义区,北京市,11,101300,GMT+08:00 Asia/Beijing,010,40.08,116.59
Company Owned,东城区,北京市,11,100000,GMT+08:00 Asia/Beijing,010,39.92,116.41
Company Owned,崇文区,北京市,11,100000,GMT+08:00 Asia/Beijing,010,39.9,116.4
Company Owned,丰台区,北京市,11,100000,GMT+08:00 Asia/Beijing,010,39.86,116.44
Company Owned,海淀区,北京市,11,100000,GMT+08:00 Asia/Beijing,010,40.04,116.31
Company Owned,西城区,北京市,11,100000,GMT+08:00 Asia/Beijing,,39.96,116.38
Company Owned,朝阳区,北京市,11,100000,GMT+08:00 Asia/Beijing,,40.0,116.49
Company Owned,光耀东方广场一层103单元,北京市,11,100000,GMT+08:00 Asia/Beijing,010,39.9,116.32
Company Owned,丰台区,北京市,11,100000,GMT+08:00 Asia/Beijing,,39.87,116.31
Company Owned,朝阳区,北京市,11,100000,GMT+08:00 Asia/Beijing,010,39.88,116.49
Company Owned,西城区,北京市,11,100000,GMT+08:00 Asia/Beijing,,39.91,116.37
Company Owned,朝阳区,北京市,11,100000,GMT+08:00 Asia/Beijing,010,39.96,116.47
Company Owned,朝阳区,北京市,11,100000,GMT+08:00 Asia/Beijing,010,39.91,116.45
Company Owned,朝阳区,北京市,11,100000,GMT+08:00 Asia/Beijing,,39.95,116.55
Company Owned,朝阳区,北京市,11,100000,GMT+08:00 Asia/Beijing,,39.91,116.46
Company Owned,朝阳区,北京市,11,100000,GMT+08:00 Asia/Beijing,,40.0,116.49
Company Owned,朝阳区,北京市,11,100000,GMT+08:00 Asia/Beijing,,39.93,116.45
Company Owned,朝阳区,北京市,11,100000,GMT+08:00 Asia/Beijing,,39.99,116.48
Company Owned,东城区,北京市,11,100000,GMT+08:00 Asia/Beijing,,39.9,116.43
Company Owned,海淀区,北京市,11,100000,GMT+08:00 Asia/Beijing,,39.95,116.32
Company Owned,朝阳区,北京市,11,100000,GMT+08:00 Asia/Beijing,010,39.92,116.45
Company Owned,海淀区,北京市,11,100000,GMT+08:00 Asia/Beijing,,39.91,116.3
Company Owned,西城区,北京市,11,100000,GMT+08:00 Asia/Beijing,010,39.93,116.36
Company Owned,海淀区,北京市,11,100000,GMT+08:00 Asia/Beijing,010,39.98,116.32
Company Owned,丰台区,北京市,11,100000,GMT+08:00 Asia/Beijing,010,39.87,116.43
Company Owned,朝阳区,北京市,11,100000,GMT+08:00 Asia/Beijing,010,40.03,116.42
Company Owned,宣武区,北京市,11,100000,GMT+08:00 Asia/Beijing,010,39.9,116.38
Company Owned,北京市,北京市,11,100000,GMT+08:00 Asia/Beijing,,39.89,116.46
Company Owned,密云县,北京市,11,101500,GMT+08:00 Asia/Beijing,,40.65,117.28
Company Owned,朝阳区,北京市,11,100000,GMT+08:00 Asia/Beijing,010,39.91,116.44
Company Owned,丰台区,北京市,11,100000,GMT+08:00 Asia/Beijing,010,39.89,116.27
Company Owned,通州区,北京市,11,101100,GMT+08:00 Asia/Beijing,,39.91,116.64
Company Owned,朝阳区,北京市,11,100000,GMT+08:00 Asia/Beijing,,40.02,116.47
Company Owned,西城区,北京市,11,100000,GMT+08:00 Asia/Beijing,,39.91,116.35
Company Owned,东城区,北京市,11,100000,GMT+08:00 Asia/Beijing,010,39.87,116.39
Company Owned,大兴区,北京市,11,102600,GMT+08:00 Asia/Beijing,,39.69,116.32
Company Owned,朝阳区,北京市,11,100000,GMT+08:00 Asia/Beijing,010,39.91,116.46
Company Owned,西城区,北京市,11,100000,GMT+08:00 Asia/Beijing,010,39.91,116.37
Company Owned,朝阳区,北京市,11,100000,GMT+08:00 Asia/Beijing,010,40.04,116.51
Company Owned,朝阳区,北京市,11,100000,GMT+08:00 Asia/Beijing,010,39.92,116.46
Company Owned,朝阳区,北京市,11,100000,GMT+08:00 Asia/Beijing,010,39.91,116.47
Company Owned,丰台区,北京市,11,100000,GMT+08:00 Asia/Beijing,,39.82,116.37
Company Owned,顺义区,北京市,11,101300,GMT+08:00 Asia/Beijing,,40.09,116.53
Company Owned,西城区,北京市,11,100000,GMT+08:00 Asia/Beijing,,39.91,116.36
Company Owned,东城区,北京市,11,100000,GMT+08:00 Asia/Beijing,010,39.91,116.41
Company Owned,东城区,北京市,11,100000,GMT+08:00 Asia/Beijing,,39.92,116.42
Company Owned,西城区,北京市,11,100000,GMT+08:00 Asia/Beijing,010,39.93,116.39
Company Owned,丰台区,北京市,11,100000,GMT+08:00 Asia/Beijing,010,39.87,116.38
Company Owned,朝阳区,北京市,11,100000,GMT+08:00 Asia/Beijing,010,39.92,116.45
Company Owned,西城区,北京市,11,100000,GMT+08:00 Asia/Beijing,010,39.91,116.36
Company Owned,东城区,北京市,11,100000,GMT+08:00 Asia/Beijing,010,39.9,116.42
Company Owned,海淀区,北京市,11,100000,GMT+08:00 Asia/Beijing,,39.91,116.3
Company Owned,通州区,北京市,11,101100,GMT+08:00 Asia/Beijing,010,39.88,116.67
Company Owned,海淀区,北京市,11,100000,GMT+08:00 Asia/Beijing,010,39.98,116.31
Company Owned,东城区,北京市,11,100000,GMT+08:00 Asia/Beijing,010,39.97,116.41
Company Owned,朝阳区,北京市,11,100000,GMT+08:00 Asia/Beijing,010,39.98,116.48
Company Owned,大兴区,北京市,11,102600,GMT+08:00 Asia/Beijing,,39.79,116.33
Company Owned,朝阳区,北京市,11,100000,GMT+08:00 Asia/Beijing,010,39.92,116.46
Company Owned,朝阳区,北京市,11,100000,GMT+08:00 Asia/Beijing,010,39.94,116.45
Company Owned,经济技术开发区,北京市,11,100100,GMT+08:00 Asia/Beijing,010,39.81,116.5
Company Owned,顺义区,北京市,11,101300,GMT+08:00 Asia/Beijing,010,40.06,116.62
Company Owned,通州区,北京市,11,101100,GMT+08:00 Asia/Beijing,,39.89,116.66
Company Owned,东城区,北京市,11,100000,GMT+08:00 Asia/Beijing,010,39.92,116.43
Company Owned,西城区,北京市,11,100000,GMT+08:00 Asia/Beijing,,39.87,116.36
Company Owned,潮阳区,北京市,11,100000,GMT+08:00 Asia/Beijing,010,39.96,116.46
Company Owned,西城区,北京市,11,100000,GMT+08:00 Asia/Beijing,010,39.92,116.37
Company Owned,房山区,北京市,11,102400,GMT+08:00 Asia/Beijing,010,39.74,116.14
Company Owned,海淀区,北京市,11,100000,GMT+08:00 Asia/Beijing,010,39.91,116.28
Company Owned,朝阳区,北京市,11,100000,GMT+08:00 Asia/Beijing,010,39.92,116.44
Company Owned,西城区,北京市,11,100000,GMT+08:00 Asia/Beijing,010,39.89,116.34
Company Owned,朝阳区,北京市,11,100000,GMT+08:00 Asia/Beijing,010,39.92,116.46
Company Owned,朝阳区,北京市,11,100000,GMT+08:00 Asia/Beijing,,39.99,116.41
Company Owned,海淀区,北京市,11,100000,GMT+08:00 Asia/Beijing,,40.03,116.35
Company Owned,朝阳区,北京市,11,100000,GMT+08:00 Asia/Beijing,,39.96,116.46
Company Owned,朝阳区,北京市,11,100000,GMT+08:00 Asia/Beijing,,39.92,116.52
Company Owned,朝阳区,北京市,11,100000,GMT+08:00 Asia/Beijing,,40.06,116.62
Company Owned,朝阳区,北京市,11,100000,GMT+08:00 Asia/Beijing,,39.93,116.46
Company Owned,朝阳区,北京市,11,100000,GMT+08:00 Asia/Beijing,010,39.91,116.45
Company Owned,丰台区,北京市,11,100000,GMT+08:00 Asia/Beijing,010,39.84,116.39
Company Owned,丰台区,北京市,11,100000,GMT+08:00 Asia/Beijing,010,39.86,116.38
Company Owned,朝阳区,北京市,11,100000,GMT+08:00 Asia/Beijing,,39.93,116.52
Company Owned,东城区,北京市,11,100000,GMT+08:00 Asia/Beijing,1085197361,39.92,116.43
Company Owned,海淀区,北京市,11,100000,GMT+08:00 Asia/Beijing,010,39.96,116.29
Company Owned,海淀区,北京市,11,100000,GMT+08:00 Asia/Beijing,010,39.98,116.32
Company Owned,朝阳区,北京市,11,100000,GMT+08:00 Asia/Beijing,010,39.91,116.47
Company Owned,海淀区,北京市,11,100000,GMT+08:00 Asia/Beijing,,40.05,116.3
Company Owned,石景山区,北京市,11,100000,GMT+08:00 Asia/Beijing,,39.92,116.17
Company Owned,丰台区,北京市,11,100000,GMT+08:00 Asia/Beijing,,39.88,116.3
Company Owned,朝阳区,北京市,11,100000,GMT+08:00 Asia/Beijing,010,39.91,116.49
Company Owned,海淀区,北京市,11,100000,GMT+08:00 Asia/Beijing,010,39.96,116.29
Company Owned,海淀区,北京市,11,100000,GMT+08:00 Asia/Beijing,010,39.98,116.31
Company Owned,东城区,北京市,11,100000,GMT+08:00 Asia/Beijing,,39.91,116.41
Company Owned,朝阳区,北京市,11,100000,GMT+08:00 Asia/Beijing,010,39.91,116.44
Company Owned,朝阳区,北京市,11,100000,GMT+08:00 Asia/Beijing,010,39.97,116.45
Company Owned,丰台区,北京市,11,100000,GMT+08:00 Asia/Beijing,010,39.86,116.38
Company Owned,海淀区,北京市,11,100000,GMT+08:00 Asia/Beijing,010,40.0,116.35
Company Owned,朝阳区,北京市,11,100000,GMT+08:00 Asia/Beijing,010,39.91,116.47
Company Owned,朝阳区,北京市,11,100000,GMT+08:00 Asia/Beijing,,39.91,116.48
Company Owned,顺义区,北京市,11,101300,GMT+08:00 Asia/Beijing,,40.09,116.54
Company Owned,大兴区,北京市,11,102600,GMT+08:00 Asia/Beijing,,39.77,116.36
Company Owned,海淀区,北京市,11,100000,GMT+08:00 Asia/Beijing,,40.05,116.3
Company Owned,丰台区,北京市,11,100000,GMT+08:00 Asia/Beijing,,39.82,116.29
Company Owned,海淀区,北京市,11,100000,GMT+08:00 Asia/Beijing,010,39.98,116.32
Company Owned,大兴区,北京市,11,102600,GMT+08:00 Asia/Beijing,010,39.79,116.34
Company Owned,西城区,北京市,11,100000,GMT+08:00 Asia/Beijing,,39.92,116.36
Company Owned,东城区,北京市,11,100000,GMT+08:00 Asia/Beijing,010,39.94,116.44
Company Owned,东城区,北京市,11,100000,GMT+08:00 Asia/Beijing,010,39.92,116.42
Company Owned,朝阳区,北京市,11,100000,GMT+08:00 Asia/Beijing,010,39.97,116.44
Company Owned,朝阳区,北京市,11,100000,GMT+08:00 Asia/Beijing,010,39.96,116.46
Company Owned,丰台区,北京市,11,100000,GMT+08:00 Asia/Beijing,010,39.87,116.29
Company Owned,顺义区,北京市,11,101300,GMT+08:00 Asia/Beijing,010,40.06,116.55
Company Owned,朝阳区,北京市,11,100000,GMT+08:00 Asia/Beijing,010,39.95,116.46
Company Owned,怀柔区,北京市,11,101400,GMT+08:00 Asia/Beijing,,40.32,116.63
Company Owned,朝阳区,北京市,11,100000,GMT+08:00 Asia/Beijing,010,39.95,116.48
Company Owned,海淀区,北京市,11,100000,GMT+08:00 Asia/Beijing,010,39.99,116.34
Company Owned,丰台区,北京市,11,100000,GMT+08:00 Asia/Beijing,010,39.86,116.38
Company Owned,朝阳区,北京市,11,100000,GMT+08:00 Asia/Beijing,,39.92,116.44
Company Owned,朝阳区,北京市,11,100000,GMT+08:00 Asia/Beijing,010,39.99,116.41
Company Owned,朝阳区,北京市,11,100000,GMT+08:00 Asia/Beijing,010,39.92,116.52
Company Owned,海淀区,北京市,11,100000,GMT+08:00 Asia/Beijing,,39.98,116.33
Company Owned,朝阳区,北京市,11,100000,GMT+08:00 Asia/Beijing,,39.99,116.41
Company Owned,朝阳区,北京市,11,100000,GMT+08:00 Asia/Beijing,010,39.97,116.46
Company Owned,朝阳区,北京市,11,100000,GMT+08:00 Asia/Beijing,010,39.92,116.46
Company Owned,朝阳区,北京市,11,100000,GMT+08:00 Asia/Beijing,010,39.92,116.46
Company Owned,北京市,北京市,11,100000,GMT+08:00 Asia/Beijing,,39.91,116.23
Company Owned,海淀区,北京市,11,100000,GMT+08:00 Asia/Beijing,,40.05,116.3
Company Owned,北京市,北京市,11,100000,GMT+08:00 Asia/Beijing,,39.81,116.46
Company Owned,朝阳区,北京市,11,100000,GMT+08:00 Asia/Beijing,010,39.92,116.46
Company Owned,朝阳区,北京市,11,100000,GMT+08:00 Asia/Beijing,,39.91,116.47
Company Owned,朝阳区,北京市,11,100000,GMT+08:00 Asia/Beijing,010,39.91,116.48
Company Owned,海淀区,北京市,11,100000,GMT+08:00 Asia/Beijing,010,40.0,116.29
Company Owned,朝阳区,北京市,11,100000,GMT+08:00 Asia/Beijing,,39.89,116.48
Company Owned,丰台区,北京市,11,100000,GMT+08:00 Asia/Beijing,,39.84,116.29
Company Owned,丰台区,北京市,11,100000,GMT+08:00 Asia/Beijing,,39.83,116.29
Company Owned,朝阳区,北京市,11,100000,GMT+08:00 Asia/Beijing,,39.92,116.45
Company Owned,海淀区,北京市,11,100000,GMT+08:00 Asia/Beijing,010,40.03,116.33
Company Owned,朝阳区,北京市,11,100000,GMT+08:00 Asia/Beijing,010,40.0,116.39
Company Owned,朝阳区,北京市,11,100000,GMT+08:00 Asia/Beijing,,39.95,116.46
Company Owned,海淀区,北京市,11,100000,GMT+08:00 Asia/Beijing,010,39.98,116.31
Company Owned,朝阳区,北京市,11,100000,GMT+08:00 Asia/Beijing,010,40.0,116.47
Company Owned,昌平区,北京市,11,102200,GMT+08:00 Asia/Beijing,,40.06,116.42
Company Owned,朝阳区,北京市,11,100000,GMT+08:00 Asia/Beijing,,39.96,116.46
Company Owned,朝阳区,北京市,11,100000,GMT+08:00 Asia/Beijing,010,40.06,116.62
Company Owned,朝阳区,北京市,11,100000,GMT+08:00 Asia/Beijing,010,39.91,116.46
Company Owned,北京市,北京市,11,100000,GMT+08:00 Asia/Beijing,,39.94,116.43
Company Owned,朝阳区,北京市,11,100000,GMT+08:00 Asia/Beijing,,39.91,116.46
Company Owned,朝阳区,北京市,11,100000,GMT+08:00 Asia/Beijing,010,39.95,116.46
Company Owned,西城区,北京市,11,100000,GMT+08:00 Asia/Beijing,010,39.92,116.36
Company Owned,朝阳区,北京市,11,100000,GMT+08:00 Asia/Beijing,,39.91,116.46
Company Owned,崇文区,北京市,11,100000,GMT+08:00 Asia/Beijing,010,39.9,116.42
Company Owned,西城区,北京市,11,100000,GMT+08:00 Asia/Beijing,010,39.89,116.38
Company Owned,丰台区,北京市,11,100000,GMT+08:00 Asia/Beijing,010,39.87,116.38
Company Owned,朝阳区,北京市,11,100000,GMT+08:00 Asia/Beijing,,40.05,116.43
Company Owned,西城区,北京市,11,100000,GMT+08:00 Asia/Beijing,010,39.91,116.36
Company Owned,东城区,北京市,11,100000,GMT+08:00 Asia/Beijing,010,39.89,116.42
Company Owned,东城区,北京市,11,100000,GMT+08:00 Asia/Beijing,010,39.97,116.41
Company Owned,西城区,北京市,11,100000,GMT+08:00 Asia/Beijing,010,39.91,116.35
Company Owned,朝阳区,北京市,11,100000,GMT+08:00 Asia/Beijing,010,39.97,116.49
Company Owned,朝阳区,北京市,11,100000,GMT+08:00 Asia/Beijing,,39.93,116.45
Company Owned,海淀区,北京市,11,100000,GMT+08:00 Asia/Beijing,010,39.95,116.36
Company Owned,西城区,北京市,11,100000,GMT+08:00 Asia/Beijing,010,39.92,116.36
Company Owned,房山区,北京市,11,102400,GMT+08:00 Asia/Beijing,010,39.76,116.19
Company Owned,朝阳区,北京市,11,100000,GMT+08:00 Asia/Beijing,010,40.01,116.38
Company Owned,昌平区,北京市,11,102200,GMT+08:00 Asia/Beijing,,40.23,116.19
Company Owned,朝阳区,北京市,11,100000,GMT+08:00 Asia/Beijing,010,39.9,116.46
Company Owned,朝阳区,北京市,11,100000,GMT+08:00 Asia/Beijing,010,39.92,116.44
Company Owned,顺义区,北京市,11,101300,GMT+08:00 Asia/Beijing,,40.05,116.56
Company Owned,海淀区,北京市,11,100000,GMT+08:00 Asia/Beijing,,39.93,116.32
Company Owned,顺义区,北京市,11,101300,GMT+08:00 Asia/Beijing,,40.13,116.65
Company Owned,朝阳区,北京市,11,100000,GMT+08:00 Asia/Beijing,010,39.91,116.46
Company Owned,朝阳区,北京市,11,100000,GMT+08:00 Asia/Beijing,010,39.99,116.48
Company Owned,房山区,北京市,11,102400,GMT+08:00 Asia/Beijing,,39.76,116.16
Company Owned,石景山区,北京市,11,100000,GMT+08:00 Asia/Beijing,,39.9,116.25
Company Owned,朝阳区,北京市,11,100000,GMT+08:00 Asia/Beijing,010,40.06,116.61
Company Owned,朝阳区,北京市,11,100000,GMT+08:00 Asia/Beijing,,39.92,116.49
Company Owned,丰台区,北京市,11,100000,GMT+08:00 Asia/Beijing,,39.86,116.45
Company Owned,东城区,北京市,11,100000,GMT+08:00 Asia/Beijing,,39.9,116.42
Company Owned,朝阳区,北京市,11,100000,GMT+08:00 Asia/Beijing,010,39.98,116.48
Company Owned,西城区,北京市,11,100000,GMT+08:00 Asia/Beijing,010,39.94,116.35
Company Owned,顺义区,北京市,11,101300,GMT+08:00 Asia/Beijing,010,40.08,116.61
Company Owned,朝阳区,北京市,11,100000,GMT+08:00 Asia/Beijing,,39.98,116.46
Company Owned,朝阳区,北京市,11,100000,GMT+08:00 Asia/Beijing,,39.93,116.6
Company Owned,东城区,北京市,11,100000,GMT+08:00 Asia/Beijing,010,39.91,116.41
Company Owned,昌平区,北京市,11,102200,GMT+08:00 Asia/Beijing,,40.07,116.35
Company Owned,海淀区,北京市,11,100000,GMT+08:00 Asia/Beijing,010,39.94,116.33
Company Owned,顺义区,北京市,11,101300,GMT+08:00 Asia/Beijing,010,40.08,116.61
Company Owned,西城区,北京市,11,100000,GMT+08:00 Asia/Beijing,,39.91,116.37
Company Owned,北京市,北京市,11,100000,GMT+08:00 Asia/Beijing,,39.92,116.6
Company Owned,昌平区,北京市,11,102200,GMT+08:00 Asia/Beijing,,40.04,116.4
Company Owned,海淀区,北京市,11,100000,GMT+08:00 Asia/Beijing,010,39.99,116.33
Company Owned,朝阳区,北京市,11,100000,GMT+08:00 Asia/Beijing,010,39.96,116.44
Company Owned,朝阳区,北京市,11,100000,GMT+08:00 Asia/Beijing,010,39.91,116.48
Company Owned,海淀区,北京市,11,100000,GMT+08:00 Asia/Beijing,010,39.96,116.29
Company Owned,朝阳区,北京市,11,100000,GMT+08:00 Asia/Beijing,010,39.94,116.45
Company Owned,顺义区,北京市,11,101300,GMT+08:00 Asia/Beijing,010,40.08,116.59
Company Owned,丰台区,北京市,11,100000,GMT+08:00 Asia/Beijing,,39.84,116.38
Company Owned,大兴区,北京市,11,102600,GMT+08:00 Asia/Beijing,,39.79,116.51
Company Owned,西城区,北京市,11,100000,GMT+08:00 Asia/Beijing,,39.91,116.35
Company Owned,昌平区,北京市,11,102200,GMT+08:00 Asia/Beijing,010,40.06,116.41
Company Owned,大兴区,北京市,11,102600,GMT+08:00 Asia/Beijing,,39.73,116.34
Company Owned,东城区,北京市,11,100000,GMT+08:00 Asia/Beijing,,39.95,116.42
Company Owned,西城区,北京市,11,100000,GMT+08:00 Asia/Beijing,,39.9,116.39
Company Owned,朝阳区,北京市,11,100000,GMT+08:00 Asia/Beijing,,39.99,116.47
Company Owned,顺义区,北京市,11,101300,GMT+08:00 Asia/Beijing,010,40.07,116.55
Company Owned,亿丰大街南侧汉王路西侧,廊坊市,11,65201,GMT+08:00 Asia/Beijing,,39.97,116.82
Company Owned,高新区,廊坊市,11,65201,GMT+08:00 Asia/Beijing,,39.95,116.86
Company Owned,河北区新纬路1 号,天津市,12,300100,GMT+08:00 Asia/Beijing,022,39.14,117.21
Company Owned,河东区,天津市,12,300100,GMT+08:00 Asia/Beijing,,39.14,117.21
Company Owned,空港经济开发区,天津市,12,300000,GMT+08:00 Asia/Beijing,,39.16,117.43
Company Owned,东丽区,天津市,12,300300,GMT+08:00 Asia/Beijing,,39.13,117.36
Company Owned,河东区,天津市,12,300100,GMT+08:00 Asia/Beijing,,39.13,117.22
Company Owned,和平区,天津市,12,300000,GMT+08:00 Asia/Beijing,,39.12,117.18
Company Owned,南开区,天津市,12,300100,GMT+08:00 Asia/Beijing,022,39.14,117.18
Company Owned,南开区,天津市,12,300100,GMT+08:00 Asia/Beijing,022,39.14,117.19
Company Owned,和平区,天津市,12,300000,GMT+08:00 Asia/Beijing,022,39.12,117.21
Company Owned,滨海新区,天津市,12,300400,GMT+08:00 Asia/Beijing,,39.01,117.68
Company Owned,经济技术开发区时尚东路29号,天津市,12,300400,GMT+08:00 Asia/Beijing,022,39.03,117.73
Company Owned,河西区,天津市,12,300200,GMT+08:00 Asia/Beijing,022,39.1,117.22
Company Owned,南开区,天津市,12,300100,GMT+08:00 Asia/Beijing,022,39.14,117.17
Company Owned,和平区,天津市,12,300000,GMT+08:00 Asia/Beijing,,39.12,117.2
Company Owned,经济技术开发区,天津市,12,300400,GMT+08:00 Asia/Beijing,022,39.02,117.7
Company Owned,河东区,天津市,12,300100,GMT+08:00 Asia/Beijing,,39.14,117.22
Company Owned,和平区,天津市,12,300000,GMT+08:00 Asia/Beijing,022,39.12,117.2
Company Owned,河西区,天津市,12,300200,GMT+08:00 Asia/Beijing,022,39.09,117.21
Company Owned,和平区,天津市,12,300000,GMT+08:00 Asia/Beijing,,39.13,117.21
Company Owned,和平区,天津市,12,300000,GMT+08:00 Asia/Beijing,,39.12,117.2
Company Owned,红桥区,天津市,12,300100,GMT+08:00 Asia/Beijing,022,39.15,117.17
Company Owned,和平区,天津市,12,300000,GMT+08:00 Asia/Beijing,,39.12,117.2
Company Owned,南开区,天津市,12,300100,GMT+08:00 Asia/Beijing,022,39.11,117.16
Company Owned,河西区,天津市,12,300200,GMT+08:00 Asia/Beijing,022,39.08,117.21
Company Owned,滨海新区,天津市,12,300400,GMT+08:00 Asia/Beijing,,39.0,117.7
Company Owned,滨海新区,天津市,12,300400,GMT+08:00 Asia/Beijing,,39.02,117.67
Company Owned,南开区,天津市,12,300100,GMT+08:00 Asia/Beijing,022,39.08,117.17
Company Owned,河北区,天津市,12,300100,GMT+08:00 Asia/Beijing,,39.18,117.21
Company Owned,南开区,天津市,12,300100,GMT+08:00 Asia/Beijing,,39.09,117.12
Company Owned,小白楼开封道54号1层及2层No.54,天津市,12,300000,GMT+08:00 Asia/Beijing,022,39.12,117.22
Company Owned,河西区,天津市,12,300200,GMT+08:00 Asia/Beijing,,39.1,117.2
Company Owned,和平区,天津市,12,300000,GMT+08:00 Asia/Beijing,022,39.12,117.22
Company Owned,和平区,天津市,12,300000,GMT+08:00 Asia/Beijing,022,39.12,117.19
Company Owned,西青经济技术开发区,天津市,12,300000,GMT+08:00 Asia/Beijing,,39.02,117.22
Company Owned,河西区,天津市,12,300200,GMT+08:00 Asia/Beijing,022,39.1,117.24
Company Owned,南京路75号天津国际大厦一层,天津市,12,300000,GMT+08:00 Asia/Beijing,022,39.12,117.21
Company Owned,新意大利风情街自由道60-62号,天津市,12,300000,GMT+08:00 Asia/Beijing,022,39.14,117.2
Company Owned,武清区,天津市,12,301700,GMT+08:00 Asia/Beijing,,39.38,117.01
Company Owned,武清区,天津市,12,301700,GMT+08:00 Asia/Beijing,,39.37,117.07
Company Owned,南开区,天津市,12,300100,GMT+08:00 Asia/Beijing,022,39.14,117.18
Company Owned,河西区,天津市,12,300200,GMT+08:00 Asia/Beijing,022,39.09,117.21
Company Owned,河东区,天津市,12,300100,GMT+08:00 Asia/Beijing,022,39.12,117.26
Company Owned,和平区,天津市,12,300000,GMT+08:00 Asia/Beijing,022,39.11,117.2
Company Owned,河西区,天津市,12,300200,GMT+08:00 Asia/Beijing,,39.11,117.22
Company Owned,西青区,天津市,12,300300,GMT+08:00 Asia/Beijing,,39.14,117.09
Company Owned,空港经济区,天津市,12,300000,GMT+08:00 Asia/Beijing,,39.16,117.4
Company Owned,河西区,天津市,12,300200,GMT+08:00 Asia/Beijing,022,39.11,117.22
Company Owned,河西区,天津市,12,300200,GMT+08:00 Asia/Beijing,022,39.06,117.22
Company Owned,和平区,天津市,12,300000,GMT+08:00 Asia/Beijing,022,39.12,117.19
Company Owned,西青经济开发区,天津市,12,300000,GMT+08:00 Asia/Beijing,022,39.03,117.22
Company Owned,和平区,天津市,12,300000,GMT+08:00 Asia/Beijing,,39.13,117.18
Company Owned,南开区,天津市,12,300100,GMT+08:00 Asia/Beijing,,39.14,117.19
Company Owned,泰达开发区,天津市,12,300400,GMT+08:00 Asia/Beijing,022,39.03,117.69
Company Owned,和平区,天津市,12,300000,GMT+08:00 Asia/Beijing,,39.13,117.19
Company Owned,津南区,天津市,12,300300,GMT+08:00 Asia/Beijing,,38.99,117.39
Company Owned,南开区,天津市,12,300100,GMT+08:00 Asia/Beijing,,39.08,117.17
Company Owned,西青区,天津市,12,300300,GMT+08:00 Asia/Beijing,,39.04,117.22
Company Owned,和平区,天津市,12,300000,GMT+08:00 Asia/Beijing,,39.13,117.2
Company Owned,新市区,保定市,13,71000,GMT+08:00 Asia/Beijing,0312,38.87,115.47
Company Owned,南市区,保定市,13,071000,GMT+08:00 Asia/Beijing,0312,38.86,115.49
Company Owned,朝阳北大街799号,保定市,13,50000,GMT+08:00 Asia/Beijing,0312,38.89,115.47
Company Owned,路南区,唐山市,13,063000,GMT+08:00 Asia/Beijing,0315,39.63,118.18
Company Owned,路南区,唐山市,13,063000,GMT+08:00 Asia/Beijing,0315,39.62,118.19
Company Owned,路北区,唐山市,13,063000,GMT+08:00 Asia/Beijing,,39.63,118.18
Company Owned,路北区,唐山市,13,063000,GMT+08:00 Asia/Beijing,0315,39.63,118.17
Company Owned,广阳区,廊坊市,13,065000,GMT+08:00 Asia/Beijing,,39.52,116.71
Company Owned,广阳区,廊坊市,13,065000,GMT+08:00 Asia/Beijing,0316,39.52,116.71
Company Owned,广阳区,廊坊市,13,065000,GMT+08:00 Asia/Beijing,,39.54,116.68
Company Owned,桥东区,张家口,13,075000,GMT+08:00 Asia/Beijing,,40.82,114.89
Company Owned,双桥区,承德市,13,067000,GMT+08:00 Asia/Beijing,,40.97,117.94
Company Owned,桥东区,石家庄,13,050000,GMT+08:00 Asia/Beijing,0311,38.04,114.5
Company Owned,桥东区,石家庄,13,050000,GMT+08:00 Asia/Beijing,0311,38.05,114.51
Company Owned,桥西区,石家庄,13,050000,GMT+08:00 Asia/Beijing,0311,38.04,114.48
Company Owned,中山西路83号,石家庄,13,050000,GMT+08:00 Asia/Beijing,0311,38.04,114.49
Company Owned,长安区,石家庄,13,050000,GMT+08:00 Asia/Beijing,,38.04,114.53
Company Owned,槐安路万达广场1层,石家庄,13,50000,GMT+08:00 Asia/Beijing,0311,38.02,114.54
Company Owned,桥东区,石家庄,13,050000,GMT+08:00 Asia/Beijing,0311,38.04,114.51
Company Owned,海港区,秦皇岛,13,066000,GMT+08:00 Asia/Beijing,,39.95,119.58
Company Owned,秦皇岛市,秦皇岛,13,066000,GMT+08:00 Asia/Beijing,,39.93,119.6
Company Owned,海港区,秦皇岛,13,066000,GMT+08:00 Asia/Beijing,,39.93,119.6
Company Owned,桥东区,邢台市,13,054000,GMT+08:00 Asia/Beijing,,37.06,114.49
Company Owned,丛台区,邯郸,13,056000,GMT+08:00 Asia/Beijing,,36.63,114.52
Company Owned,迎泽区,太原市,14,030000,GMT+08:00 Asia/Beijing,0351,37.87,112.57
Company Owned,杏花岭区,太原市,14,030000,GMT+08:00 Asia/Beijing,,37.88,112.56
Company Owned,杏花岭区,太原市,14,030000,GMT+08:00 Asia/Beijing,0351,37.87,112.55
Company Owned,小店区,太原市,14,030000,GMT+08:00 Asia/Beijing,,37.82,112.56
Company Owned,小店区,太原市,14,030000,GMT+08:00 Asia/Beijing,0351,37.82,112.56
Company Owned,迎泽区,太原市,14,030000,GMT+08:00 Asia/Beijing,0351,37.86,112.57
Company Owned,小店区,太原市,14,030000,GMT+08:00 Asia/Beijing,0351,37.82,112.56
Company Owned,迎泽区,太原市,14,030000,GMT+08:00 Asia/Beijing,0351,37.87,112.57
Company Owned,昆都仑区,包头市,15,014000,GMT+08:00 Asia/Beijing,,40.66,109.82
Company Owned,青山区,包头市,15,014000,GMT+08:00 Asia/Beijing,0472,40.66,109.85
Company Owned,昆区,包头市,15,14010,GMT+08:00 Asia/Beijing,010,40.66,109.81
Company Owned,昆都仑区,包头市,15,014000,GMT+08:00 Asia/Beijing,,40.66,109.84
Company Owned,赛罕区,呼和浩特,15,010000,GMT+08:00 Asia/Beijing,,40.83,111.71
Company Owned,回民区,呼和浩特,15,010000,GMT+08:00 Asia/Beijing,0471,40.81,111.67
Company Owned,回民区,呼和浩特,15,010000,GMT+08:00 Asia/Beijing,,40.82,111.67
Company Owned,赛罕区,呼和浩特,15,010000,GMT+08:00 Asia/Beijing,,40.84,111.74
Company Owned,中山区,大连市,21,116000,GMT+08:00 Asia/Beijing,0411,38.92,121.64
Company Owned,中山区,大连市,21,116000,GMT+08:00 Asia/Beijing,,38.92,121.63
Company Owned,西岗区,大连市,21,116000,GMT+08:00 Asia/Beijing,,38.91,121.61
Company Owned,大连市,大连市,21,116000,GMT+08:00 Asia/Beijing,,38.86,121.53
Company Owned,中山区,大连市,21,116000,GMT+08:00 Asia/Beijing,,38.92,121.65
Company Owned,甘井子区,大连市,21,116000,GMT+08:00 Asia/Beijing,,38.96,121.54
Company Owned,中山区,大连市,21,116000,GMT+08:00 Asia/Beijing,0411,38.92,121.64
Company Owned,沙河口区,大连市,21,116000,GMT+08:00 Asia/Beijing,,38.91,121.59
Company Owned,甘井子区,大连市,21,116000,GMT+08:00 Asia/Beijing,,38.99,121.59
Company Owned,西岗区,大连市,21,116000,GMT+08:00 Asia/Beijing,0411,38.91,121.61
Company Owned,西岗区,大连市,21,116000,GMT+08:00 Asia/Beijing,,38.91,121.61
Company Owned,高新园区,大连市,21,116000,GMT+08:00 Asia/Beijing,0411,38.86,121.53
Company Owned,甘井子区,大连市,21,116000,GMT+08:00 Asia/Beijing,,38.99,121.59
Company Owned,沙河口区,大连市,21,116000,GMT+08:00 Asia/Beijing,0411,38.88,121.54
Company Owned,大连市,大连市,21,116000,GMT+08:00 Asia/Beijing,,38.92,121.63
Company Owned,金州区,大连市,21,116600,GMT+08:00 Asia/Beijing,0411,39.1,121.72
Company Owned,大连市,大连市,21,116000,GMT+08:00 Asia/Beijing,,38.92,121.63
Company Owned,中山区,大连市,21,116000,GMT+08:00 Asia/Beijing,0411,38.92,121.64
Company Owned,中山区,大连市,21,116000,GMT+08:00 Asia/Beijing,0411,38.92,121.63
Company Owned,中山区,大连市,21,116000,GMT+08:00 Asia/Beijing,0411,38.92,121.64
Company Owned,沙河口区,大连市,21,116000,GMT+08:00 Asia/Beijing,0411,38.9,121.59
Company Owned,经济技术开发区,大连市,21,116600,GMT+08:00 Asia/Beijing,0411,39.05,121.78
Company Owned,甘井子区,大连市,21,116000,GMT+08:00 Asia/Beijing,,38.96,121.54
Company Owned,西岗区,大连市,21,116000,GMT+08:00 Asia/Beijing,0411,38.93,121.61
Company Owned,经济技术开发区,大连市,21,116100,GMT+08:00 Asia/Beijing,0411,39.06,121.78
Company Owned,新抚区,抚顺市,21,113000,GMT+08:00 Asia/Beijing,024,41.86,123.9
Company Owned,和平区,沈阳市,21,110000,GMT+08:00 Asia/Beijing,024,41.78,123.43
Company Owned,东陵区,沈阳市,21,110000,GMT+08:00 Asia/Beijing,024,41.84,123.62
Company Owned,和平区,沈阳市,21,110000,GMT+08:00 Asia/Beijing,024,41.75,123.4
Company Owned,和平区,沈阳市,21,110000,GMT+08:00 Asia/Beijing,024,41.79,123.41
Company Owned,铁西区,沈阳市,21,110000,GMT+08:00 Asia/Beijing,024,41.78,123.36
Company Owned,皇姑区,沈阳市,21,110000,GMT+08:00 Asia/Beijing,024,41.84,123.42
Company Owned,和平区,沈阳市,21,110000,GMT+08:00 Asia/Beijing,,41.79,123.4
Company Owned,和平区,沈阳市,21,110000,GMT+08:00 Asia/Beijing,024,41.81,123.44
Company Owned,沈河区,沈阳市,21,110000,GMT+08:00 Asia/Beijing,024,41.76,123.44
Company Owned,东陵区,沈阳市,21,110000,GMT+08:00 Asia/Beijing,024,41.64,123.49
Company Owned,铁西区,沈阳市,21,110000,GMT+08:00 Asia/Beijing,024,41.81,123.38
Company Owned,浑南新区,沈阳市,21,110000,GMT+08:00 Asia/Beijing,,41.74,123.46
Company Owned,东陵区,沈阳市,21,110000,GMT+08:00 Asia/Beijing,024,41.73,123.46
Company Owned,和平区,沈阳市,21,110000,GMT+08:00 Asia/Beijing,024,41.79,123.4
Company Owned,和平区,沈阳市,21,110000,GMT+08:00 Asia/Beijing,,41.78,123.43
Company Owned,铁西区,沈阳市,21,110000,GMT+08:00 Asia/Beijing,024,41.81,123.38
Company Owned,大东区,沈阳市,21,110000,GMT+08:00 Asia/Beijing,024,41.8,123.47
Company Owned,大东区,沈阳市,21,110000,GMT+08:00 Asia/Beijing,,41.8,123.46
Company Owned,沈河区,沈阳市,21,110000,GMT+08:00 Asia/Beijing,024,41.81,123.43
Company Owned,沈河区,沈阳市,21,110000,GMT+08:00 Asia/Beijing,024,41.8,123.46
Company Owned,皇姑区,沈阳市,21,110000,GMT+08:00 Asia/Beijing,,41.83,123.38
Company Owned,和平区,沈阳市,21,110000,GMT+08:00 Asia/Beijing,024,41.79,123.4
Company Owned,铁西区,沈阳市,21,110000,GMT+08:00 Asia/Beijing,,41.8,123.37
Company Owned,沈河区,沈阳市,21,110000,GMT+08:00 Asia/Beijing,024,41.8,123.46
Company Owned,兴隆台区,盘锦市,21,124000,GMT+08:00 Asia/Beijing,,41.12,122.08
Company Owned,兴隆台区,盘锦市,21,124000,GMT+08:00 Asia/Beijing,,41.1,122.08
Company Owned,鲅鱼圈区,营口市,21,115000,GMT+08:00 Asia/Beijing,,40.27,122.13
Company Owned,站前区,营口市,21,115000,GMT+08:00 Asia/Beijing,,40.67,122.24
Company Owned,铁东区,鞍山市,21,114000,GMT+08:00 Asia/Beijing,0412,41.11,122.98
Company Owned,铁东区,鞍山市,21,114000,GMT+08:00 Asia/Beijing,0412,41.11,123.0
Company Owned,铁东区,鞍山市,21,114000,GMT+08:00 Asia/Beijing,0412,41.11,122.99
Company Owned,昌邑区,吉林市,22,132000,GMT+08:00 Asia/Beijing,,43.85,126.57
Company Owned,昌邑区,吉林市,22,132000,GMT+08:00 Asia/Beijing,,43.85,126.59
Company Owned,延吉市,延吉市,22,133000,GMT+08:00 Asia/Beijing,,42.91,129.51
Company Owned,朝阳区,长春市,22,130000,GMT+08:00 Asia/Beijing,0431,43.89,125.32
Company Owned,南关区,长春市,22,130000,GMT+08:00 Asia/Beijing,0431,43.9,125.34
Company Owned,朝阳区,长春市,22,130000,GMT+08:00 Asia/Beijing,0431,43.87,125.32
Company Owned,朝阳区,长春市,22,130000,GMT+08:00 Asia/Beijing,0431,43.87,125.3
Company Owned,朝阳区,长春市,22,130000,GMT+08:00 Asia/Beijing,,43.84,125.24
Company Owned,朝阳区,长春市,22,130000,GMT+08:00 Asia/Beijing,0431,43.89,125.32
Company Owned,朝阳区,长春市,22,130000,GMT+08:00 Asia/Beijing,0431,43.84,125.24
Company Owned,南关区,长春市,22,130000,GMT+08:00 Asia/Beijing,0431,43.89,125.33
Company Owned,宽城区,长春市,22,130000,GMT+08:00 Asia/Beijing,0431,43.91,125.32
Company Owned,净月开发区,长春市,22,130000,GMT+08:00 Asia/Beijing,,43.82,125.41
Company Owned,道里区,哈尔滨,23,150000,GMT+08:00 Asia/Beijing,0451,45.77,126.62
Company Owned,道里区,哈尔滨,23,150000,GMT+08:00 Asia/Beijing,0451,45.78,126.62
Company Owned,南岗区,哈尔滨,23,150000,GMT+08:00 Asia/Beijing,0451,45.72,126.61
Company Owned,南岗区,哈尔滨,23,150000,GMT+08:00 Asia/Beijing,0451,45.74,126.68
Company Owned,群力新区,哈尔滨,23,150000,GMT+08:00 Asia/Beijing,,45.74,126.56
Company Owned,道里区,哈尔滨,23,150000,GMT+08:00 Asia/Beijing,,45.73,126.59
Company Owned,南岗区,哈尔滨,23,150000,GMT+08:00 Asia/Beijing,0451,45.7,126.59
Company Owned,南岗区,哈尔滨,23,150000,GMT+08:00 Asia/Beijing,0451,45.76,126.64
Company Owned,香坊区,哈尔滨,23,150000,GMT+08:00 Asia/Beijing,0451,45.72,126.65
Company Owned,南岗区,哈尔滨,23,150000,GMT+08:00 Asia/Beijing,,45.76,126.7
Company Owned,南岗区,哈尔滨,23,150000,GMT+08:00 Asia/Beijing,0451,45.75,126.7
Company Owned,道里区,哈尔滨,23,150000,GMT+08:00 Asia/Beijing,0451,45.77,126.62
Company Owned,道里区,哈尔滨,23,150000,GMT+08:00 Asia/Beijing,0451,45.77,126.62
Company Owned,道外区,哈尔滨,23,150000,GMT+08:00 Asia/Beijing,,45.79,126.68
Company Owned,萨尔图区,大庆市,23,163300,GMT+08:00 Asia/Beijing,,46.59,125.09
Company Owned,让胡路区,大庆市,23,163300,GMT+08:00 Asia/Beijing,,46.64,124.89
Joint Venture,No.619,shanghai,31,200400,GMT+08:00 Asia/Beijing,,31.27,121.54
Joint Venture,Room 101,shanghai,31,201300,GMT+08:00 Asia/Beijing,,31.2,121.6
Joint Venture,No.102,Shanghai,31,201100,GMT+08:00 Asia/Beijing,,31.15,121.35
Joint Venture,NO.4750,ShangHai,31,200400,GMT+08:00 Asia/Beijing,,31.32,121.45
Joint Venture,Unit201,Shanghai,31,200000,GMT+08:00 Asia/Beijing,,31.28,121.51
Joint Venture,1F,ShangHai,31,200000,GMT+08:00 Asia/Beijing,,31.23,121.53
Joint Venture,NO.378,shanghai,31,200400,GMT+08:00 Asia/Beijing,,31.31,121.54
Joint Venture,黄浦区,上海市,31,200000,GMT+08:00 Asia/Beijing,,31.2,121.48
Joint Venture,虹口区,上海市,31,200000,GMT+08:00 Asia/Beijing,,31.26,121.48
Joint Venture,上海市,上海市,31,201100,GMT+08:00 Asia/Beijing,,31.4,121.49
Joint Venture,普陀区,上海市,31,200300,GMT+08:00 Asia/Beijing,,31.24,121.43
Joint Venture,松江区,上海市,31,201600,GMT+08:00 Asia/Beijing,,31.02,121.2
Joint Venture,上海浦东,上海市,31,200000,GMT+08:00 Asia/Beijing,,31.15,121.81
Joint Venture,卢湾区,上海市,31,200000,GMT+08:00 Asia/Beijing,021,31.22,121.46
Joint Venture,崇明县,上海市,31,202100,GMT+08:00 Asia/Beijing,021,31.62,121.4
Joint Venture,浦东新区,上海市,31,200100,GMT+08:00 Asia/Beijing,,31.21,121.6
Joint Venture,青浦区,上海市,31,201700,GMT+08:00 Asia/Beijing,021,31.15,121.23
Joint Venture,黄浦区,上海市,31,200000,GMT+08:00 Asia/Beijing,021,31.23,121.48
Joint Venture,牡丹江路318号,上海市,31,200900,GMT+08:00 Asia/Beijing,,31.38,121.5
Joint Venture,杨浦区,上海市,31,200000,GMT+08:00 Asia/Beijing,021,31.26,121.51
Joint Venture,上海市浦东新区,上海市,31,200100,GMT+08:00 Asia/Beijing,,31.23,121.52
Joint Venture,上海市浦东新区,上海市,31,200100,GMT+08:00 Asia/Beijing,,31.21,121.56
Joint Venture,上海市黄浦区,上海市,31,200000,GMT+08:00 Asia/Beijing,,31.21,121.47
Joint Venture,金山区,上海市,31,201500,GMT+08:00 Asia/Beijing,,30.84,121.32
Joint Venture,浦东新区,上海市,31,200100,GMT+08:00 Asia/Beijing,021,31.23,121.56
Joint Venture,长宁区福泉北路388号,上海市,31,200000,GMT+08:00 Asia/Beijing,,31.23,121.36
Joint Venture,上海市闵行区,上海市,31,201100,GMT+08:00 Asia/Beijing,,31.2,121.31
Joint Venture,宝山区,上海市,31,201900,GMT+08:00 Asia/Beijing,,31.34,121.45
Joint Venture,黄浦区,上海市,31,200000,GMT+08:00 Asia/Beijing,,31.23,121.47
Joint Venture,青浦区,上海市,31,201700,GMT+08:00 Asia/Beijing,,31.15,121.13
Joint Venture,徐汇区,上海市,31,200000,GMT+08:00 Asia/Beijing,,31.19,121.44
Joint Venture,浦东新区,上海市,31,200100,GMT+08:00 Asia/Beijing,,31.15,121.8
Joint Venture,上海市浦东新区,上海市,31,200100,GMT+08:00 Asia/Beijing,,31.16,121.67
Joint Venture,黄浦区,上海市,31,200000,GMT+08:00 Asia/Beijing,021,31.23,121.48
Joint Venture,闵行区,上海市,31,201100,GMT+08:00 Asia/Beijing,,31.01,121.4
Joint Venture,浦东新区,上海市,31,200100,GMT+08:00 Asia/Beijing,021,31.22,121.53
Joint Venture,虹口区,上海市,31,200000,GMT+08:00 Asia/Beijing,,31.25,121.51
Joint Venture,浦东新区,上海市,31,200100,GMT+08:00 Asia/Beijing,021,31.19,121.61
Joint Venture,长宁区,上海市,31,200000,GMT+08:00 Asia/Beijing,,31.21,121.4
Joint Venture,闸北区,上海市,31,200000,GMT+08:00 Asia/Beijing,021,31.24,121.45
Joint Venture,上海市松江区,上海市,31,201600,GMT+08:00 Asia/Beijing,,31.03,121.22
Joint Venture,浦东新区,上海市,31,200100,GMT+08:00 Asia/Beijing,,31.18,121.5
Joint Venture,上海市浦东新区,上海市,31,200100,GMT+08:00 Asia/Beijing,,31.18,121.7
Joint Venture,浦东新区,上海市,31,200100,GMT+08:00 Asia/Beijing,,31.26,121.58
Joint Venture,静安区,上海市,31,200000,GMT+08:00 Asia/Beijing,,31.23,121.47
Joint Venture,长宁区,上海市,31,200000,GMT+08:00 Asia/Beijing,,31.21,121.41
Joint Venture,长宁区,上海市,31,200000,GMT+08:00 Asia/Beijing,,31.23,121.36
Joint Venture,奉贤区航南公路5639号1F-036单元,上海市,31,201400,GMT+08:00 Asia/Beijing,,30.93,121.46
Joint Venture,上海市闵行区,上海市,31,201100,GMT+08:00 Asia/Beijing,,31.19,121.4
Joint Venture,闸北区,上海市,31,200000,GMT+08:00 Asia/Beijing,021,31.25,121.46
Joint Venture,长宁区,上海市,31,200000,GMT+08:00 Asia/Beijing,021,31.2,121.42
Joint Venture,浦东新区,上海市,31,200100,GMT+08:00 Asia/Beijing,021,31.2,121.59
Joint Venture,金山区,上海市,31,201500,GMT+08:00 Asia/Beijing,,30.75,121.34
Joint Venture,浦东新区,上海市,31,200100,GMT+08:00 Asia/Beijing,,31.18,121.61
Joint Venture,徐汇区,上海市,31,200000,GMT+08:00 Asia/Beijing,021,31.22,121.46
Joint Venture,浦东新区,上海市,31,200100,GMT+08:00 Asia/Beijing,,31.23,121.52
Joint Venture,上海市闵行区,上海市,31,201100,GMT+08:00 Asia/Beijing,,31.04,121.46
Joint Venture,上海市静安区,上海市,31,200000,GMT+08:00 Asia/Beijing,021,31.29,121.44
Joint Venture,上海市宝山区,上海市,31,201900,GMT+08:00 Asia/Beijing,,31.33,121.44
Joint Venture,杨浦区,上海市,31,200000,GMT+08:00 Asia/Beijing,,31.32,121.51
Joint Venture,虹口区,上海市,31,200000,GMT+08:00 Asia/Beijing,,31.27,121.47
Joint Venture,普陀区,上海市,31,200300,GMT+08:00 Asia/Beijing,021,31.24,121.42
Joint Venture,上海市浦东新区,上海市,31,200100,GMT+08:00 Asia/Beijing,,31.21,121.52
Joint Venture,杨浦区,上海市,31,200000,GMT+08:00 Asia/Beijing,021,31.3,121.52
Joint Venture,普陀区,上海市,31,200300,GMT+08:00 Asia/Beijing,021,31.24,121.37
Joint Venture,普陀区,上海市,31,200300,GMT+08:00 Asia/Beijing,021,31.24,121.41
Joint Venture,杨浦区,上海市,31,200000,GMT+08:00 Asia/Beijing,,31.28,121.54
Joint Venture,静安区,上海市,31,200000,GMT+08:00 Asia/Beijing,021,31.22,121.45
Joint Venture,上海市金山区,上海市,31,201500,GMT+08:00 Asia/Beijing,,30.89,121.02
Joint Venture,黄浦区,上海市,31,200000,GMT+08:00 Asia/Beijing,021,31.23,121.48
Joint Venture,徐汇区,上海市,31,200000,GMT+08:00 Asia/Beijing,,31.18,121.44
Joint Venture,长宁区,上海市,31,200000,GMT+08:00 Asia/Beijing,021,31.19,121.32
Joint Venture,闸北区,上海市,31,200000,GMT+08:00 Asia/Beijing,021,31.24,121.46
Joint Venture,闵行区,上海市,31,201100,GMT+08:00 Asia/Beijing,,31.2,121.31
Joint Venture,上海市浦东新区,上海市,31,200100,GMT+08:00 Asia/Beijing,,31.16,121.68
Joint Venture,上海市青浦区,上海市,31,201700,GMT+08:00 Asia/Beijing,,31.19,121.3
Joint Venture,静安区,上海市,31,200000,GMT+08:00 Asia/Beijing,021,31.23,121.45
Joint Venture,徐汇区,上海市,31,200000,GMT+08:00 Asia/Beijing,,31.17,121.42
Joint Venture,闵行区,上海市,31,201100,GMT+08:00 Asia/Beijing,021,31.18,121.37
Joint Venture,浦东新区,上海市,31,200100,GMT+08:00 Asia/Beijing,,31.12,121.62
Joint Venture,徐汇区,上海市,31,200000,GMT+08:00 Asia/Beijing,021,31.2,121.45
Joint Venture,上海市黄浦区,上海市,31,200000,GMT+08:00 Asia/Beijing,,31.22,121.47
Joint Venture,虹口区,上海市,31,200000,GMT+08:00 Asia/Beijing,021,31.26,121.48
Joint Venture,宝山区,上海市,31,201900,GMT+08:00 Asia/Beijing,021,31.4,121.35
Joint Venture,青浦区,上海市,31,201700,GMT+08:00 Asia/Beijing,021,31.15,121.11
Joint Venture,闵行区,上海市,31,201100,GMT+08:00 Asia/Beijing,021,31.18,121.39
Joint Venture,上海市嘉定区,上海市,31,201800,GMT+08:00 Asia/Beijing,,31.3,121.33
Joint Venture,浦东新区东靖路1881号,上海市,31,200100,GMT+08:00 Asia/Beijing,,31.29,121.61
Joint Venture,浦东新区,上海市,31,200100,GMT+08:00 Asia/Beijing,,31.23,121.51
Joint Venture,徐汇区,上海市,31,200000,GMT+08:00 Asia/Beijing,021,31.17,121.41
Joint Venture,浦东新区,上海市,31,200100,GMT+08:00 Asia/Beijing,021,31.22,121.54
Joint Venture,上海浦东国际机场T2,上海市,31,200100,GMT+08:00 Asia/Beijing,,31.15,121.81
Joint Venture,上海市虹口区,上海市,31,200000,GMT+08:00 Asia/Beijing,,31.25,121.49
Joint Venture,闵行区,上海市,31,201100,GMT+08:00 Asia/Beijing,021,31.13,121.4
Joint Venture,浦东新区,上海市,31,200100,GMT+08:00 Asia/Beijing,,31.22,121.52
Joint Venture,长宁区,上海市,31,200000,GMT+08:00 Asia/Beijing,021,31.19,121.38
Joint Venture,嘉定镇,上海市,31,201800,GMT+08:00 Asia/Beijing,021,31.38,121.25
Joint Venture,浦东新区,上海市,31,200100,GMT+08:00 Asia/Beijing,,31.15,121.8
Joint Venture,徐汇区,上海市,31,200000,GMT+08:00 Asia/Beijing,,31.19,121.44
Joint Venture,静安区,上海市,31,200000,GMT+08:00 Asia/Beijing,021,31.23,121.45
Joint Venture,普陀区,上海市,31,200300,GMT+08:00 Asia/Beijing,,31.28,121.35
Joint Venture,长宁区,上海市,31,200000,GMT+08:00 Asia/Beijing,021,31.21,121.41
Joint Venture,长宁区,上海市,31,200000,GMT+08:00 Asia/Beijing,,31.19,121.4
Joint Venture,上海市闵行区,上海市,31,201100,GMT+08:00 Asia/Beijing,,31.15,121.35
Joint Venture,浦东新区,上海市,31,200100,GMT+08:00 Asia/Beijing,,31.15,121.81
Joint Venture,浦东新区,上海市,31,200100,GMT+08:00 Asia/Beijing,021,31.15,121.81
Joint Venture,浦东新区,上海市,31,200100,GMT+08:00 Asia/Beijing,021,31.21,121.59
Joint Venture,上海市浦东新区,上海市,31,200100,GMT+08:00 Asia/Beijing,,31.15,121.49
Joint Venture,浦东新区,上海市,31,200100,GMT+08:00 Asia/Beijing,,31.26,121.63
Joint Venture,杨浦区,上海市,31,200000,GMT+08:00 Asia/Beijing,,31.31,121.51
Joint Venture,上海市松江区,上海市,31,201600,GMT+08:00 Asia/Beijing,,31.03,121.2
Joint Venture,浦东新区,上海市,31,200100,GMT+08:00 Asia/Beijing,021,31.24,121.5
Joint Venture,虹口区,上海市,31,200000,GMT+08:00 Asia/Beijing,,31.26,121.5
Joint Venture,上海市浦东新区,上海市,31,200100,GMT+08:00 Asia/Beijing,,31.14,121.66
Joint Venture,虹口区,上海市,31,200000,GMT+08:00 Asia/Beijing,,31.26,121.47
Joint Venture,静安区,上海市,31,200000,GMT+08:00 Asia/Beijing,,31.22,121.45
Joint Venture,上海市浦东新区,上海市,31,200100,GMT+08:00 Asia/Beijing,,31.23,121.52
Joint Venture,上海市虹口区,上海市,31,200000,GMT+08:00 Asia/Beijing,,31.29,121.48
Joint Venture,杨浦区,上海市,31,200000,GMT+08:00 Asia/Beijing,021,31.3,121.51
Joint Venture,上海市宝山区,上海市,31,201900,GMT+08:00 Asia/Beijing,,31.39,121.36
Joint Venture,浦东新区,上海市,31,200100,GMT+08:00 Asia/Beijing,021,31.24,121.5
Joint Venture,杨浦区,上海市,31,200000,GMT+08:00 Asia/Beijing,021,31.31,121.51
Joint Venture,静安区,上海市,31,200000,GMT+08:00 Asia/Beijing,021,31.24,121.44
Joint Venture,黄浦区,上海市,31,200000,GMT+08:00 Asia/Beijing,021,31.23,121.49
Joint Venture,长宁区,上海市,31,200000,GMT+08:00 Asia/Beijing,021,31.22,121.42
Joint Venture,徐汇区,上海市,31,200000,GMT+08:00 Asia/Beijing,021,31.19,121.44
Joint Venture,浦东新区,上海市,31,200100,GMT+08:00 Asia/Beijing,,31.27,121.59
Joint Venture,浦东新区,上海市,31,200100,GMT+08:00 Asia/Beijing,,30.87,121.82
Joint Venture,上海浦东新区,上海市,31,200100,GMT+08:00 Asia/Beijing,,31.21,121.53
Joint Venture,上海市闵行区,上海市,31,201100,GMT+08:00 Asia/Beijing,,31.08,121.5
Joint Venture,长宁区,上海市,31,200000,GMT+08:00 Asia/Beijing,021,31.2,121.39
Joint Venture,上海市嘉定区,上海市,31,201800,GMT+08:00 Asia/Beijing,,31.33,121.28
Joint Venture,长宁区金钟路968号,上海市,31,200000,GMT+08:00 Asia/Beijing,,31.22,121.35
Joint Venture,卢湾区,上海市,31,200000,GMT+08:00 Asia/Beijing,021,31.22,121.47
Joint Venture,上海市浦东新区,上海市,31,200100,GMT+08:00 Asia/Beijing,,31.24,121.5
Joint Venture,普陀区,上海市,31,200300,GMT+08:00 Asia/Beijing,021,31.26,121.42
Joint Venture,闵行区,上海市,31,201100,GMT+08:00 Asia/Beijing,,31.09,121.52
Joint Venture,上海市浦东新区,上海市,31,200100,GMT+08:00 Asia/Beijing,,31.2,121.7
Joint Venture,闸北区,上海市,31,200000,GMT+08:00 Asia/Beijing,021,31.25,121.48
Joint Venture,青浦区,上海市,31,201700,GMT+08:00 Asia/Beijing,,31.14,121.09
Joint Venture,上海市长宁区,上海市,31,200000,GMT+08:00 Asia/Beijing,,31.23,121.43
Joint Venture,浦东新区,上海市,31,200100,GMT+08:00 Asia/Beijing,,30.91,121.82
Joint Venture,上海市金山区,上海市,31,201500,GMT+08:00 Asia/Beijing,,30.76,121.33
Joint Venture,闵行区龙茗路1025号814单元,上海市,31,201100,GMT+08:00 Asia/Beijing,,31.14,121.39
Joint Venture,虹口区,上海市,31,200000,GMT+08:00 Asia/Beijing,,31.26,121.49
Joint Venture,青浦区,上海市,31,201700,GMT+08:00 Asia/Beijing,021,31.11,121.06
Joint Venture,长宁区,上海市,31,200000,GMT+08:00 Asia/Beijing,021,31.2,121.4
Joint Venture,长宁区,上海市,31,200000,GMT+08:00 Asia/Beijing,,31.2,121.39
Joint Venture,闵行吴中路1799号大堂层203单元,上海市,31,201100,GMT+08:00 Asia/Beijing,,31.17,121.37
Joint Venture,普陀区,上海市,31,200300,GMT+08:00 Asia/Beijing,021,31.25,121.38
Joint Venture,长宁区,上海市,31,200000,GMT+08:00 Asia/Beijing,021,31.19,121.39
Joint Venture,徐汇区,上海市,31,200000,GMT+08:00 Asia/Beijing,021,31.21,121.45
Joint Venture,上海浦东机场迎宾大道6000号,上海市,31,200100,GMT+08:00 Asia/Beijing,,31.15,121.8
Joint Venture,浦东新区,上海市,31,200100,GMT+08:00 Asia/Beijing,,31.2,121.6
Joint Venture,上海市长宁区,上海市,31,200000,GMT+08:00 Asia/Beijing,,31.2,121.43
Joint Venture,上海市静安区,上海市,31,200000,GMT+08:00 Asia/Beijing,,31.24,121.47
Joint Venture,浦东新区,上海市,31,200100,GMT+08:00 Asia/Beijing,,31.16,121.57
Joint Venture,浦东新区,上海市,31,200100,GMT+08:00 Asia/Beijing,021,31.24,121.51
Joint Venture,浦东新区,上海市,31,200100,GMT+08:00 Asia/Beijing,021,31.18,121.49
Joint Venture,浦东新区,上海市,31,200100,GMT+08:00 Asia/Beijing,021,31.23,121.51
Joint Venture,虹口区,上海市,31,200000,GMT+08:00 Asia/Beijing,,31.29,121.48
Joint Venture,上海市普陀区,上海市,31,200300,GMT+08:00 Asia/Beijing,,31.24,121.39
Joint Venture,上海市徐汇区,上海市,31,200000,GMT+08:00 Asia/Beijing,,31.17,121.43
Joint Venture,宝山区,上海市,31,201900,GMT+08:00 Asia/Beijing,021,31.4,121.48
Joint Venture,长宁区,上海市,31,200000,GMT+08:00 Asia/Beijing,021,31.21,121.43
Joint Venture,枫庭丽苑武威东路小区出入口,上海市,31,200100,GMT+08:00 Asia/Beijing,,31.28,121.41
Joint Venture,浦东新区,上海市,31,200100,GMT+08:00 Asia/Beijing,021,31.23,121.52
Joint Venture,宝山区,上海市,31,201900,GMT+08:00 Asia/Beijing,,31.27,121.41
Joint Venture,建国中路8-10号,上海市,31,200100,GMT+08:00 Asia/Beijing,,31.21,121.47
Joint Venture,上海市闵行区,上海市,31,201100,GMT+08:00 Asia/Beijing,,31.2,121.31
Joint Venture,上海浦东新区,上海市,31,200000,GMT+08:00 Asia/Beijing,,31.23,121.53
Joint Venture,徐汇区,上海市,31,200000,GMT+08:00 Asia/Beijing,,31.2,121.43
Joint Venture,闵行区,上海市,31,201100,GMT+08:00 Asia/Beijing,,31.21,121.29
Joint Venture,浦东新区,上海市,31,200100,GMT+08:00 Asia/Beijing,021,31.19,121.54
Joint Venture,上海市青浦区,上海市,31,201700,GMT+08:00 Asia/Beijing,,31.23,121.23
Joint Venture,嘉定区城北路358号1层15单元,上海市,31,201800,GMT+08:00 Asia/Beijing,,31.39,121.24
Joint Venture,黄浦区,上海市,31,200000,GMT+08:00 Asia/Beijing,021,31.24,121.48
Joint Venture,长宁区,上海市,31,200000,GMT+08:00 Asia/Beijing,021,31.2,121.4
Joint Venture,黄浦区,上海市,31,200000,GMT+08:00 Asia/Beijing,,31.22,121.47
Joint Venture,静安区延安中路823号,上海市,31,200000,GMT+08:00 Asia/Beijing,,31.22,121.45
Joint Venture,普陀区,上海市,31,200300,GMT+08:00 Asia/Beijing,,31.24,121.42
Joint Venture,黄浦区,上海市,31,200000,GMT+08:00 Asia/Beijing,021,31.22,121.49
Joint Venture,上海市松江区,上海市,31,201600,GMT+08:00 Asia/Beijing,,31.05,121.23
Joint Venture,静安区,上海市,31,200000,GMT+08:00 Asia/Beijing,,31.22,121.45
Joint Venture,嘉定区,上海市,31,201800,GMT+08:00 Asia/Beijing,021,31.29,121.16
Joint Venture,上海市徐汇区,上海市,31,200000,GMT+08:00 Asia/Beijing,,31.2,121.47
Joint Venture,浦东新区,上海市,31,200100,GMT+08:00 Asia/Beijing,021,31.14,121.51
Joint Venture,闵行区,上海市,31,201100,GMT+08:00 Asia/Beijing,021,31.17,121.4
Joint Venture,浦东新区,上海市,31,200100,GMT+08:00 Asia/Beijing,,31.24,121.5
Joint Venture,上海市长宁区,上海市,31,200000,GMT+08:00 Asia/Beijing,,31.23,121.36
Joint Venture,上海市闵行区,上海市,31,201100,GMT+08:00 Asia/Beijing,021,31.19,121.39
Joint Venture,嘉定区,上海市,31,201800,GMT+08:00 Asia/Beijing,,31.27,121.34
Joint Venture,长宁区,上海市,31,200000,GMT+08:00 Asia/Beijing,021,31.22,121.35
Joint Venture,闸北区,上海市,31,200000,GMT+08:00 Asia/Beijing,021,31.28,121.44
Joint Venture,静安区,上海市,31,200000,GMT+08:00 Asia/Beijing,021,31.22,121.45
Joint Venture,上海市徐汇区,上海市,31,200000,GMT+08:00 Asia/Beijing,,31.12,121.46
Joint Venture,宝山区,上海市,31,201900,GMT+08:00 Asia/Beijing,021,31.39,121.49
Joint Venture,浦东新区,上海市,31,200100,GMT+08:00 Asia/Beijing,021,31.23,121.54
Joint Venture,徐汇区,上海市,31,200000,GMT+08:00 Asia/Beijing,021,31.19,121.44
Joint Venture,闸北区,上海市,31,200000,GMT+08:00 Asia/Beijing,,31.3,121.44
Joint Venture,浦东新区,上海市,31,200100,GMT+08:00 Asia/Beijing,50482915,31.31,121.61
Joint Venture,上海市嘉定区,上海市,31,201800,GMT+08:00 Asia/Beijing,,31.35,121.26
Joint Venture,闸北区,上海市,31,200000,GMT+08:00 Asia/Beijing,,31.25,121.46
Joint Venture,上海市静安区,上海市,31,200000,GMT+08:00 Asia/Beijing,,31.28,121.44
Joint Venture,浦东新区,上海市,31,200100,GMT+08:00 Asia/Beijing,021,31.24,121.51
Joint Venture,上海市静安区,上海市,31,200000,GMT+08:00 Asia/Beijing,,31.3,121.46
Joint Venture,徐汇区,上海市,31,200000,GMT+08:00 Asia/Beijing,021,31.22,121.46
Joint Venture,普陀区,上海市,31,200300,GMT+08:00 Asia/Beijing,,31.22,121.4
Joint Venture,浦东新区,上海市,31,200100,GMT+08:00 Asia/Beijing,021,31.23,121.56
Joint Venture,奉贤区,上海市,31,201400,GMT+08:00 Asia/Beijing,,30.94,121.46
Joint Venture,普陀区,上海市,31,200300,GMT+08:00 Asia/Beijing,021,31.24,121.38
Joint Venture,黄浦区,上海市,31,200000,GMT+08:00 Asia/Beijing,021,31.23,121.49
Joint Venture,闵行区七莘路1855号1楼101单元,上海市,31,201100,GMT+08:00 Asia/Beijing,,31.14,121.36
Joint Venture,上海市徐汇区,上海市,31,200000,GMT+08:00 Asia/Beijing,,31.2,121.44
Joint Venture,宝山区,上海市,31,201900,GMT+08:00 Asia/Beijing,,31.32,121.39
Joint Venture,浦东新区,上海市,31,200100,GMT+08:00 Asia/Beijing,,31.23,121.52
Joint Venture,黄浦区,上海市,31,200000,GMT+08:00 Asia/Beijing,021,31.23,121.47
Joint Venture,浦东新区,上海市,31,200100,GMT+08:00 Asia/Beijing,021,31.15,121.56
Joint Venture,宝山区,上海市,31,201900,GMT+08:00 Asia/Beijing,,31.4,121.51
Joint Venture,杨浦区,上海市,31,200000,GMT+08:00 Asia/Beijing,,31.26,121.52
Joint Venture,板泉路1273号、1275号、1271号-1,上海市,31,200100,GMT+08:00 Asia/Beijing,,31.16,121.51
Joint Venture,黄浦区,上海市,31,200000,GMT+08:00 Asia/Beijing,,31.21,121.49
Joint Venture,虹口区,上海市,31,200000,GMT+08:00 Asia/Beijing,,31.25,121.51
Joint Venture,上海市闵行区,上海市,31,201100,GMT+08:00 Asia/Beijing,,31.19,121.31
Joint Venture,上海市杨浦区,上海市,31,200000,GMT+08:00 Asia/Beijing,,31.29,121.52
Joint Venture,普陀区,上海市,31,200300,GMT+08:00 Asia/Beijing,021,31.23,121.38
Joint Venture,静安区,上海市,31,200000,GMT+08:00 Asia/Beijing,,31.23,121.46
Joint Venture,杨浦区,上海市,31,200000,GMT+08:00 Asia/Beijing,021,31.3,121.52
Joint Venture,上海市黄浦区,上海市,31,200000,GMT+08:00 Asia/Beijing,,31.22,121.47
Joint Venture,浦东新区,上海市,31,200100,GMT+08:00 Asia/Beijing,021,31.22,121.53
Joint Venture,卢湾区,上海市,31,200000,GMT+08:00 Asia/Beijing,021,31.22,121.46
Joint Venture,黄浦区,上海市,31,200000,GMT+08:00 Asia/Beijing,021,31.24,121.48
Joint Venture,长宁区,上海市,31,200000,GMT+08:00 Asia/Beijing,,31.21,121.39
Joint Venture,浦东新区,上海市,31,200100,GMT+08:00 Asia/Beijing,021,31.23,121.5
Joint Venture,嘉定区,上海市,31,201800,GMT+08:00 Asia/Beijing,,31.35,121.26
Joint Venture,浦东新区,上海市,31,200100,GMT+08:00 Asia/Beijing,021,31.24,121.5
Joint Venture,长宁区,上海市,31,200000,GMT+08:00 Asia/Beijing,,31.21,121.42
Joint Venture,宝山区,上海市,31,201900,GMT+08:00 Asia/Beijing,,31.33,121.44
Joint Venture,上海市长宁区,上海市,31,200000,GMT+08:00 Asia/Beijing,,31.22,121.44
Joint Venture,宝山区,上海市,31,201900,GMT+08:00 Asia/Beijing,,31.36,121.37
Joint Venture,上海市徐汇区,上海市,31,200000,GMT+08:00 Asia/Beijing,,31.14,121.45
Joint Venture,徐汇区,上海市,31,200000,GMT+08:00 Asia/Beijing,021,31.16,121.4
Joint Venture,黄浦区,上海市,31,200000,GMT+08:00 Asia/Beijing,021,31.23,121.48
Joint Venture,虹口区,上海市,31,200000,GMT+08:00 Asia/Beijing,021,31.25,121.49
Joint Venture,浦东区,上海市,31,200300,GMT+08:00 Asia/Beijing,021,31.24,121.51
Joint Venture,松江区,上海市,31,201600,GMT+08:00 Asia/Beijing,021,31.04,121.22
Joint Venture,长宁区,上海市,31,200000,GMT+08:00 Asia/Beijing,021,31.19,121.33
Joint Venture,上海市闵行区,上海市,31,201100,GMT+08:00 Asia/Beijing,,31.03,121.39
Joint Venture,浦东新区,上海市,31,200100,GMT+08:00 Asia/Beijing,021,31.24,121.5
Joint Venture,黄浦区,上海市,31,200000,GMT+08:00 Asia/Beijing,021,31.23,121.48
Joint Venture,上海市嘉定区,上海市,31,201800,GMT+08:00 Asia/Beijing,,31.39,121.28
Joint Venture,长宁区,上海市,31,200000,GMT+08:00 Asia/Beijing,,31.22,121.41
Joint Venture,浦东新区,上海市,31,200100,GMT+08:00 Asia/Beijing,021,31.19,121.49
Joint Venture,长宁区,上海市,31,200000,GMT+08:00 Asia/Beijing,,31.19,121.35
Joint Venture,浦东新区,上海市,31,200100,GMT+08:00 Asia/Beijing,021,31.22,121.53
Joint Venture,浦东新区,上海市,31,200100,GMT+08:00 Asia/Beijing,,31.18,121.49
Joint Venture,黄浦区,上海市,31,200000,GMT+08:00 Asia/Beijing,021,31.22,121.46
Joint Venture,宁区金钟路968号,上海市,31,200000,GMT+08:00 Asia/Beijing,,31.22,121.35
Joint Venture,长宁区,上海市,31,200000,GMT+08:00 Asia/Beijing,021,31.22,121.42
Joint Venture,闵行区,上海市,31,201100,GMT+08:00 Asia/Beijing,021,31.16,121.35
Joint Venture,黄浦区,上海市,31,200000,GMT+08:00 Asia/Beijing,,31.22,121.5
Joint Venture,长宁区,上海市,31,200000,GMT+08:00 Asia/Beijing,021,31.21,121.4
Joint Venture,上海市静安区,上海市,31,200000,GMT+08:00 Asia/Beijing,,31.22,121.44
Joint Venture,浦东新区,上海市,31,200100,GMT+08:00 Asia/Beijing,,31.34,121.59
Joint Venture,上海市徐汇区,上海市,31,200000,GMT+08:00 Asia/Beijing,,31.2,121.43
Joint Venture,长宁区,上海市,31,200000,GMT+08:00 Asia/Beijing,021,31.2,121.4
Joint Venture,松江大学城文汇路商业街,上海市,31,201600,GMT+08:00 Asia/Beijing,,31.05,121.22
Joint Venture,松江区,上海市,31,201600,GMT+08:00 Asia/Beijing,,31.04,121.22
Joint Venture,松江区,上海市,31,201600,GMT+08:00 Asia/Beijing,,31.15,121.32
Joint Venture,静安区,上海市,31,200000,GMT+08:00 Asia/Beijing,021,31.23,121.46
Joint Venture,浦东新区启航路900号,上海市,31,200100,GMT+08:00 Asia/Beijing,,31.15,121.81
Joint Venture,浦东新区,上海市,31,200100,GMT+08:00 Asia/Beijing,021,31.35,121.59
Joint Venture,黄浦区,上海市,31,200000,GMT+08:00 Asia/Beijing,,31.22,121.48
Joint Venture,长宁区,上海市,31,200000,GMT+08:00 Asia/Beijing,021,31.19,121.32
Joint Venture,黄浦区,上海市,31,200000,GMT+08:00 Asia/Beijing,021,31.23,121.48
Joint Venture,浦东新区,上海市,31,200100,GMT+08:00 Asia/Beijing,,31.21,121.56
Joint Venture,青浦区,上海市,31,201700,GMT+08:00 Asia/Beijing,,31.15,121.11
Joint Venture,黄浦区,上海市,31,200000,GMT+08:00 Asia/Beijing,021,31.23,121.48
Joint Venture,上海市浦东新区,上海市,31,200100,GMT+08:00 Asia/Beijing,,31.23,121.53
Joint Venture,奉贤区,上海市,31,201400,GMT+08:00 Asia/Beijing,021,30.92,121.48
Joint Venture,嘉定区,上海市,31,201800,GMT+08:00 Asia/Beijing,,31.29,121.19
Joint Venture,上海市徐汇区,上海市,31,200000,GMT+08:00 Asia/Beijing,,31.2,121.42
Joint Venture,上海市浦东新区,上海市,31,200100,GMT+08:00 Asia/Beijing,,31.27,121.61
Joint Venture,上海市浦东新区,上海市,31,200100,GMT+08:00 Asia/Beijing,,31.13,121.61
Joint Venture,静安区,上海市,31,200000,GMT+08:00 Asia/Beijing,021,31.23,121.46
Joint Venture,静安区,上海市,31,200000,GMT+08:00 Asia/Beijing,021,31.23,121.45
Joint Venture,卢湾区,上海市,31,200000,GMT+08:00 Asia/Beijing,021,31.21,121.45
Joint Venture,杨浦区,上海市,31,200000,GMT+08:00 Asia/Beijing,,31.28,121.52
Joint Venture,普陀区,上海市,31,200300,GMT+08:00 Asia/Beijing,021,31.24,121.44
Joint Venture,上海市黄浦区,上海市,31,200000,GMT+08:00 Asia/Beijing,021,31.23,121.48
Joint Venture,闸北区寿阳路99弄24号S101A室,上海市,31,200000,GMT+08:00 Asia/Beijing,,31.3,121.46
Joint Venture,上海市浦东新区,上海市,31,200100,GMT+08:00 Asia/Beijing,,31.17,121.5
Joint Venture,嘉定区,上海市,31,201800,GMT+08:00 Asia/Beijing,,31.26,121.37
Joint Venture,静安区,上海市,31,200000,GMT+08:00 Asia/Beijing,,31.22,121.45
Joint Venture,杨浦区国安路758弄,上海市,31,200000,GMT+08:00 Asia/Beijing,,31.32,121.5
Joint Venture,虹口区,上海市,31,200000,GMT+08:00 Asia/Beijing,021,31.27,121.48
Joint Venture,浦东新区张杨北路5770,上海市,31,200100,GMT+08:00 Asia/Beijing,,31.35,121.57
Joint Venture,杨浦区,上海市,31,200000,GMT+08:00 Asia/Beijing,,31.34,121.5
Joint Venture,黄浦区,上海市,31,200000,GMT+08:00 Asia/Beijing,021,31.23,121.49
Joint Venture,静安区,上海市,31,200000,GMT+08:00 Asia/Beijing,021,31.23,121.46
Joint Venture,上海市嘉定区,上海市,31,201800,GMT+08:00 Asia/Beijing,,31.27,121.17
Joint Venture,徐汇区,上海市,31,200000,GMT+08:00 Asia/Beijing,021,31.2,121.44
Joint Venture,浦东新区,上海市,31,200100,GMT+08:00 Asia/Beijing,,31.22,121.53
Joint Venture,静安区,上海市,31,200000,GMT+08:00 Asia/Beijing,01,31.23,121.46
Joint Venture,长宁区,上海市,31,200000,GMT+08:00 Asia/Beijing,021,31.2,121.42
Joint Venture,宝山区,上海市,31,201900,GMT+08:00 Asia/Beijing,021,31.32,121.45
Joint Venture,徐汇区,上海市,31,200000,GMT+08:00 Asia/Beijing,021,31.19,121.44
Joint Venture,虹口区,上海市,31,200000,GMT+08:00 Asia/Beijing,021,31.26,121.5
Joint Venture,松江区,上海市,31,201600,GMT+08:00 Asia/Beijing,021,31.0,121.23
Joint Venture,浦东新区,上海市,31,200100,GMT+08:00 Asia/Beijing,021,31.2,121.6
Joint Venture,长宁区,上海市,31,200000,GMT+08:00 Asia/Beijing,021,31.21,121.4
Joint Venture,浦东新区,上海市,31,200100,GMT+08:00 Asia/Beijing,021,31.24,121.5
Joint Venture,浦东新区,上海市,31,200100,GMT+08:00 Asia/Beijing,,31.16,121.67
Joint Venture,徐汇区,上海市,31,200000,GMT+08:00 Asia/Beijing,,31.13,121.43
Joint Venture,浦东新区,上海市,31,200100,GMT+08:00 Asia/Beijing,021,31.22,121.53
Joint Venture,长宁区,上海市,31,200000,GMT+08:00 Asia/Beijing,021,31.22,121.42
Joint Venture,浦东新区,上海市,31,200100,GMT+08:00 Asia/Beijing,021,31.28,121.61
Joint Venture,上海市浦东新区,上海市,31,200100,GMT+08:00 Asia/Beijing,,31.26,121.58
Joint Venture,上海市金山区,上海市,31,201500,GMT+08:00 Asia/Beijing,021,30.73,121.35
Joint Venture,徐汇区,上海市,31,200000,GMT+08:00 Asia/Beijing,021,31.15,121.43
Joint Venture,徐汇区,上海市,31,200000,GMT+08:00 Asia/Beijing,,31.19,121.46
Joint Venture,徐汇区,上海市,31,200000,GMT+08:00 Asia/Beijing,,31.18,121.42
Joint Venture,浦东新区,上海市,31,200100,GMT+08:00 Asia/Beijing,021,31.24,121.5
Joint Venture,上海市徐汇区,上海市,31,200000,GMT+08:00 Asia/Beijing,,31.22,121.46
Joint Venture,上海市长宁区,上海市,31,200000,GMT+08:00 Asia/Beijing,,31.21,121.39
Joint Venture,上海市黄浦区,上海市,31,200000,GMT+08:00 Asia/Beijing,,31.24,121.49
Joint Venture,上海市奉贤区,上海市,31,201400,GMT+08:00 Asia/Beijing,,30.92,121.49
Joint Venture,上海市闵行区,上海市,31,201100,GMT+08:00 Asia/Beijing,,31.16,121.36
Joint Venture,上海市普陀区丹巴路99号16-1室,上海市,31,201100,GMT+08:00 Asia/Beijing,,31.22,121.38
Joint Venture,徐汇区,上海市,31,200000,GMT+08:00 Asia/Beijing,,31.17,121.4
Joint Venture,徐汇区,上海市,31,200000,GMT+08:00 Asia/Beijing,021,31.17,121.4
Joint Venture,浦东新区,上海市,31,200100,GMT+08:00 Asia/Beijing,021,31.24,121.51
Joint Venture,徐汇区,上海市,31,200000,GMT+08:00 Asia/Beijing,021,31.2,121.44
Joint Venture,闸北区,上海市,31,200000,GMT+08:00 Asia/Beijing,021,31.25,121.45
Joint Venture,徐汇区吴中路52号104室,上海市,31,200000,GMT+08:00 Asia/Beijing,,31.19,121.42
Joint Venture,浦东新区金海路1000号,上海市,31,200100,GMT+08:00 Asia/Beijing,,31.26,121.62
Joint Venture,静安区秣陵路303号,上海市,31,200000,GMT+08:00 Asia/Beijing,,31.25,121.46
Joint Venture,松江区,上海市,31,201600,GMT+08:00 Asia/Beijing,,31.09,121.32
Joint Venture,黄浦区,上海市,31,200000,GMT+08:00 Asia/Beijing,021,31.21,121.47
Joint Venture,杨浦区,上海市,31,200000,GMT+08:00 Asia/Beijing,,31.27,121.53
Joint Venture,闵行区,上海市,31,201100,GMT+08:00 Asia/Beijing,,31.16,121.37
Joint Venture,杨浦区,上海市,31,200000,GMT+08:00 Asia/Beijing,021,31.3,121.51
Joint Venture,徐汇区,上海市,31,200000,GMT+08:00 Asia/Beijing,,31.17,121.43
Joint Venture,徐汇区,上海市,31,200000,GMT+08:00 Asia/Beijing,021,31.21,121.47
Joint Venture,普陀区,上海市,31,200300,GMT+08:00 Asia/Beijing,,31.23,121.38
Joint Venture,闵行区,上海市,31,201100,GMT+08:00 Asia/Beijing,,31.09,121.4
Joint Venture,徐汇区,上海市,31,200000,GMT+08:00 Asia/Beijing,021,31.18,121.44
Joint Venture,上海市浦东新区,上海市,31,200100,GMT+08:00 Asia/Beijing,,31.2,121.55
Joint Venture,上海市静安区,上海市,31,200000,GMT+08:00 Asia/Beijing,,31.23,121.45
Joint Venture,沪南公路8666弄16号,上海市,31,201300,GMT+08:00 Asia/Beijing,,31.03,121.69
Joint Venture,浦东新区,上海市,31,200100,GMT+08:00 Asia/Beijing,021,31.24,121.58
Joint Venture,闵行区,上海市,31,201100,GMT+08:00 Asia/Beijing,021,31.1,121.51
Joint Venture,徐汇区,上海市,31,200000,GMT+08:00 Asia/Beijing,,31.19,121.46
Joint Venture,宝山区,上海市,31,201900,GMT+08:00 Asia/Beijing,021,31.32,121.45
Joint Venture,松江区,上海市,31,201600,GMT+08:00 Asia/Beijing,,31.06,121.24
Joint Venture,黄浦区,上海市,31,200000,GMT+08:00 Asia/Beijing,021,31.23,121.48
Joint Venture,闵行区,上海市,31,201100,GMT+08:00 Asia/Beijing,021,31.15,121.4
Joint Venture,闵行区,上海市,31,201100,GMT+08:00 Asia/Beijing,,31.19,121.32
Joint Venture,上海市松江区,上海市,31,201600,GMT+08:00 Asia/Beijing,,31.1,121.35
Joint Venture,嘉定区,上海市,31,201800,GMT+08:00 Asia/Beijing,021,31.24,121.32
Joint Venture,黄浦区,上海市,31,200000,GMT+08:00 Asia/Beijing,021,31.21,121.48
Joint Venture,上海市杨浦区,上海市,31,200000,GMT+08:00 Asia/Beijing,,31.29,121.51
Joint Venture,宝山区,上海市,31,201900,GMT+08:00 Asia/Beijing,,31.35,121.37
Joint Venture,徐汇区,上海市,31,200000,GMT+08:00 Asia/Beijing,021,31.16,121.4
Joint Venture,上海市普陀区,上海市,31,200300,GMT+08:00 Asia/Beijing,,31.24,121.45
Joint Venture,嘉定区,上海市,31,201800,GMT+08:00 Asia/Beijing,,31.29,121.32
Joint Venture,闸北区,上海市,31,200000,GMT+08:00 Asia/Beijing,,31.26,121.46
Joint Venture,上海市长宁区,上海市,31,200000,GMT+08:00 Asia/Beijing,,31.21,121.4
Joint Venture,雁荡路99号,上海市,31,200000,GMT+08:00 Asia/Beijing,,31.22,121.47
Joint Venture,上海市虹口区,上海市,31,200000,GMT+08:00 Asia/Beijing,,31.26,121.51
Joint Venture,上海市徐汇区,上海市,31,200000,GMT+08:00 Asia/Beijing,,31.16,121.43
Joint Venture,宝山区纪蕰路320弄2号一层101室,上海市,31,201900,GMT+08:00 Asia/Beijing,,31.34,121.44
Joint Venture,闸北区,上海市,31,200000,GMT+08:00 Asia/Beijing,021,31.24,121.47
Joint Venture,上海市奉贤区,上海市,31,201400,GMT+08:00 Asia/Beijing,,30.91,121.46
Joint Venture,普陀区,上海市,31,200300,GMT+08:00 Asia/Beijing,021,31.23,121.43
Joint Venture,上海市杨浦区,上海市,31,200000,GMT+08:00 Asia/Beijing,,31.27,121.54
Joint Venture,徐汇区,上海市,31,200000,GMT+08:00 Asia/Beijing,021,31.19,121.46
Joint Venture,浦东新区,上海市,31,200100,GMT+08:00 Asia/Beijing,,31.24,121.68
Joint Venture,浦东新区,上海市,31,200100,GMT+08:00 Asia/Beijing,021,31.24,121.51
Joint Venture,上海市杨浦区,上海市,31,200000,GMT+08:00 Asia/Beijing,,31.33,121.51
Joint Venture,上海市黄浦区,上海市,31,200000,GMT+08:00 Asia/Beijing,,31.23,121.48
Joint Venture,静安区,上海市,31,200000,GMT+08:00 Asia/Beijing,,31.22,121.45
Joint Venture,闵行区,上海市,31,201100,GMT+08:00 Asia/Beijing,021,31.17,121.34
Joint Venture,卢湾区,上海市,31,200000,GMT+08:00 Asia/Beijing,021,31.22,121.47
Joint Venture,长宁区,上海市,31,200000,GMT+08:00 Asia/Beijing,,31.2,121.43
Joint Venture,上海市浦东新区,上海市,31,200100,GMT+08:00 Asia/Beijing,,31.12,121.58
Joint Venture,上海市普陀区,上海市,31,200300,GMT+08:00 Asia/Beijing,,31.23,121.41
Joint Venture,杨浦区,上海市,31,200000,GMT+08:00 Asia/Beijing,,31.32,121.52
Joint Venture,静安区,上海市,31,200000,GMT+08:00 Asia/Beijing,021,31.22,121.45
Joint Venture,长宁区,上海市,31,200000,GMT+08:00 Asia/Beijing,021,31.2,121.42
Joint Venture,上海市闵行区,上海市,31,201100,GMT+08:00 Asia/Beijing,,31.1,121.4
Joint Venture,黄浦区,上海市,31,200000,GMT+08:00 Asia/Beijing,,31.23,121.5
Joint Venture,浦东新区,上海市,31,200100,GMT+08:00 Asia/Beijing,,31.2,121.77
Joint Venture,杨浦区,上海市,31,200000,GMT+08:00 Asia/Beijing,021,31.27,121.56
Joint Venture,普陀区,上海市,31,200300,GMT+08:00 Asia/Beijing,,31.24,121.44
Joint Venture,黄浦区,上海市,31,200000,GMT+08:00 Asia/Beijing,021,31.24,121.47
Joint Venture,上海市闵行区,上海市,31,201100,GMT+08:00 Asia/Beijing,,31.16,121.35
Joint Venture,浦东新区,上海市,31,200100,GMT+08:00 Asia/Beijing,,31.05,121.76
Joint Venture,上海市松江区,上海市,31,201600,GMT+08:00 Asia/Beijing,,31.02,121.23
Joint Venture,徐汇区天钥桥路1188号,上海市,31,200000,GMT+08:00 Asia/Beijing,,31.17,121.45
Joint Venture,杨浦区,上海市,31,200000,GMT+08:00 Asia/Beijing,,31.26,121.51
Joint Venture,徐汇区,上海市,31,200000,GMT+08:00 Asia/Beijing,021,31.22,121.45
Joint Venture,浦东新区张杨路1553号,上海市,31,200100,GMT+08:00 Asia/Beijing,,31.23,121.54
Joint Venture,长宁区,上海市,31,200000,GMT+08:00 Asia/Beijing,,31.22,121.36
Joint Venture,静安区,上海市,31,200000,GMT+08:00 Asia/Beijing,021,31.23,121.46
Joint Venture,宝山区,上海市,31,201900,GMT+08:00 Asia/Beijing,021,31.27,121.41
Joint Venture,嘉定区,上海市,31,201800,GMT+08:00 Asia/Beijing,021,31.26,121.34
Joint Venture,徐汇区,上海市,31,200000,GMT+08:00 Asia/Beijing,021,31.19,121.44
Joint Venture,上海市徐汇区,上海市,31,200000,GMT+08:00 Asia/Beijing,,31.18,121.43
Joint Venture,黄浦区,上海市,31,200000,GMT+08:00 Asia/Beijing,021,31.24,121.48
Joint Venture,黄浦区,上海市,31,200000,GMT+08:00 Asia/Beijing,,31.24,121.49
Joint Venture,黄浦区,上海市,31,200000,GMT+08:00 Asia/Beijing,021,31.2,121.46
Joint Venture,长宁区,上海市,31,200000,GMT+08:00 Asia/Beijing,021,31.21,121.43
Joint Venture,长宁区,上海市,31,200000,GMT+08:00 Asia/Beijing,,31.19,121.33
Joint Venture,闵行区,上海市,31,201100,GMT+08:00 Asia/Beijing,,31.17,121.38
Joint Venture,闵行区,上海市,31,201100,GMT+08:00 Asia/Beijing,,31.09,121.39
Joint Venture,上海市徐汇区,上海市,31,200000,GMT+08:00 Asia/Beijing,,31.18,121.42
Joint Venture,徐汇区,上海市,31,200000,GMT+08:00 Asia/Beijing,021,31.19,121.44
Joint Venture,上海市杨浦区,上海市,31,200000,GMT+08:00 Asia/Beijing,,31.29,121.54
Joint Venture,浦东新区,上海市,31,200100,GMT+08:00 Asia/Beijing,,31.26,121.59
Joint Venture,徐汇区,上海市,31,200000,GMT+08:00 Asia/Beijing,,31.2,121.45
Joint Venture,长宁区,上海市,31,200000,GMT+08:00 Asia/Beijing,,31.21,121.4
Joint Venture,闵行区,上海市,31,201100,GMT+08:00 Asia/Beijing,,31.15,121.39
Joint Venture,长宁区,上海市,31,200000,GMT+08:00 Asia/Beijing,,31.21,121.4
Joint Venture,嘉定区,上海市,31,201800,GMT+08:00 Asia/Beijing,021,31.29,121.22
Joint Venture,闵行区,上海市,31,201100,GMT+08:00 Asia/Beijing,021,31.11,121.38
Joint Venture,上海市宝山区,上海市,31,201900,GMT+08:00 Asia/Beijing,,31.32,121.38
Joint Venture,长宁区,上海市,31,200000,GMT+08:00 Asia/Beijing,,31.21,121.41
Joint Venture,浦东新区申江路1500号,上海市,31,200100,GMT+08:00 Asia/Beijing,,31.28,121.62
Joint Venture,浦东新区,上海市,31,200100,GMT+08:00 Asia/Beijing,,31.23,121.52
Joint Venture,长宁区,上海市,31,200000,GMT+08:00 Asia/Beijing,021,31.19,121.33
Joint Venture,普陀区,上海市,31,200300,GMT+08:00 Asia/Beijing,021,31.25,121.44
Joint Venture,闵行区,上海市,31,201100,GMT+08:00 Asia/Beijing,021,31.1,121.41
Joint Venture,虹口区,上海市,31,200000,GMT+08:00 Asia/Beijing,021,31.24,121.49
Joint Venture,浦东新区,上海市,31,200100,GMT+08:00 Asia/Beijing,021,31.24,121.52
Joint Venture,闸北区,上海市,31,200000,GMT+08:00 Asia/Beijing,021,31.27,121.45
Joint Venture,闵行区,上海市,31,201100,GMT+08:00 Asia/Beijing,021,31.11,121.39
Joint Venture,浦东新区,上海市,31,200100,GMT+08:00 Asia/Beijing,021,31.23,121.52
Joint Venture,上海市虹口区,上海市,31,200000,GMT+08:00 Asia/Beijing,,31.29,121.49
Joint Venture,普陀区,上海市,31,200300,GMT+08:00 Asia/Beijing,021,31.24,121.42
Joint Venture,上海市静安区,上海市,31,200000,GMT+08:00 Asia/Beijing,,31.25,121.47
Joint Venture,浦东新区,上海市,31,200100,GMT+08:00 Asia/Beijing,021,31.22,121.53
Joint Venture,黄浦区,上海市,31,200000,GMT+08:00 Asia/Beijing,021,31.23,121.47
Joint Venture,长宁区,上海市,31,200000,GMT+08:00 Asia/Beijing,,31.22,121.37
Joint Venture,浦东新区,上海市,31,200100,GMT+08:00 Asia/Beijing,021,31.2,121.59
Joint Venture,上海市宝山区,上海市,31,201900,GMT+08:00 Asia/Beijing,,31.37,121.44
Joint Venture,闸北区,上海市,31,200000,GMT+08:00 Asia/Beijing,021,31.28,121.45
Joint Venture,黄浦区,上海市,31,200000,GMT+08:00 Asia/Beijing,021,31.22,121.48
Joint Venture,卢湾区,上海市,31,200000,GMT+08:00 Asia/Beijing,021,31.21,121.48
Joint Venture,徐汇区,上海市,31,200000,GMT+08:00 Asia/Beijing,,31.2,121.44
Joint Venture,嘉定区,上海市,31,201800,GMT+08:00 Asia/Beijing,021,31.38,121.26
Joint Venture,浦东新区,上海市,31,200100,GMT+08:00 Asia/Beijing,,31.26,121.61
Joint Venture,浦东新区,上海市,31,200100,GMT+08:00 Asia/Beijing,,31.23,121.55
Joint Venture,上海市黄浦区,上海市,31,200000,GMT+08:00 Asia/Beijing,,31.2,121.48
Joint Venture,黄浦区,上海市,31,200000,GMT+08:00 Asia/Beijing,021,31.24,121.48
Joint Venture,徐汇区,上海市,31,200000,GMT+08:00 Asia/Beijing,021,31.18,121.44
Joint Venture,浦东新区,上海市,31,200100,GMT+08:00 Asia/Beijing,,31.31,121.59
Joint Venture,上海市杨浦区,上海市,31,200000,GMT+08:00 Asia/Beijing,,31.3,121.52
Joint Venture,浦东新区浦,上海市,31,200100,GMT+08:00 Asia/Beijing,021,31.15,121.81
Joint Venture,长宁区,上海市,31,200000,GMT+08:00 Asia/Beijing,021,31.21,121.41
Joint Venture,上海市杨浦区,上海市,31,200000,GMT+08:00 Asia/Beijing,,31.3,121.53
Joint Venture,黄浦区,上海市,31,200000,GMT+08:00 Asia/Beijing,021,31.24,121.48
Joint Venture,上海市黄浦区,上海市,31,200000,GMT+08:00 Asia/Beijing,,31.23,121.47
Joint Venture,浦东新区,上海市,31,200100,GMT+08:00 Asia/Beijing,021,31.23,121.52
Joint Venture,浦东新区,上海市,31,200100,GMT+08:00 Asia/Beijing,021,31.24,121.5
Joint Venture,黄浦区,上海市,31,200000,GMT+08:00 Asia/Beijing,021,31.23,121.47
Joint Venture,上海市浦东新区,上海市,31,200100,GMT+08:00 Asia/Beijing,,31.15,121.81
Joint Venture,杨浦区,上海市,31,200000,GMT+08:00 Asia/Beijing,,31.31,121.52
Joint Venture,黄浦区,上海市,31,200000,GMT+08:00 Asia/Beijing,021,31.23,121.48
Joint Venture,嘉定区,上海市,31,201800,GMT+08:00 Asia/Beijing,,31.31,121.32
Joint Venture,上海市杨浦区,上海市,31,200000,GMT+08:00 Asia/Beijing,,31.26,121.53
Joint Venture,虹口区,上海市,31,200000,GMT+08:00 Asia/Beijing,,31.27,121.48
Joint Venture,嘉定区,上海市,31,201800,GMT+08:00 Asia/Beijing,59961015,31.3,121.32
Joint Venture,杨浦区,上海市,31,200000,GMT+08:00 Asia/Beijing,,31.26,121.54
Joint Venture,杨浦区,上海市,31,200000,GMT+08:00 Asia/Beijing,,31.3,121.51
Joint Venture,闵行区,上海市,31,201100,GMT+08:00 Asia/Beijing,021,31.11,121.38
Joint Venture,长宁区,上海市,31,200000,GMT+08:00 Asia/Beijing,021,31.21,121.4
Joint Venture,宝山区蕴川路1555号1330、1331,上海市,31,201900,GMT+08:00 Asia/Beijing,,31.37,121.43
Joint Venture,长宁区,上海市,31,200000,GMT+08:00 Asia/Beijing,021,31.2,121.43
Joint Venture,长宁区,上海市,31,200000,GMT+08:00 Asia/Beijing,021,31.22,121.36
Joint Venture,静安区,上海市,31,200000,GMT+08:00 Asia/Beijing,021,31.23,121.44
Joint Venture,上海市黄浦区,上海市,31,200000,GMT+08:00 Asia/Beijing,,31.21,121.46
Joint Venture,徐汇区,上海市,31,200000,GMT+08:00 Asia/Beijing,021,31.18,121.41
Joint Venture,宝山区,上海市,31,201900,GMT+08:00 Asia/Beijing,,31.32,121.47
Joint Venture,黄浦区,上海市,31,200000,GMT+08:00 Asia/Beijing,,31.22,121.47
Joint Venture,上海市浦东新区,上海市,31,200100,GMT+08:00 Asia/Beijing,,31.18,121.53
Joint Venture,黄浦区,上海市,31,200000,GMT+08:00 Asia/Beijing,,31.2,121.49
Joint Venture,浦东新区,上海市,31,200100,GMT+08:00 Asia/Beijing,021,31.23,121.51
Joint Venture,静安区,上海市,31,200000,GMT+08:00 Asia/Beijing,,31.23,121.45
Joint Venture,黄浦区,上海市,31,200000,GMT+08:00 Asia/Beijing,,31.22,121.47
Joint Venture,上海市浦东新区,上海市,31,200100,GMT+08:00 Asia/Beijing,,31.18,121.49
Joint Venture,上海市静安区,上海市,31,200000,GMT+08:00 Asia/Beijing,,31.24,121.47
Joint Venture,浦东新区,上海市,31,200100,GMT+08:00 Asia/Beijing,021,31.24,121.51
Joint Venture,虹口区,上海市,31,200000,GMT+08:00 Asia/Beijing,021,31.27,121.48
Joint Venture,长宁区,上海市,31,200000,GMT+08:00 Asia/Beijing,021,31.22,121.43
Joint Venture,杨浦区,上海市,31,200000,GMT+08:00 Asia/Beijing,,31.29,121.52
Joint Venture,金山区,上海市,31,201500,GMT+08:00 Asia/Beijing,021,30.73,121.33
Joint Venture,徐汇区,上海市,31,200000,GMT+08:00 Asia/Beijing,021,31.22,121.46
Joint Venture,浦东新区,上海市,31,200100,GMT+08:00 Asia/Beijing,021,31.22,121.53
Joint Venture,虹口区,上海市,31,200000,GMT+08:00 Asia/Beijing,021,31.25,121.5
Joint Venture,长宁区,上海市,31,200000,GMT+08:00 Asia/Beijing,021,31.22,121.43
Joint Venture,上海市宝山区,上海市,31,201900,GMT+08:00 Asia/Beijing,,31.32,121.49
Joint Venture,黄浦区,上海市,31,200000,GMT+08:00 Asia/Beijing,021,31.22,121.51
Joint Venture,静安区,上海市,31,200000,GMT+08:00 Asia/Beijing,021,31.23,121.45
Joint Venture,长宁区,上海市,31,200000,GMT+08:00 Asia/Beijing,,31.21,121.41
Joint Venture,黄浦区,上海市,31,200000,GMT+08:00 Asia/Beijing,021,31.23,121.47
Joint Venture,黄浦区,上海市,31,200000,GMT+08:00 Asia/Beijing,021,31.24,121.48
Joint Venture,上海市长宁区,上海市,31,200000,GMT+08:00 Asia/Beijing,,31.21,121.36
Joint Venture,上海市黄浦区,上海市,31,200000,GMT+08:00 Asia/Beijing,,31.21,121.47
Joint Venture,黄浦区,上海市,31,200000,GMT+08:00 Asia/Beijing,021,31.24,121.49
Joint Venture,宝山区,上海市,31,201900,GMT+08:00 Asia/Beijing,,31.28,121.42
Joint Venture,浦东新区,上海市,31,200100,GMT+08:00 Asia/Beijing,021,31.21,121.63
Joint Venture,徐汇区,上海市,31,200000,GMT+08:00 Asia/Beijing,,31.19,121.43
Joint Venture,徐汇区,上海市,31,200000,GMT+08:00 Asia/Beijing,021,31.19,121.42
Joint Venture,周浦镇,上海市,31,200000,GMT+08:00 Asia/Beijing,021,31.11,121.57
Joint Venture,上海市虹口区,上海市,31,200000,GMT+08:00 Asia/Beijing,,31.26,121.5
Joint Venture,虹口区,上海市,31,200000,GMT+08:00 Asia/Beijing,021,31.25,121.48
Joint Venture,金山区,上海市,31,201500,GMT+08:00 Asia/Beijing,,30.89,121.17
Joint Venture,长宁区,上海市,31,200000,GMT+08:00 Asia/Beijing,021,31.22,121.42
Joint Venture,虹口区,上海市,31,200000,GMT+08:00 Asia/Beijing,,31.25,121.49
Joint Venture,闵行区,上海市,31,201100,GMT+08:00 Asia/Beijing,021,31.16,121.38
Joint Venture,黄浦区,上海市,31,200000,GMT+08:00 Asia/Beijing,021,31.23,121.47
Joint Venture,松江区,上海市,31,201600,GMT+08:00 Asia/Beijing,021,31.02,121.26
Joint Venture,静安区,上海市,31,200000,GMT+08:00 Asia/Beijing,,31.22,121.45
Joint Venture,闵行区,上海市,31,201100,GMT+08:00 Asia/Beijing,021,31.11,121.4
Joint Venture,徐汇区,上海市,31,200000,GMT+08:00 Asia/Beijing,,31.17,121.43
Joint Venture,上海市浦东新区,上海市,31,200100,GMT+08:00 Asia/Beijing,,31.04,121.74
Joint Venture,黄浦区,上海市,31,200000,GMT+08:00 Asia/Beijing,,31.2,121.48
Joint Venture,浦东新区,上海市,31,200100,GMT+08:00 Asia/Beijing,021,31.22,121.54
Joint Venture,浦东新区,上海市,31,200100,GMT+08:00 Asia/Beijing,021,31.22,121.53
Joint Venture,浦东新区,上海市,31,200100,GMT+08:00 Asia/Beijing,,31.21,121.55
Joint Venture,徐汇区,上海市,31,200000,GMT+08:00 Asia/Beijing,,31.19,121.45
Joint Venture,上海市虹口区,上海市,31,200000,GMT+08:00 Asia/Beijing,,31.28,121.47
Joint Venture,上海市静安区,上海市,31,200000,GMT+08:00 Asia/Beijing,,31.23,121.43
Joint Venture,浦东新区,上海市,31,200100,GMT+08:00 Asia/Beijing,021,31.24,121.59
Joint Venture,长宁区,上海市,31,200000,GMT+08:00 Asia/Beijing,021,31.21,121.37
Joint Venture,上海市浦东新区,上海市,31,200100,GMT+08:00 Asia/Beijing,,31.21,121.53
Joint Venture,徐汇区,上海市,31,200000,GMT+08:00 Asia/Beijing,021,31.16,121.4
Joint Venture,浦东新区,上海市,31,200100,GMT+08:00 Asia/Beijing,021,31.18,121.53
Joint Venture,徐汇区,上海市,31,200000,GMT+08:00 Asia/Beijing,021,31.19,121.44
Joint Venture,徐汇区,上海市,31,200000,GMT+08:00 Asia/Beijing,021,31.19,121.44
Joint Venture,普陀区,上海市,31,200300,GMT+08:00 Asia/Beijing,021,31.22,121.4
Joint Venture,上海市杨浦区,上海市,31,200000,GMT+08:00 Asia/Beijing,,31.3,121.49
Joint Venture,浦东新区,上海市,31,200100,GMT+08:00 Asia/Beijing,,31.28,121.59
Joint Venture,浦东新区,上海市,31,200100,GMT+08:00 Asia/Beijing,,31.22,121.55
Joint Venture,闵行区,上海市,31,201100,GMT+08:00 Asia/Beijing,021,31.2,121.28
Joint Venture,浦东新区,上海市,31,200100,GMT+08:00 Asia/Beijing,021,31.21,121.56
Joint Venture,浦东新区,上海市,31,200100,GMT+08:00 Asia/Beijing,58990279,31.25,121.61
Joint Venture,黄浦区,上海市,31,200000,GMT+08:00 Asia/Beijing,021,31.23,121.48
Joint Venture,高新区沧海路1号,宁波市,31,315000,GMT+08:00 Asia/Beijing,,29.89,121.6
Joint Venture,上海市浦东新区,浦东新区,31,201200,GMT+08:00 Asia/Beijing,,31.27,121.61
Joint Venture,Fangta Street and HeDong Street,Changshu,32,215500,GMT+08:00 Asia/Beijing,,31.64,120.75
Joint Venture,Huayuan St & Yongsheng Road,Changzhou,32,213000,GMT+08:00 Asia/Beijing,,31.69,119.95
Joint Venture,No.3 yangguang Rd,Nanjing,32,210000,GMT+08:00 Asia/Beijing,,32.06,118.81
Joint Venture,Zhangjian Avenue&Nanhai Road,Nantong,32,226000,GMT+08:00 Asia/Beijing,,31.88,121.17
Joint Venture,No.19 North Qingyuan Rd,Nantong,32,226000,GMT+08:00 Asia/Beijing,,32.31,121.18
Joint Venture,Changjiang Rd & Renmin Rd,Nantong,32,226100,GMT+08:00 Asia/Beijing,,31.89,121.19
Joint Venture,Qingnian Road and South Gongnong Road,Nantong,32,226000,GMT+08:00 Asia/Beijing,,32.01,120.88
Joint Venture,No.42 Renmin Road,Suzhou,32,215600,GMT+08:00 Asia/Beijing,,31.88,120.55
Joint Venture,No.88 Suhui Road,Suzhou,32,215000,GMT+08:00 Asia/Beijing,,31.31,120.67
Joint Venture,Middle Changjiang Rd&Hengshan Rd,Suzhou,32,215300,GMT+08:00 Asia/Beijing,,31.35,120.98
Joint Venture,江苏省南京市,南京市,32,210000,GMT+08:00 Asia/Beijing,,31.99,118.79
Joint Venture,栖霞区,南京市,32,210000,GMT+08:00 Asia/Beijing,025,32.05,118.89
Joint Venture,江苏省南京市,南京市,32,210000,GMT+08:00 Asia/Beijing,,31.99,118.73
Joint Venture,江宁区,南京市,32,211100,GMT+08:00 Asia/Beijing,,32.03,119.05
Joint Venture,秦淮区,南京市,32,210000,GMT+08:00 Asia/Beijing,,32.01,118.79
Joint Venture,鼓楼区,南京市,32,210000,GMT+08:00 Asia/Beijing,025,32.05,118.77
Joint Venture,江苏省南京市,南京市,32,210000,GMT+08:00 Asia/Beijing,,32.03,118.74
Joint Venture,鼓楼区,南京市,32,210000,GMT+08:00 Asia/Beijing,025,32.07,118.77
Joint Venture,秦淮区,南京市,32,210000,GMT+08:00 Asia/Beijing,,32.03,118.78
Joint Venture,六合区长江路10号101和027铺位,南京市,32,211500,GMT+08:00 Asia/Beijing,,32.34,118.84
Joint Venture,江苏省南京市,南京市,32,210000,GMT+08:00 Asia/Beijing,,31.93,118.82
Joint Venture,鼓楼区,南京市,32,210000,GMT+08:00 Asia/Beijing,025,32.07,118.78
Joint Venture,建邺区,南京市,32,210000,GMT+08:00 Asia/Beijing,025,32.03,118.74
Joint Venture,高淳区,南京市,32,211300,GMT+08:00 Asia/Beijing,,31.32,118.87
Joint Venture,南京市建邺区,南京市,32,210000,GMT+08:00 Asia/Beijing,,32.03,118.74
Joint Venture,江宁区,南京市,32,211100,GMT+08:00 Asia/Beijing,,31.95,118.84
Joint Venture,白下区,南京市,32,210000,GMT+08:00 Asia/Beijing,025,32.04,118.8
Joint Venture,秦淮区洪武路29号,南京市,32,210000,GMT+08:00 Asia/Beijing,,32.04,118.79
Joint Venture,建邺区白龙江西街62号122室,南京市,32,210000,GMT+08:00 Asia/Beijing,,32.0,118.71
Joint Venture,南京市高淳区,南京市,32,211300,GMT+08:00 Asia/Beijing,,31.32,118.88
Joint Venture,江宁区,南京市,32,211100,GMT+08:00 Asia/Beijing,,31.93,118.82
Joint Venture,江宁区,南京市,32,211100,GMT+08:00 Asia/Beijing,,31.87,118.83
Joint Venture,南京市建邺区奥体大街139号,南京市,32,210000,GMT+08:00 Asia/Beijing,,32.0,118.73
Joint Venture,浦口区,南京市,32,210000,GMT+08:00 Asia/Beijing,025,32.14,118.72
Joint Venture,浦口区,南京市,32,210000,GMT+08:00 Asia/Beijing,,32.11,118.7
Joint Venture,鼓楼区,南京市,32,210000,GMT+08:00 Asia/Beijing,025,32.06,118.78
Joint Venture,秦淮区,南京市,32,210000,GMT+08:00 Asia/Beijing,,32.04,118.78
Joint Venture,江宁区,南京市,32,211100,GMT+08:00 Asia/Beijing,,31.91,118.75
Joint Venture,江苏省南京市,南京市,32,210000,GMT+08:00 Asia/Beijing,,32.07,118.78
Joint Venture,白下区,南京市,32,210000,GMT+08:00 Asia/Beijing,025,32.02,118.79
Joint Venture,江苏省南京市,南京市,32,210000,GMT+08:00 Asia/Beijing,,31.91,118.9
Joint Venture,鼓楼区,南京市,32,210000,GMT+08:00 Asia/Beijing,025,32.07,118.78
Joint Venture,白下区,南京市,32,210000,GMT+08:00 Asia/Beijing,025,32.04,118.78
Joint Venture,栖霞区,南京市,32,210000,GMT+08:00 Asia/Beijing,,32.1,118.81
Joint Venture,秦淮区,南京市,32,210000,GMT+08:00 Asia/Beijing,,32.04,118.78
Joint Venture,江宁区,南京市,32,211100,GMT+08:00 Asia/Beijing,,31.95,118.82
Joint Venture,中山路18号B1-130铺位,南京市,32,210000,GMT+08:00 Asia/Beijing,,32.04,118.79
Joint Venture,鼓楼区,南京市,32,210000,GMT+08:00 Asia/Beijing,025,32.04,118.78
Joint Venture,玄武区,南京市,32,210000,GMT+08:00 Asia/Beijing,025,32.06,118.79
Joint Venture,雨花台区,南京市,32,210000,GMT+08:00 Asia/Beijing,025,31.97,118.8
Joint Venture,秦淮区,南京市,32,210000,GMT+08:00 Asia/Beijing,,32.02,118.79
Joint Venture,建邺区,南京市,32,210000,GMT+08:00 Asia/Beijing,,32.0,118.73
Joint Venture,白下区,南京市,32,210000,GMT+08:00 Asia/Beijing,025,32.04,118.78
Joint Venture,江宁区,南京市,32,211100,GMT+08:00 Asia/Beijing,025,31.77,118.87
Joint Venture,鼓楼区,南京市,32,210000,GMT+08:00 Asia/Beijing,025,32.07,118.78
Joint Venture,雨花区,南京市,32,210000,GMT+08:00 Asia/Beijing,,31.97,118.8
Joint Venture,秦淮区,南京市,32,210000,GMT+08:00 Asia/Beijing,,32.02,118.79
Joint Venture,江宁区,南京市,32,211100,GMT+08:00 Asia/Beijing,,31.77,118.87
Joint Venture,雨花区,南京市,32,210000,GMT+08:00 Asia/Beijing,025,32.01,118.77
Joint Venture,鼓楼区,南京市,32,210000,GMT+08:00 Asia/Beijing,,32.05,118.75
Joint Venture,六合区,南京市,32,211500,GMT+08:00 Asia/Beijing,025,32.23,118.76
Joint Venture,江苏省南京市,南京市,32,210000,GMT+08:00 Asia/Beijing,,32.03,118.73
Joint Venture,秦淮区,南京市,32,210000,GMT+08:00 Asia/Beijing,,32.04,118.78
Joint Venture,玄武区,南京市,32,210000,GMT+08:00 Asia/Beijing,025,32.04,118.8
Joint Venture,江苏省南京市浦口区,南京市,32,210000,GMT+08:00 Asia/Beijing,,32.07,118.65
Joint Venture,白下区,南京市,32,210000,GMT+08:00 Asia/Beijing,025,32.04,118.78
Joint Venture,江苏省南京市,南京市,32,211100,GMT+08:00 Asia/Beijing,,31.93,118.82
Joint Venture,玄武区,南京市,32,210000,GMT+08:00 Asia/Beijing,,32.06,118.79
Joint Venture,江苏省南京市,南京市,32,210000,GMT+08:00 Asia/Beijing,,32.09,118.79
Joint Venture,白下区,南京市,32,210000,GMT+08:00 Asia/Beijing,025,32.04,118.78
Joint Venture,建邺区,南京市,32,210000,GMT+08:00 Asia/Beijing,,32.0,118.72
Joint Venture,玄武区,南京市,32,210000,GMT+08:00 Asia/Beijing,025,32.05,118.8
Joint Venture,玄武区,南京市,32,210000,GMT+08:00 Asia/Beijing,025,32.04,118.87
Joint Venture,江宁区,南京市,32,211100,GMT+08:00 Asia/Beijing,025,31.95,118.82
Joint Venture,江宁经济技术开发区,南京市,32,210000,GMT+08:00 Asia/Beijing,025,31.94,118.82
Joint Venture,秦淮区,南京市,32,210000,GMT+08:00 Asia/Beijing,,32.02,118.79
Joint Venture,鼓楼区,南京市,32,210000,GMT+08:00 Asia/Beijing,025,32.06,118.74
Joint Venture,建邺区,南京市,32,210000,GMT+08:00 Asia/Beijing,,32.01,118.73
Joint Venture,玄武区,南京市,32,210000,GMT+08:00 Asia/Beijing,025,32.04,118.79
Joint Venture,建邺区江东北路88号,南京市,32,210000,GMT+08:00 Asia/Beijing,,32.05,118.74
Joint Venture,鼓楼区,南京市,32,210000,GMT+08:00 Asia/Beijing,,32.06,118.78
Joint Venture,秦淮区,南京市,32,210000,GMT+08:00 Asia/Beijing,,32.04,118.79
Joint Venture,江苏省南京市,南京市,32,210000,GMT+08:00 Asia/Beijing,,31.93,118.82
Joint Venture,如皋市,南通市,32,226500,GMT+08:00 Asia/Beijing,0513,32.39,120.55
Joint Venture,江苏省南通市,南通市,32,226000,GMT+08:00 Asia/Beijing,,32.02,120.87
Joint Venture,江苏省南通市,南通市,32,226000,GMT+08:00 Asia/Beijing,,31.87,120.99
Joint Venture,江苏省南通市,南通市,32,222600,GMT+08:00 Asia/Beijing,,31.97,120.9
Joint Venture,启东市,南通市,32,226200,GMT+08:00 Asia/Beijing,0513,31.8,121.67
Joint Venture,崇川区,南通市,32,226000,GMT+08:00 Asia/Beijing,,31.97,120.89
Joint Venture,崇川区,南通市,32,226000,GMT+08:00 Asia/Beijing,,32.01,120.88
Joint Venture,启东,南通市,32,226200,GMT+08:00 Asia/Beijing,0513,31.81,121.66
Joint Venture,开发区,南通市,32,226000,GMT+08:00 Asia/Beijing,,31.92,120.95
Joint Venture,崇川区,南通市,32,226000,GMT+08:00 Asia/Beijing,0513,32.02,120.87
Joint Venture,海安县海安镇宁海南路2号,南通市,32,226600,GMT+08:00 Asia/Beijing,,32.54,120.47
Joint Venture,江苏省南通市,南通市,32,226000,GMT+08:00 Asia/Beijing,,32.04,120.86
Joint Venture,崇川区,南通市,32,226000,GMT+08:00 Asia/Beijing,0513,31.97,120.89
Joint Venture,崇川区,南通市,32,226000,GMT+08:00 Asia/Beijing,,32.0,120.88
Joint Venture,港闸区北大街108号,南通市,32,226000,GMT+08:00 Asia/Beijing,,32.05,120.86
Joint Venture,港闸区长平路9号1层1033号,南通市,32,226000,GMT+08:00 Asia/Beijing,,32.04,120.83
Joint Venture,崇川区,南通市,32,226000,GMT+08:00 Asia/Beijing,0513,32.02,120.87
Joint Venture,通州区,南通市,32,226300,GMT+08:00 Asia/Beijing,,32.09,121.07
Joint Venture,江苏省南通市,南通市,32,222600,GMT+08:00 Asia/Beijing,,31.87,120.99
Joint Venture,如皋市,南通市,32,226500,GMT+08:00 Asia/Beijing,,32.39,120.56
Joint Venture,江苏省南通市,南通市,32,226000,GMT+08:00 Asia/Beijing,,31.92,120.94
Joint Venture,松陵镇,吴江市,32,215200,GMT+08:00 Asia/Beijing,0512,31.17,120.64
Joint Venture,城厢镇南郊海运堤路86-4号,太仓市,32,215400,GMT+08:00 Asia/Beijing,,31.44,121.12
Joint Venture,城厢镇,太仓市,32,215400,GMT+08:00 Asia/Beijing,0512,31.45,121.11
Joint Venture,城厢镇,太仓市,32,215400,GMT+08:00 Asia/Beijing,0512,31.46,121.14
Joint Venture,姜堰市,姜堰市,32,225300,GMT+08:00 Asia/Beijing,0523,32.51,120.15
Joint Venture,宜兴,宜兴市,32,214200,GMT+08:00 Asia/Beijing,0510,31.31,119.81
Joint Venture,人民中路228号和信广场1楼,宜兴市,32,214200,GMT+08:00 Asia/Beijing,,31.37,119.82
Joint Venture,宜城街道,宜兴市,32,214200,GMT+08:00 Asia/Beijing,0510,31.36,119.85
Joint Venture,宿城区,宿迁市,32,223800,GMT+08:00 Asia/Beijing,,33.95,118.29
Joint Venture,宿城区西湖路66号,宿迁市,32,223800,GMT+08:00 Asia/Beijing,,33.95,118.29
Joint Venture,江苏省宿迁市,宿迁市,32,223800,GMT+08:00 Asia/Beijing,,34.1,118.8
Joint Venture,江苏省宿迁市,宿迁市,32,223800,GMT+08:00 Asia/Beijing,,33.95,118.3
Joint Venture,武进区,常州市,32,213100,GMT+08:00 Asia/Beijing,0519,31.73,119.94
Joint Venture,钟楼区,常州市,32,213000,GMT+08:00 Asia/Beijing,0519,31.78,119.95
Joint Venture,新北区,常州市,32,213100,GMT+08:00 Asia/Beijing,0519,31.83,119.98
Joint Venture,江苏省常州市,常州市,32,213000,GMT+08:00 Asia/Beijing,,31.84,119.98
Joint Venture,武进区,常州市,32,213100,GMT+08:00 Asia/Beijing,,31.73,119.95
Joint Venture,钟楼区,常州市,32,213000,GMT+08:00 Asia/Beijing,,31.78,119.95
Joint Venture,武进区,常州市,32,213100,GMT+08:00 Asia/Beijing,0519,31.72,119.96
Joint Venture,武进区延政中路5号101室,常州市,32,213100,GMT+08:00 Asia/Beijing,,31.7,119.95
Joint Venture,天宁区,常州市,32,213000,GMT+08:00 Asia/Beijing,0519,31.78,119.96
Joint Venture,新北区,常州市,32,213100,GMT+08:00 Asia/Beijing,0519,31.82,119.97
Joint Venture,钟楼区,常州市,32,213000,GMT+08:00 Asia/Beijing,0519,31.78,119.96
Joint Venture,江苏省常州市,常州市,32,213000,GMT+08:00 Asia/Beijing,,31.73,119.59
Joint Venture,武进区,常州市,32,213100,GMT+08:00 Asia/Beijing,,31.71,119.95
Joint Venture,钟楼区,常州市,32,213000,GMT+08:00 Asia/Beijing,,31.78,119.95
Joint Venture,新北区,常州市,32,213100,GMT+08:00 Asia/Beijing,,31.82,120.0
Joint Venture,新北区,常州市,32,213100,GMT+08:00 Asia/Beijing,0519,31.82,119.97
Joint Venture,江苏省常州市,常州市,32,213100,GMT+08:00 Asia/Beijing,,31.83,119.97
Joint Venture,江苏省常州市,常州市,32,213000,GMT+08:00 Asia/Beijing,,31.72,119.94
Joint Venture,天宁区和平中路388号,常州市,32,213000,GMT+08:00 Asia/Beijing,,31.76,119.96
Joint Venture,天宁区,常州市,32,213000,GMT+08:00 Asia/Beijing,0519,31.78,119.96
Joint Venture,钟楼区邹区镇东方路188号,常州市,32,213000,GMT+08:00 Asia/Beijing,,31.79,119.85
Joint Venture,新北区通江路588号,常州市,32,213100,GMT+08:00 Asia/Beijing,,31.84,119.98
Joint Venture,溧阳市,常州市,32,213300,GMT+08:00 Asia/Beijing,0519,31.42,119.48
Joint Venture,天宁区,常州市,32,213000,GMT+08:00 Asia/Beijing,,31.77,119.95
Joint Venture,江苏省常州市,常州市,32,213000,GMT+08:00 Asia/Beijing,,31.79,119.89
Joint Venture,常州新北区太湖东路,常州市,32,213000,GMT+08:00 Asia/Beijing,,31.81,119.98
Joint Venture,虞山镇,常熟市,32,215500,GMT+08:00 Asia/Beijing,0512,31.64,120.76
Joint Venture,虞山镇,常熟市,32,215500,GMT+08:00 Asia/Beijing,0512,31.64,120.74
Joint Venture,北门大街虞景文华商业广场19幢-1,常熟市,32,215500,GMT+08:00 Asia/Beijing,,31.65,120.74
Joint Venture,海虞北路35号,常熟市,32,215500,GMT+08:00 Asia/Beijing,0512,31.67,120.75
Joint Venture,工业园区,常熟市,32,200000,GMT+08:00 Asia/Beijing,0512,31.65,120.76
Joint Venture,白雪路7号捞品城,常熟市,32,215500,GMT+08:00 Asia/Beijing,0512,31.63,120.75
Joint Venture,沙洲西路368号,张家港,32,223000,GMT+08:00 Asia/Beijing,,31.87,120.52
Joint Venture,杨舍镇河西路88号一层1404号铺位,张家港市,32,215600,GMT+08:00 Asia/Beijing,+86 512,31.86,120.55
Joint Venture,江苏省徐州市,徐州市,32,221200,GMT+08:00 Asia/Beijing,,33.9,117.96
Joint Venture,泉山区,徐州市,32,221000,GMT+08:00 Asia/Beijing,0516,34.26,117.16
Joint Venture,鼓楼区复兴北路27号,徐州市,32,221000,GMT+08:00 Asia/Beijing,,34.27,117.2
Joint Venture,江苏省徐州市,徐州市,32,221100,GMT+08:00 Asia/Beijing,,34.33,117.98
Joint Venture,江苏省徐州市,徐州市,32,221000,GMT+08:00 Asia/Beijing,,34.19,117.19
Joint Venture,云龙区,徐州市,32,221000,GMT+08:00 Asia/Beijing,0516,34.25,117.24
Joint Venture,鼓楼区,徐州市,32,221000,GMT+08:00 Asia/Beijing,0516,34.27,117.19
Joint Venture,扬中市三茅镇江洲西路8号,扬中市,32,212200,GMT+08:00 Asia/Beijing,,32.24,119.83
Joint Venture,广陵区,扬州市,32,225000,GMT+08:00 Asia/Beijing,0514,32.39,119.44
Joint Venture,邗江区,扬州市,32,225100,GMT+08:00 Asia/Beijing,0514,32.4,119.42
Joint Venture,江苏省扬州市,扬州市,32,225000,GMT+08:00 Asia/Beijing,,32.39,119.43
Joint Venture,江苏省扬州市,扬州市,32,225000,GMT+08:00 Asia/Beijing,,32.39,119.43
Joint Venture,广陵区,扬州市,32,225000,GMT+08:00 Asia/Beijing,,32.4,119.45
Joint Venture,江苏省扬州市,扬州市,32,225000,GMT+08:00 Asia/Beijing,,32.36,119.42
Joint Venture,广陵区,扬州市,32,225000,GMT+08:00 Asia/Beijing,0514,32.4,119.43
Joint Venture,邗江区,扬州市,32,225100,GMT+08:00 Asia/Beijing,,32.37,119.4
Joint Venture,广陵区,扬州市,32,225000,GMT+08:00 Asia/Beijing,0514,32.39,119.43
Joint Venture,邗江区,扬州市,32,225100,GMT+08:00 Asia/Beijing,,32.38,119.4
Joint Venture,开发区,扬州市,32,225000,GMT+08:00 Asia/Beijing,0514,32.38,119.38
Joint Venture,江都区,扬州市,32,225200,GMT+08:00 Asia/Beijing,,32.42,119.56
Joint Venture,崇安区广南路1号,无锡市,32,214000,GMT+08:00 Asia/Beijing,,31.59,120.34
Joint Venture,滨湖区博大假日广场1号1049号,无锡市,32,214100,GMT+08:00 Asia/Beijing,,31.49,120.28
Joint Venture,崇安区,无锡市,32,214000,GMT+08:00 Asia/Beijing,,31.58,120.3
Joint Venture,新区,无锡市,32,214000,GMT+08:00 Asia/Beijing,0510,31.53,120.38
Joint Venture,南长区,无锡市,32,214000,GMT+08:00 Asia/Beijing,0510,31.56,120.31
Joint Venture,解放东路228号,无锡市,32,214200,GMT+08:00 Asia/Beijing,,31.36,119.84
Joint Venture,江苏省无锡市滨湖区,无锡市,32,214100,GMT+08:00 Asia/Beijing,,31.49,120.31
Joint Venture,南长区,无锡市,32,214000,GMT+08:00 Asia/Beijing,,31.57,120.29
Joint Venture,滨湖区,无锡市,32,214100,GMT+08:00 Asia/Beijing,0510,31.49,120.3
Joint Venture,锡山经济开发区,无锡市,32,214000,GMT+08:00 Asia/Beijing,,31.58,120.39
Joint Venture,滨湖区,无锡市,32,214100,GMT+08:00 Asia/Beijing,,31.54,120.26
Joint Venture,崇安区,无锡市,32,214000,GMT+08:00 Asia/Beijing,,31.58,120.3
Joint Venture,新区,无锡市,32,21400,GMT+08:00 Asia/Beijing,,31.5,120.43
Joint Venture,滨湖区,无锡市,32,214100,GMT+08:00 Asia/Beijing,,31.53,120.28
Joint Venture,惠山区,无锡市,32,214100,GMT+08:00 Asia/Beijing,,31.61,120.24
Joint Venture,江阴市人民中路18号,无锡市,32,214400,GMT+08:00 Asia/Beijing,,31.9,120.28
Joint Venture,南长区,无锡市,32,214000,GMT+08:00 Asia/Beijing,0510,31.55,120.31
Joint Venture,滨湖区,无锡市,32,214100,GMT+08:00 Asia/Beijing,,31.51,120.28
Joint Venture,滨湖区,无锡市,32,214100,GMT+08:00 Asia/Beijing,0510,31.56,120.27
Joint Venture,江苏省无锡市,无锡市,32,214400,GMT+08:00 Asia/Beijing,,31.91,120.27
Joint Venture,崇安区,无锡市,32,214000,GMT+08:00 Asia/Beijing,,31.58,120.3
Joint Venture,江苏省无锡市,无锡市,32,214000,GMT+08:00 Asia/Beijing,,31.58,120.3
Joint Venture,崇安区,无锡市,32,214000,GMT+08:00 Asia/Beijing,,31.57,120.3
Joint Venture,南长区,无锡市,32,214000,GMT+08:00 Asia/Beijing,0510,31.55,120.29
Joint Venture,无锡新区,无锡市,32,214000,GMT+08:00 Asia/Beijing,0510,31.52,120.46
Joint Venture,崇安区,无锡市,32,214000,GMT+08:00 Asia/Beijing,,31.57,120.3
Joint Venture,滨湖区,无锡市,32,214100,GMT+08:00 Asia/Beijing,,31.55,120.28
Joint Venture,江苏省无锡市,无锡市,32,214200,GMT+08:00 Asia/Beijing,,31.38,119.82
Joint Venture,江苏省无锡市,无锡市,32,214200,GMT+08:00 Asia/Beijing,,31.37,119.82
Joint Venture,崇安区,无锡市,32,214000,GMT+08:00 Asia/Beijing,0510,31.57,120.3
Joint Venture,崇安区,无锡市,32,214000,GMT+08:00 Asia/Beijing,0510,31.58,120.31
Joint Venture,无锡新区,无锡市,32,214000,GMT+08:00 Asia/Beijing,0510,31.49,120.37
Joint Venture,崇安区,无锡市,32,214000,GMT+08:00 Asia/Beijing,,31.59,120.31
Joint Venture,惠山区华惠路绿地世纪城600号,无锡市,32,214100,GMT+08:00 Asia/Beijing,,31.66,120.32
Joint Venture,新区,无锡市,32,214000,GMT+08:00 Asia/Beijing,0510,31.54,120.35
Joint Venture,崇安区,无锡市,32,214000,GMT+08:00 Asia/Beijing,,31.59,120.31
Joint Venture,滨湖区,无锡市,32,214100,GMT+08:00 Asia/Beijing,,31.5,120.28
Joint Venture,惠山区,无锡市,32,214100,GMT+08:00 Asia/Beijing,0510,31.68,120.3
Joint Venture,新区,无锡市,32,214000,GMT+08:00 Asia/Beijing,0510,31.54,120.36
Joint Venture,崇安区,无锡市,32,214000,GMT+08:00 Asia/Beijing,0510,31.58,120.3
Joint Venture,江苏省苏州昆山市,昆山市,32,215300,GMT+08:00 Asia/Beijing,,31.4,120.98
Joint Venture,昆山,昆山市,32,215300,GMT+08:00 Asia/Beijing,0512,31.38,120.98
Joint Venture,开发区,昆山市,32,215300,GMT+08:00 Asia/Beijing,0512,31.35,120.96
Joint Venture,开发区,昆山市,32,215300,GMT+08:00 Asia/Beijing,,31.38,121.06
Joint Venture,玉山镇,昆山市,32,215300,GMT+08:00 Asia/Beijing,0512,31.38,120.95
Joint Venture,花桥镇,昆山市,32,215300,GMT+08:00 Asia/Beijing,0512,31.29,121.15
Joint Venture,江苏省昆山市,昆山市,32,215300,GMT+08:00 Asia/Beijing,,31.36,120.95
Joint Venture,昆山,昆山市,32,215300,GMT+08:00 Asia/Beijing,0512,31.38,120.91
Joint Venture,人民南路96-2号,昆山市,32,215300,GMT+08:00 Asia/Beijing,0512,31.37,120.96
Joint Venture,珠江中路199号,昆山市,32,215300,GMT+08:00 Asia/Beijing,,31.38,120.97
Joint Venture,周庄镇北市街34号,昆山市,32,215300,GMT+08:00 Asia/Beijing,0512,31.11,120.85
Joint Venture,江苏省昆山市,昆山市,32,215300,GMT+08:00 Asia/Beijing,,31.38,120.96
Joint Venture,江苏省昆山市,昆山市,32,215300,GMT+08:00 Asia/Beijing,,31.4,120.98
Joint Venture,昆山,昆山市,32,215300,GMT+08:00 Asia/Beijing,0512,31.38,120.96
Joint Venture,开发区,昆山市,32,215300,GMT+08:00 Asia/Beijing,0512,31.35,120.97
Joint Venture,江苏省南京市,江苏省,32,210000,GMT+08:00 Asia/Beijing,,32.02,118.79
Joint Venture,江苏省苏州市,江苏省,32,215000,GMT+08:00 Asia/Beijing,,31.32,120.71
Joint Venture,惠山区,江阴市,32,214400,GMT+08:00 Asia/Beijing,0510,31.9,120.25
Joint Venture,澄江区,江阴市,32,214400,GMT+08:00 Asia/Beijing,,31.92,120.3
Joint Venture,青果路14号,江阴市,32,214400,GMT+08:00 Asia/Beijing,0510,31.9,120.27
Joint Venture,江苏省泰州市,泰州市,32,225300,GMT+08:00 Asia/Beijing,,32.48,119.92
Joint Venture,海陵区,泰州市,32,225300,GMT+08:00 Asia/Beijing,,32.5,119.92
Joint Venture,海陵区,泰州市,32,225300,GMT+08:00 Asia/Beijing,0523,32.47,119.92
Joint Venture,医药高新区,泰州市,32,214500,GMT+08:00 Asia/Beijing,0523,32.39,119.9
Joint Venture,海陵区,泰州市,32,225300,GMT+08:00 Asia/Beijing,0523,32.49,119.92
Joint Venture,海陵区南通路386号,泰州市,32,225300,GMT+08:00 Asia/Beijing,,32.5,119.93
Joint Venture,兴化英武中路109号东方商厦1层,泰州市,32,225700,GMT+08:00 Asia/Beijing,,32.93,119.84
Joint Venture,海门镇,海门市,32,226100,GMT+08:00 Asia/Beijing,0513,31.9,121.18
Joint Venture,盱城镇金源北路12号,淮安市,32,211700,GMT+08:00 Asia/Beijing,,33.0,118.52
Joint Venture,清河区,淮安市,32,223000,GMT+08:00 Asia/Beijing,0517,33.6,119.03
Joint Venture,清河区,淮安市,32,223000,GMT+08:00 Asia/Beijing,0517,33.6,119.05
Joint Venture,罗庄路,溧阳市,32,213300,GMT+08:00 Asia/Beijing,0519,31.39,119.5
Joint Venture,盐都区,盐城市,32,224000,GMT+08:00 Asia/Beijing,,33.34,120.16
Joint Venture,亭湖区,盐城市,32,224000,GMT+08:00 Asia/Beijing,,33.38,120.12
Joint Venture,盐都区,盐城市,32,224000,GMT+08:00 Asia/Beijing,,33.32,120.18
Joint Venture,亭湖区人民路9号,盐城市,32,224000,GMT+08:00 Asia/Beijing,,33.36,120.15
Joint Venture,海陵北路9号108商铺,盐城市,32,224200,GMT+08:00 Asia/Beijing,,32.86,120.32
Joint Venture,亭湖区,盐城市,32,224000,GMT+08:00 Asia/Beijing,0515,33.38,120.14
Joint Venture,苏州市工业园区星湖街,苏州市,32,215000,GMT+08:00 Asia/Beijing,,31.26,120.73
Joint Venture,工业园区嘉瑞巷18号,苏州市,32,215000,GMT+08:00 Asia/Beijing,,31.32,120.72
Joint Venture,金阊区,苏州市,32,215000,GMT+08:00 Asia/Beijing,0512,31.31,120.6
Joint Venture,工业园区唯华路5号-5号楼101室,苏州市,32,215000,GMT+08:00 Asia/Beijing,,31.36,120.69
Joint Venture,吴中区,苏州市,32,215100,GMT+08:00 Asia/Beijing,,31.26,120.55
Joint Venture,闽江东路9号星光天地购物中心1楼06单元,苏州市,32,215500,GMT+08:00 Asia/Beijing,,31.67,120.77
Joint Venture,姑苏区,苏州市,32,215000,GMT+08:00 Asia/Beijing,,31.26,120.6
Joint Venture,江苏省苏州市,苏州市,32,215000,GMT+08:00 Asia/Beijing,,31.28,120.64
Joint Venture,江苏省苏州市,苏州市,32,215000,GMT+08:00 Asia/Beijing,,31.33,120.76
Joint Venture,吴江区,苏州市,32,215200,GMT+08:00 Asia/Beijing,,31.12,120.64
Joint Venture,江苏省苏州市,苏州市,32,215000,GMT+08:00 Asia/Beijing,,31.32,120.73
Joint Venture,金港大道338号吾悦广场一楼123室,苏州市,32,215600,GMT+08:00 Asia/Beijing,,31.84,120.54
Joint Venture,工业园区,苏州市,32,215000,GMT+08:00 Asia/Beijing,,31.3,120.69
Joint Venture,苏州市工业园区,苏州市,32,215000,GMT+08:00 Asia/Beijing,,31.31,120.65
Joint Venture,江苏省苏州市,苏州市,32,215000,GMT+08:00 Asia/Beijing,,31.28,120.67
Joint Venture,工业园区,苏州市,32,215000,GMT+08:00 Asia/Beijing,0512,31.32,120.71
Joint Venture,江苏省苏州市,苏州市,32,215000,GMT+08:00 Asia/Beijing,,31.27,120.75
Joint Venture,吴中区,苏州市,32,215100,GMT+08:00 Asia/Beijing,,31.27,120.63
Joint Venture,江苏省苏州市,苏州市,32,215000,GMT+08:00 Asia/Beijing,,31.03,120.85
Joint Venture,江苏省苏州市,苏州市,32,215000,GMT+08:00 Asia/Beijing,,31.31,120.6
Joint Venture,工业园区,苏州市,32,215000,GMT+08:00 Asia/Beijing,0512,31.32,120.67
Joint Venture,江苏省苏州市,苏州市,32,215000,GMT+08:00 Asia/Beijing,,31.3,120.63
Joint Venture,姑苏区,苏州市,32,215000,GMT+08:00 Asia/Beijing,,31.31,120.63
Joint Venture,观前街1-53号,苏州市,32,215000,GMT+08:00 Asia/Beijing,,31.31,120.63
Joint Venture,张家港杨舍镇,苏州市,32,223000,GMT+08:00 Asia/Beijing,0512,31.86,120.55
Joint Venture,吴中区,苏州市,32,215100,GMT+08:00 Asia/Beijing,0512,31.19,120.61
Joint Venture,江苏省苏州市,苏州市,32,215000,GMT+08:00 Asia/Beijing,0512,31.31,120.67
Joint Venture,吴中区石湖西路188号,苏州市,32,215000,GMT+08:00 Asia/Beijing,,31.25,120.61
Joint Venture,姑苏区阊胥路388号#101铺位,苏州市,32,215000,GMT+08:00 Asia/Beijing,,31.3,120.61
Joint Venture,姑苏区,苏州市,32,215000,GMT+08:00 Asia/Beijing,,31.34,120.62
Joint Venture,工业园区,苏州市,32,215000,GMT+08:00 Asia/Beijing,0512,31.32,120.66
Joint Venture,吴江区,苏州市,32,215200,GMT+08:00 Asia/Beijing,,30.9,120.62
Joint Venture,工业园区,苏州市,32,215000,GMT+08:00 Asia/Beijing,0512,31.3,120.72
Joint Venture,姑苏区,苏州市,32,215000,GMT+08:00 Asia/Beijing,0512,31.31,120.62
Joint Venture,江苏省苏州市,苏州市,32,215000,GMT+08:00 Asia/Beijing,,31.27,120.87
Joint Venture,姑苏区临顿路101-141号,苏州市,32,215000,GMT+08:00 Asia/Beijing,,31.31,120.63
Joint Venture,吴江区,苏州市,32,215200,GMT+08:00 Asia/Beijing,,31.14,120.63
Joint Venture,吴中区,苏州市,32,215100,GMT+08:00 Asia/Beijing,,31.26,120.52
Joint Venture,工业园区,苏州市,32,215000,GMT+08:00 Asia/Beijing,0512,31.32,120.72
Joint Venture,江苏省苏州市,苏州市,32,215000,GMT+08:00 Asia/Beijing,,31.29,120.56
Joint Venture,工业园区,苏州市,32,215000,GMT+08:00 Asia/Beijing,0512,31.32,120.68
Joint Venture,江苏省苏州市,苏州市,32,215000,GMT+08:00 Asia/Beijing,,31.35,120.62
Joint Venture,姑苏区,苏州市,32,215000,GMT+08:00 Asia/Beijing,,31.3,120.6
Joint Venture,江苏省苏州市,苏州市,32,215000,GMT+08:00 Asia/Beijing,,31.34,120.42
Joint Venture,昆山市萧林中路666号,苏州市,32,215300,GMT+08:00 Asia/Beijing,,31.4,120.96
Joint Venture,江苏省苏州市,苏州市,32,215000,GMT+08:00 Asia/Beijing,,31.32,120.73
Joint Venture,工业园区,苏州市,32,215000,GMT+08:00 Asia/Beijing,,31.32,120.66
Joint Venture,江苏省苏州市,苏州市,32,215100,GMT+08:00 Asia/Beijing,,31.42,120.56
Joint Venture,吴中区,苏州市,32,215100,GMT+08:00 Asia/Beijing,,31.28,120.52
Joint Venture,工业园区月廊街8号,苏州市,32,215000,GMT+08:00 Asia/Beijing,,31.32,120.71
Joint Venture,工业园区,苏州市,32,215000,GMT+08:00 Asia/Beijing,,31.31,120.78
Joint Venture,工业园区,苏州市,32,215000,GMT+08:00 Asia/Beijing,0512,31.32,120.72
Joint Venture,工业园区,苏州市,32,215000,GMT+08:00 Asia/Beijing,,31.32,120.76
Joint Venture,工业园区,苏州市,32,215000,GMT+08:00 Asia/Beijing,,31.38,120.76
Joint Venture,江苏省苏州市,苏州市,32,215000,GMT+08:00 Asia/Beijing,,31.33,120.61
Joint Venture,高新区,苏州市,32,215000,GMT+08:00 Asia/Beijing,,31.3,120.56
Joint Venture,吴中区,苏州市,32,215100,GMT+08:00 Asia/Beijing,0512,31.31,120.66
Joint Venture,姑苏区,苏州市,32,215000,GMT+08:00 Asia/Beijing,,31.31,120.62
Joint Venture,江苏省苏州市,苏州市,32,215000,GMT+08:00 Asia/Beijing,,31.42,120.64
Joint Venture,吴中区东,苏州市,32,215100,GMT+08:00 Asia/Beijing,,31.27,120.63
Joint Venture,工业园区,苏州市,32,215000,GMT+08:00 Asia/Beijing,,31.26,120.72
Joint Venture,工业园区,苏州市,32,215000,GMT+08:00 Asia/Beijing,,31.3,120.74
Joint Venture,江苏省苏州市,苏州市,32,215000,GMT+08:00 Asia/Beijing,,31.33,120.72
Joint Venture,苏州高新区城际路19号1层186B#,苏州市,32,215000,GMT+08:00 Asia/Beijing,,31.37,120.53
Joint Venture,工业园区,苏州市,32,215000,GMT+08:00 Asia/Beijing,0512,31.32,120.7
Joint Venture,吴中区中山东路88号,苏州市,32,215100,GMT+08:00 Asia/Beijing,,31.26,120.53
Joint Venture,工业园区,苏州市,32,215000,GMT+08:00 Asia/Beijing,0512,31.32,120.67
Joint Venture,姑苏区,苏州市,32,215000,GMT+08:00 Asia/Beijing,,31.3,120.62
Joint Venture,姑苏区,苏州市,32,215000,GMT+08:00 Asia/Beijing,,31.3,120.6
Joint Venture,平江区,苏州市,32,215000,GMT+08:00 Asia/Beijing,0512,31.31,120.62
Joint Venture,苏州市工业园区,苏州市,32,215000,GMT+08:00 Asia/Beijing,0512,31.32,120.67
Joint Venture,江苏省苏州市,苏州市,32,215400,GMT+08:00 Asia/Beijing,,31.45,121.13
Joint Venture,铁路苏州站南站房二楼候车厅,苏州市,32,215000,GMT+08:00 Asia/Beijing,,31.33,120.61
Joint Venture,工业园区,苏州市,32,215000,GMT+08:00 Asia/Beijing,0512,31.34,120.82
Joint Venture,工业园区,苏州市,32,215000,GMT+08:00 Asia/Beijing,0512,31.31,120.74
Joint Venture,张家港市沙洲中路,苏州市,32,215600,GMT+08:00 Asia/Beijing,,31.86,120.54
Joint Venture,相城区,苏州市,32,215100,GMT+08:00 Asia/Beijing,,31.36,120.61
Joint Venture,高新区,苏州市,32,215000,GMT+08:00 Asia/Beijing,,31.31,120.55
Joint Venture,高新区,苏州市,32,215000,GMT+08:00 Asia/Beijing,0512,31.3,120.55
Joint Venture,江苏省苏州市,苏州市,32,215000,GMT+08:00 Asia/Beijing,,31.28,120.54
Joint Venture,工业园区星湖街1205号,苏州市,32,215000,GMT+08:00 Asia/Beijing,,31.29,120.72
Joint Venture,虎丘区,苏州市,32,215100,GMT+08:00 Asia/Beijing,0512,31.28,120.55
Joint Venture,吴中区,苏州市,32,215100,GMT+08:00 Asia/Beijing,0512,31.27,120.63
Joint Venture,江苏省苏州市,苏州市,32,215100,GMT+08:00 Asia/Beijing,,31.3,120.55
Joint Venture,江苏省苏州市,苏州市,32,215000,GMT+08:00 Asia/Beijing,,31.28,120.52
Joint Venture,金阊区,苏州市,32,215000,GMT+08:00 Asia/Beijing,0512,31.32,120.6
Joint Venture,相城区,苏州市,32,215100,GMT+08:00 Asia/Beijing,,31.37,120.62
Joint Venture,高新区,苏州市,32,215000,GMT+08:00 Asia/Beijing,0512,31.29,120.57
Joint Venture,江苏省苏州市,苏州市,32,215000,GMT+08:00 Asia/Beijing,,31.3,120.55
Joint Venture,高新区,苏州市,32,215000,GMT+08:00 Asia/Beijing,,31.34,120.42
Joint Venture,新浦区,连云港,32,222000,GMT+08:00 Asia/Beijing,,34.6,119.19
Joint Venture,连云区,连云港市,32,222000,GMT+08:00 Asia/Beijing,,34.74,119.37
Joint Venture,新浦区,连云港市,32,222000,GMT+08:00 Asia/Beijing,,34.6,119.18
Joint Venture,连云港市海州区,连云港市,32,222000,GMT+08:00 Asia/Beijing,,34.62,119.22
Joint Venture,新民中路2号,镇江市,32,212000,GMT+08:00 Asia/Beijing,,31.99,119.57
Joint Venture,江苏省镇江市,镇江市,32,212000,GMT+08:00 Asia/Beijing,,32.22,119.47
Joint Venture,江苏省镇江市,镇江市,32,212000,GMT+08:00 Asia/Beijing,,32.2,119.45
Joint Venture,润州区,镇江市,32,212000,GMT+08:00 Asia/Beijing,0511,32.2,119.44
Joint Venture,丹徒区,镇江市,32,212100,GMT+08:00 Asia/Beijing,,32.13,119.45
Joint Venture,句容市郭庄镇空港新区,镇江市,32,212400,GMT+08:00 Asia/Beijing,,31.81,119.01
Joint Venture,京口区,镇江市,32,212000,GMT+08:00 Asia/Beijing,,32.21,119.45
Joint Venture,丹阳市开发区,镇江市,32,212300,GMT+08:00 Asia/Beijing,,32.0,119.61
Joint Venture,丹阳市,镇江市,32,212300,GMT+08:00 Asia/Beijing,,31.99,119.58
Joint Venture,车站路77号泰和国际城C1-01铺位,靖江市,32,214500,GMT+08:00 Asia/Beijing,,32.01,120.26
Joint Venture,人民北路1号文峰大世界1层1-2单元,靖江市,32,214500,GMT+08:00 Asia/Beijing,,32.02,120.27
Joint Venture,江苏省扬州高邮市,高邮市,32,225600,GMT+08:00 Asia/Beijing,,32.79,119.46
Joint Venture,intersection Yanan Road and Qingchun Roa,Hangzhou,33,310000,GMT+08:00 Asia/Beijing,,30.26,120.16
Joint Venture,West Wenyi Rd&Yongfu Rd,Hangzhou,33,311100,GMT+08:00 Asia/Beijing,,30.28,120.04
Joint Venture,xiao he road,hangzhou,33,3120000,GMT+08:00 Asia/Beijing,,30.31,120.14
Joint Venture,pin shui road,hangzhou,33,310000,GMT+08:00 Asia/Beijing,,30.31,120.12
Joint Venture,NO.555 qian hu south road,hangzhou,33,310000,GMT+08:00 Asia/Beijing,,29.83,121.57
Joint Venture,Jiashan Century Avenue Rd intersection,Jiaxing,33,314100,GMT+08:00 Asia/Beijing,,30.82,120.93
Joint Venture,North Qingfeng Road North Huancheng Road,Jiaxing,33,314500,GMT+08:00 Asia/Beijing,,30.65,120.55
Joint Venture,NO.351 Mingyue street,jin hua,33,321000,GMT+08:00 Asia/Beijing,,29.11,119.66
Joint Venture,Yu Yuan Street&Venus Lane,Jinhua,33,321200,GMT+08:00 Asia/Beijing,,28.89,119.81
Joint Venture,Middle Xingning road and outer ring road,Ningbo,33,315600,GMT+08:00 Asia/Beijing,,29.3,121.43
Joint Venture,South Xin Ximen Rd&West Siming Rd,Ningbo,33,315400,GMT+08:00 Asia/Beijing,,30.03,121.15
Joint Venture,Eagle Road Danfeng Road,Ningbo,33,315700,GMT+08:00 Asia/Beijing,,29.48,121.9
Joint Venture,Da Nan RD&East Maanchi Rd,Wenzhou,33,325000,GMT+08:00 Asia/Beijing,,28.01,120.66
Joint Venture,Chang Zhou Avenue Dongying Road,Zhoushan,33,316000,GMT+08:00 Asia/Beijing,,30.02,122.12
Joint Venture,人民中路193号,上虞市,33,312300,GMT+08:00 Asia/Beijing,,30.02,120.88
Joint Venture,上虞区,上虞市,33,312300,GMT+08:00 Asia/Beijing,0575,30.03,120.87
Joint Venture,人民路106号,东阳市,33,322100,GMT+08:00 Asia/Beijing,0579,29.27,120.24
Joint Venture,莲都区解放街198号一层1号101室,丽水市,33,323000,GMT+08:00 Asia/Beijing,,28.45,119.92
Joint Venture,莲都区,丽水市,33,323000,GMT+08:00 Asia/Beijing,,28.46,119.92
Joint Venture,靖江中路122号,临海市,33,317000,GMT+08:00 Asia/Beijing,,28.85,121.14
Joint Venture,东方大道1号,临海市,33,317000,GMT+08:00 Asia/Beijing,0576,28.86,121.14
Joint Venture,义乌,义乌市,33,322000,GMT+08:00 Asia/Beijing,0579,29.31,120.08
Joint Venture,婺城区,义乌市,33,322000,GMT+08:00 Asia/Beijing,0579,29.31,120.07
Joint Venture,伯乐东路666号,乐清市,33,325600,GMT+08:00 Asia/Beijing,,28.11,120.98
Joint Venture,城东路888号1F-117,余姚市,33,315000,GMT+08:00 Asia/Beijing,0574,30.07,121.18
Joint Venture,丹溪大道157号,兰溪市,33,321100,GMT+08:00 Asia/Beijing,,29.21,119.45
Joint Venture,椒江区,台州市,33,318000,GMT+08:00 Asia/Beijing,,28.65,121.43
Joint Venture,椒江区,台州市,33,318000,GMT+08:00 Asia/Beijing,,28.65,121.41
Joint Venture,浙江省台州市,台州市,33,317700,GMT+08:00 Asia/Beijing,,28.67,121.44
Joint Venture,黄岩区西城街道引泉路188号,台州市,33,318000,GMT+08:00 Asia/Beijing,,28.63,121.26
Joint Venture,浙江省台州市,台州市,33,317700,GMT+08:00 Asia/Beijing,,28.64,121.42
Joint Venture,天台县赤城路399号,台州市,33,317200,GMT+08:00 Asia/Beijing,,29.14,121.03
Joint Venture,东森购物中心,台州市,33,318000,GMT+08:00 Asia/Beijing,0576,28.59,121.37
Joint Venture,浙江省台州市,台州市,33,318000,GMT+08:00 Asia/Beijing,,28.62,121.4
Joint Venture,路桥区,台州市,33,318000,GMT+08:00 Asia/Beijing,,28.59,121.37
Joint Venture,台州市路桥区,台州市,33,318000,GMT+08:00 Asia/Beijing,,28.58,121.38
Joint Venture,浙江省台州市,台州市,33,317000,GMT+08:00 Asia/Beijing,,28.88,121.23
Joint Venture,浙江省嘉兴,嘉兴,33,314400,GMT+08:00 Asia/Beijing,,30.5,120.67
Joint Venture,浙江省嘉兴市,嘉兴市,33,314100,GMT+08:00 Asia/Beijing,,30.76,120.69
Joint Venture,浙江省嘉兴市,嘉兴市,33,314100,GMT+08:00 Asia/Beijing,,30.84,120.93
Joint Venture,秀洲区,嘉兴市,33,314000,GMT+08:00 Asia/Beijing,0573,30.76,120.71
Joint Venture,秀洲区,嘉兴市,33,314000,GMT+08:00 Asia/Beijing,,30.62,120.67
Joint Venture,南湖区,嘉兴市,33,314000,GMT+08:00 Asia/Beijing,,30.74,120.8
Joint Venture,浙江省嘉兴市海盐县,嘉兴市,33,314300,GMT+08:00 Asia/Beijing,,30.54,120.95
Joint Venture,桐乡市,嘉兴市,33,314500,GMT+08:00 Asia/Beijing,0573,30.63,120.55
Joint Venture,南湖区,嘉兴市,33,314000,GMT+08:00 Asia/Beijing,0573,30.76,120.75
Joint Venture,海昌南路365号,嘉兴市,33,314400,GMT+08:00 Asia/Beijing,,30.5,120.69
Joint Venture,西塘镇环镇北路55号璞悦园12幢A16号商铺,嘉兴市,33,310000,GMT+08:00 Asia/Beijing,,30.95,120.89
Joint Venture,秀洲区,嘉兴市,33,314000,GMT+08:00 Asia/Beijing,,30.62,120.68
Joint Venture,浙江省嘉兴市,嘉兴市,33,314000,GMT+08:00 Asia/Beijing,,30.94,120.89
Joint Venture,浙江省嘉兴市,嘉兴市,33,314000,GMT+08:00 Asia/Beijing,,30.76,120.73
Joint Venture,联合路97号,嘉兴市,33,314400,GMT+08:00 Asia/Beijing,,30.52,120.68
Joint Venture,嘉善县中山西路118号,嘉善市,33,314100,GMT+08:00 Asia/Beijing,,30.84,120.92
Joint Venture,南山路174号S1F-9商铺,奉化市,33,315000,GMT+08:00 Asia/Beijing,,29.67,121.41
Joint Venture,上城区,奉化市,33,315500,GMT+08:00 Asia/Beijing,0574,29.66,121.41
Joint Venture,江东区,宁波市,33,315000,GMT+08:00 Asia/Beijing,,29.88,121.57
Joint Venture,鄞州区,宁波市,33,315100,GMT+08:00 Asia/Beijing,0574,29.83,121.57
Joint Venture,江东区,宁波市,33,315000,GMT+08:00 Asia/Beijing,,29.87,121.59
Joint Venture,浙江省宁波市,宁波市,33,315000,GMT+08:00 Asia/Beijing,,29.87,121.55
Joint Venture,鄞州区,宁波市,33,315100,GMT+08:00 Asia/Beijing,,29.8,121.55
Joint Venture,鄞州区,宁波市,33,315100,GMT+08:00 Asia/Beijing,,29.82,121.55
Joint Venture,海曙区,宁波市,33,315000,GMT+08:00 Asia/Beijing,0574,29.87,121.56
Joint Venture,鄞州区,宁波市,33,315100,GMT+08:00 Asia/Beijing,0574,29.83,121.55
Joint Venture,高新区,宁波市,33,315000,GMT+08:00 Asia/Beijing,0574,29.89,121.64
Joint Venture,海曙区,宁波市,33,315000,GMT+08:00 Asia/Beijing,,29.88,121.55
Joint Venture,鄞州区,宁波市,33,315100,GMT+08:00 Asia/Beijing,,29.8,121.55
Joint Venture,江北区,宁波市,33,315000,GMT+08:00 Asia/Beijing,0574,29.88,121.56
Joint Venture,浙江省宁波市,宁波市,33,315600,GMT+08:00 Asia/Beijing,,29.3,121.44
Joint Venture,北仑区,宁波市,33,315800,GMT+08:00 Asia/Beijing,,29.9,121.84
Joint Venture,海曙区日新街105号1F-17商铺,宁波市,33,315000,GMT+08:00 Asia/Beijing,,29.87,121.56
Joint Venture,江东区,宁波市,33,315000,GMT+08:00 Asia/Beijing,0574,29.86,121.62
Joint Venture,海曙区,宁波市,33,315000,GMT+08:00 Asia/Beijing,,29.87,121.55
Joint Venture,江东区,宁波市,33,315000,GMT+08:00 Asia/Beijing,,29.3,121.44
Joint Venture,浙江省宁波市,宁波市,33,315000,GMT+08:00 Asia/Beijing,,29.81,121.55
Joint Venture,江北区,宁波市,33,315000,GMT+08:00 Asia/Beijing,0574,29.91,121.53
Joint Venture,鄞州区,宁波市,33,315100,GMT+08:00 Asia/Beijing,0574,29.81,121.55
Joint Venture,江东区,宁波市,33,315000,GMT+08:00 Asia/Beijing,0574,29.87,121.57
Joint Venture,北仑区,宁波市,33,315800,GMT+08:00 Asia/Beijing,0574,29.9,121.83
Joint Venture,海曙区,宁波市,33,315000,GMT+08:00 Asia/Beijing,0574,29.87,121.55
Joint Venture,海曙区柳汀街225号店1-09、2-05室,宁波市,33,315000,GMT+08:00 Asia/Beijing,,29.87,121.54
Joint Venture,鄞州区,宁波市,33,315100,GMT+08:00 Asia/Beijing,0574,29.83,121.57
Joint Venture,鄞州区钱湖南路636号109室,宁波市,33,315100,GMT+08:00 Asia/Beijing,,29.81,121.56
Joint Venture,盛园巷17号,宁波市,33,315000,GMT+08:00 Asia/Beijing,0574,29.86,121.55
Joint Venture,高新区,宁波市,33,315000,GMT+08:00 Asia/Beijing,0574,29.89,121.62
Joint Venture,江东区,宁波市,33,315000,GMT+08:00 Asia/Beijing,,29.87,121.56
Joint Venture,鄞州区,宁波市,33,315100,GMT+08:00 Asia/Beijing,,29.8,121.54
Joint Venture,浙江省宁波市,宁波市,33,315000,GMT+08:00 Asia/Beijing,,29.85,121.51
Joint Venture,海曙区,宁波市,33,315000,GMT+08:00 Asia/Beijing,0574,29.87,121.55
Joint Venture,宁海县,宁波市,33,315600,GMT+08:00 Asia/Beijing,0574,29.3,121.43
Joint Venture,浙江省宁波市江北区,宁波市,33,315000,GMT+08:00 Asia/Beijing,,29.93,121.5
Joint Venture,浙江省宁波市,宁波市,33,315000,GMT+08:00 Asia/Beijing,,29.87,121.56
Joint Venture,北仑区,宁波市,33,315800,GMT+08:00 Asia/Beijing,,29.91,121.85
Joint Venture,鄞州区,宁波市,33,315100,GMT+08:00 Asia/Beijing,0574,29.83,121.54
Joint Venture,江东区,宁波市,33,315000,GMT+08:00 Asia/Beijing,,29.87,121.59
Joint Venture,海曙区,宁波市,33,315000,GMT+08:00 Asia/Beijing,0574,29.87,121.55
Joint Venture,江北区,宁波市,33,315000,GMT+08:00 Asia/Beijing,0574,29.88,121.56
Joint Venture,镇海区,宁波市,33,315200,GMT+08:00 Asia/Beijing,,29.91,121.61
Joint Venture,鄞州区,宁波市,33,315100,GMT+08:00 Asia/Beijing,0574,29.81,121.55
Joint Venture,江东区,宁波市,33,315000,GMT+08:00 Asia/Beijing,0574,29.86,121.59
Joint Venture,海曙区,宁波市,33,315000,GMT+08:00 Asia/Beijing,0574,29.87,121.56
Joint Venture,鄞州区四明中路688号F1-07室,宁波市,33,315100,GMT+08:00 Asia/Beijing,,29.83,121.55
Joint Venture,余姚市,宁波市,33,315400,GMT+08:00 Asia/Beijing,0574,30.05,121.16
Joint Venture,浙江省宁波市,宁波市,33,31500,GMT+08:00 Asia/Beijing,,29.88,121.57
Joint Venture,海曙区中山东路166号一楼020-1号位,宁波市,33,315000,GMT+08:00 Asia/Beijing,,29.87,121.55
Joint Venture,象山县丹河东路905-1号,宁波市,33,315700,GMT+08:00 Asia/Beijing,,29.46,121.9
Joint Venture,海曙区,宁波市,33,315000,GMT+08:00 Asia/Beijing,,29.9,121.53
Joint Venture,浙江省宁波市,宁波市,33,315000,GMT+08:00 Asia/Beijing,,29.87,121.57
Joint Venture,余姚市,宁波市,33,315400,GMT+08:00 Asia/Beijing,,30.03,121.13
Joint Venture,江北区,宁波市,33,315000,GMT+08:00 Asia/Beijing,,29.89,121.55
Joint Venture,海曙区,宁波市,33,315000,GMT+08:00 Asia/Beijing,,29.85,121.54
Joint Venture,鄞州区,宁波市,33,315100,GMT+08:00 Asia/Beijing,,29.8,121.56
Joint Venture,浙江省宁波市,宁波市,33,315100,GMT+08:00 Asia/Beijing,,29.93,121.63
Joint Venture,浙江省宁波市,宁波市,33,315100,GMT+08:00 Asia/Beijing,,29.81,121.58
Joint Venture,新城大道北路269-325号1F-05A,慈溪市,33,315000,GMT+08:00 Asia/Beijing,,30.17,121.27
Joint Venture,浒山街道,慈溪市,33,315300,GMT+08:00 Asia/Beijing,0574,30.17,121.25
Joint Venture,浒山路256~262号,慈溪市,33,315300,GMT+08:00 Asia/Beijing,,30.17,121.26
Joint Venture,水门路3号,慈溪市,33,315300,GMT+08:00 Asia/Beijing,,30.17,121.24
Joint Venture,三北西大街1151、1553号A1-20a,慈溪市,33,315300,GMT+08:00 Asia/Beijing,,30.18,121.21
Joint Venture,余杭区,杭州市,33,311100,GMT+08:00 Asia/Beijing,0571,30.25,120.05
Joint Venture,下城区,杭州市,33,310000,GMT+08:00 Asia/Beijing,0571,30.27,120.16
Joint Venture,浙江省杭州市,杭州市,33,310000,GMT+08:00 Asia/Beijing,,30.21,120.22
Joint Venture,拱墅区,杭州市,33,310000,GMT+08:00 Asia/Beijing,,30.32,120.14
Joint Venture,杭州市萧山区,杭州市,33,311200,GMT+08:00 Asia/Beijing,,30.18,120.27
Joint Venture,拱墅区,杭州市,33,310000,GMT+08:00 Asia/Beijing,,30.33,120.12
Joint Venture,江干区,杭州市,33,310000,GMT+08:00 Asia/Beijing,,30.24,120.21
Joint Venture,上城区,杭州市,33,310000,GMT+08:00 Asia/Beijing,0571,30.22,120.18
Joint Venture,西湖区,杭州市,33,310000,GMT+08:00 Asia/Beijing,0571,30.27,120.14
Joint Venture,西湖区,杭州市,33,310000,GMT+08:00 Asia/Beijing,0571,30.27,120.14
Joint Venture,滨江区,杭州市,33,310000,GMT+08:00 Asia/Beijing,0571,30.21,120.21
Joint Venture,杭州市江干区,杭州市,33,310000,GMT+08:00 Asia/Beijing,,30.24,120.21
Joint Venture,西湖区,杭州市,33,310000,GMT+08:00 Asia/Beijing,0571,30.24,120.11
Joint Venture,经济技术开发区,杭州市,33,310000,GMT+08:00 Asia/Beijing,,30.31,120.33
Joint Venture,滨江区,杭州市,33,310000,GMT+08:00 Asia/Beijing,,30.18,120.21
Joint Venture,江干区,杭州市,33,310000,GMT+08:00 Asia/Beijing,,30.25,120.21
Joint Venture,浙江省杭州市,杭州市,33,310000,GMT+08:00 Asia/Beijing,,30.23,120.19
Joint Venture,余杭区,杭州市,33,311100,GMT+08:00 Asia/Beijing,,30.42,120.3
Joint Venture,滨江区,杭州市,33,310000,GMT+08:00 Asia/Beijing,0571,30.21,120.2
Joint Venture,浙江省杭州市,杭州市,33,310000,GMT+08:00 Asia/Beijing,,30.29,120.21
Joint Venture,西湖区,杭州市,33,310000,GMT+08:00 Asia/Beijing,,30.33,120.08
Joint Venture,上城区,杭州市,33,310000,GMT+08:00 Asia/Beijing,,30.25,120.16
Joint Venture,西湖区,杭州市,33,310000,GMT+08:00 Asia/Beijing,,30.28,120.13
Joint Venture,江干区,杭州市,33,310000,GMT+08:00 Asia/Beijing,,30.35,120.23
Joint Venture,余杭区,杭州市,33,311100,GMT+08:00 Asia/Beijing,,30.34,120.29
Joint Venture,浙江省杭州市,杭州市,33,310000,GMT+08:00 Asia/Beijing,,30.25,120.16
Joint Venture,上城区解放路249号,杭州市,33,310000,GMT+08:00 Asia/Beijing,,30.25,120.17
Joint Venture,拱墅区,杭州市,33,310000,GMT+08:00 Asia/Beijing,,30.29,120.11
Joint Venture,临安市钱王街855号,杭州市,33,311300,GMT+08:00 Asia/Beijing,,30.22,119.71
Joint Venture,浙江省杭州市,杭州市,33,310000,GMT+08:00 Asia/Beijing,,30.23,120.17
Joint Venture,萧山区金鸡路1057、1059、1061号,杭州市,33,311200,GMT+08:00 Asia/Beijing,,30.2,120.25
Joint Venture,经济技术开发区,杭州市,33,310000,GMT+08:00 Asia/Beijing,,30.31,120.35
Joint Venture,经济技术开发区,杭州市,33,311500,GMT+08:00 Asia/Beijing,,30.31,120.35
Joint Venture,浙江省杭州市,杭州市,33,310000,GMT+08:00 Asia/Beijing,,29.8,119.69
Joint Venture,余杭区,杭州市,33,311100,GMT+08:00 Asia/Beijing,,30.36,120.06
Joint Venture,西湖区,杭州市,33,310000,GMT+08:00 Asia/Beijing,0571,30.25,120.13
Joint Venture,江干区,杭州市,33,310000,GMT+08:00 Asia/Beijing,0571,30.25,120.22
Joint Venture,下城区,杭州市,33,310000,GMT+08:00 Asia/Beijing,,30.28,120.17
Joint Venture,江干区,杭州市,33,310000,GMT+08:00 Asia/Beijing,0571,30.29,120.21
Joint Venture,上城区,杭州市,33,310000,GMT+08:00 Asia/Beijing,0571,30.25,120.16
Joint Venture,江干区,杭州市,33,310000,GMT+08:00 Asia/Beijing,,30.25,120.22
Joint Venture,浙江省杭州市,杭州市,33,311600,GMT+08:00 Asia/Beijing,,30.15,120.08
Joint Venture,浙江省杭州市,杭州市,33,311600,GMT+08:00 Asia/Beijing,,29.47,119.28
Joint Venture,江干区,杭州市,33,310000,GMT+08:00 Asia/Beijing,,30.25,120.21
Joint Venture,江干区,杭州市,33,310000,GMT+08:00 Asia/Beijing,,30.26,120.21
Joint Venture,浙江省杭州市,杭州市,33,310000,GMT+08:00 Asia/Beijing,,30.2,120.2
Joint Venture,杭州市拱墅区,杭州市,33,310000,GMT+08:00 Asia/Beijing,,30.34,120.12
Joint Venture,西湖区,杭州市,33,310000,GMT+08:00 Asia/Beijing,,30.27,120.13
Joint Venture,文一西路998号,杭州市,33,315000,GMT+08:00 Asia/Beijing,,30.28,120.02
Joint Venture,滨江区,杭州市,33,310000,GMT+08:00 Asia/Beijing,,30.19,120.18
Joint Venture,上城区,杭州市,33,310000,GMT+08:00 Asia/Beijing,0571,30.25,120.16
Joint Venture,杭州市余杭区,杭州市,33,311100,GMT+08:00 Asia/Beijing,,30.36,120.03
Joint Venture,西湖区,杭州市,33,310000,GMT+08:00 Asia/Beijing,,30.26,120.15
Joint Venture,余杭区,杭州市,33,311100,GMT+08:00 Asia/Beijing,0571,30.29,120.1
Joint Venture,西湖区,杭州市,33,310000,GMT+08:00 Asia/Beijing,0571,30.27,120.09
Joint Venture,江干区,杭州市,33,310000,GMT+08:00 Asia/Beijing,,30.24,120.2
Joint Venture,浙江省杭州市,杭州市,33,310000,GMT+08:00 Asia/Beijing,,30.29,120.07
Joint Venture,下城区,杭州市,33,310000,GMT+08:00 Asia/Beijing,0571,30.27,120.16
Joint Venture,萧山区,杭州市,33,311200,GMT+08:00 Asia/Beijing,0571,30.18,120.25
Joint Venture,杭州市江干区,杭州市,33,310000,GMT+08:00 Asia/Beijing,,30.29,120.19
Joint Venture,江干区天城路1号,杭州市,33,310000,GMT+08:00 Asia/Beijing,,30.29,120.21
Joint Venture,杭州市江干区,杭州市,33,310000,GMT+08:00 Asia/Beijing,,30.29,120.21
Joint Venture,经济技术开发区,杭州市,33,310000,GMT+08:00 Asia/Beijing,,30.3,120.33
Joint Venture,西湖区,杭州市,33,310000,GMT+08:00 Asia/Beijing,0571,30.25,120.13
Joint Venture,淳安县千岛湖镇阳光路89号,杭州市,33,311700,GMT+08:00 Asia/Beijing,,29.62,119.04
Joint Venture,萧山区,杭州市,33,311200,GMT+08:00 Asia/Beijing,0571,30.24,120.44
Joint Venture,拱墅区,杭州市,33,310000,GMT+08:00 Asia/Beijing,,30.28,120.16
Joint Venture,下城区,杭州市,33,310000,GMT+08:00 Asia/Beijing,,30.29,120.17
Joint Venture,浙江省杭州市,杭州市,33,312000,GMT+08:00 Asia/Beijing,,29.84,119.8
Joint Venture,杭州市江干区,杭州市,33,310000,GMT+08:00 Asia/Beijing,,30.26,120.2
Joint Venture,下城区,杭州市,33,310000,GMT+08:00 Asia/Beijing,,30.27,120.17
Joint Venture,西湖区,杭州市,33,310000,GMT+08:00 Asia/Beijing,0571,30.3,120.11
Joint Venture,拱墅区,杭州市,33,310000,GMT+08:00 Asia/Beijing,,30.28,120.15
Joint Venture,下城区,杭州市,33,310000,GMT+08:00 Asia/Beijing,,30.33,120.18
Joint Venture,西湖区,杭州市,33,310000,GMT+08:00 Asia/Beijing,0571,30.3,120.11
Joint Venture,西湖区,杭州市,33,310000,GMT+08:00 Asia/Beijing,,30.29,120.12
Joint Venture,下城区,杭州市,33,310000,GMT+08:00 Asia/Beijing,,30.28,120.18
Joint Venture,浙江省杭州市,杭州市,33,310000,GMT+08:00 Asia/Beijing,,30.27,120.14
Joint Venture,浙江省杭州市滨江区,杭州市,33,310000,GMT+08:00 Asia/Beijing,,30.19,120.17
Joint Venture,西湖区,杭州市,33,310000,GMT+08:00 Asia/Beijing,,30.28,120.12
Joint Venture,江干区,杭州市,33,310000,GMT+08:00 Asia/Beijing,0571,30.26,120.2
Joint Venture,下城区,杭州市,33,310000,GMT+08:00 Asia/Beijing,0571,30.26,120.17
Joint Venture,杭州市下城区,杭州市,33,310000,GMT+08:00 Asia/Beijing,,30.26,120.16
Joint Venture,西湖区,杭州市,33,310000,GMT+08:00 Asia/Beijing,0571,30.26,120.16
Joint Venture,下城区,杭州市,33,310000,GMT+08:00 Asia/Beijing,,30.29,120.18
Joint Venture,下城区,杭州市,33,310000,GMT+08:00 Asia/Beijing,0571,30.28,120.16
Joint Venture,上城区,杭州市,33,310000,GMT+08:00 Asia/Beijing,0571,30.25,120.16
Joint Venture,杭州市余杭区,杭州市,33,311100,GMT+08:00 Asia/Beijing,,30.34,120.09
Joint Venture,浙江省杭州市,杭州市,33,310000,GMT+08:00 Asia/Beijing,,30.25,120.05
Joint Venture,西湖区,杭州市,33,310000,GMT+08:00 Asia/Beijing,,30.27,120.11
Joint Venture,萧山区,杭州市,33,311200,GMT+08:00 Asia/Beijing,,30.17,120.27
Joint Venture,萧山区,杭州市,33,311200,GMT+08:00 Asia/Beijing,0571,30.18,120.26
Joint Venture,上城区,杭州市,33,310000,GMT+08:00 Asia/Beijing,,30.21,120.18
Joint Venture,上城区,杭州市,33,310000,GMT+08:00 Asia/Beijing,0571,30.27,120.16
Joint Venture,萧山区,杭州市,33,311200,GMT+08:00 Asia/Beijing,0571,30.24,120.44
Joint Venture,浙江省杭州市,杭州市,33,311500,GMT+08:00 Asia/Beijing,,30.26,120.21
Joint Venture,浙江省杭州市,杭州市,33,312000,GMT+08:00 Asia/Beijing,,29.84,119.8
Joint Venture,浙江省杭州市,杭州市,33,310000,GMT+08:00 Asia/Beijing,,30.28,120.12
Joint Venture,浙江省杭州市,杭州市,33,310000,GMT+08:00 Asia/Beijing,,30.25,120.18
Joint Venture,杭州下城区东新路655号1层1-13单元,杭州市,33,310000,GMT+08:00 Asia/Beijing,,30.32,120.17
Joint Venture,富阳市,杭州市,33,311400,GMT+08:00 Asia/Beijing,0571,30.06,119.94
Joint Venture,迎春南路281号,杭州市,33,310000,GMT+08:00 Asia/Beijing,,29.79,119.69
Joint Venture,滨江区,杭州市,33,310000,GMT+08:00 Asia/Beijing,0571,30.19,120.15
Joint Venture,上城区,杭州市,33,310000,GMT+08:00 Asia/Beijing,,30.23,120.19
Joint Venture,浙江省杭州市,杭州市,33,310000,GMT+08:00 Asia/Beijing,,30.33,120.11
Joint Venture,西湖区,杭州市,33,310000,GMT+08:00 Asia/Beijing,,30.24,120.11
Joint Venture,浙江省杭州市西湖区,杭州市,33,310000,GMT+08:00 Asia/Beijing,,30.17,120.1
Joint Venture,上城区,杭州市,33,310000,GMT+08:00 Asia/Beijing,,30.24,120.17
Joint Venture,杭州市滨江区,杭州市,33,310000,GMT+08:00 Asia/Beijing,,30.19,120.17
Joint Venture,浙江省杭州市,杭州市,33,310000,GMT+08:00 Asia/Beijing,,30.23,120.06
Joint Venture,上城区,杭州市,33,310000,GMT+08:00 Asia/Beijing,0571,30.25,120.16
Joint Venture,富阳区,杭州市,33,311400,GMT+08:00 Asia/Beijing,,30.05,119.93
Joint Venture,上城区,杭州市,33,310000,GMT+08:00 Asia/Beijing,0571,30.24,120.16
Joint Venture,杭州市余杭区东湖南路59号,杭州市,33,310000,GMT+08:00 Asia/Beijing,,30.42,120.31
Joint Venture,滨江区,杭州市,33,310000,GMT+08:00 Asia/Beijing,,30.21,120.22
Joint Venture,下城区,杭州市,33,310000,GMT+08:00 Asia/Beijing,,30.27,120.17
Joint Venture,滨江区长河街道滨盛路1766号,杭州市,33,310000,GMT+08:00 Asia/Beijing,,30.21,120.21
Joint Venture,鹿溪南路365号,江山市,33,324100,GMT+08:00 Asia/Beijing,,28.73,118.63
Joint Venture,长安镇农发区,海宁市,33,310000,GMT+08:00 Asia/Beijing,0571,30.34,120.38
Joint Venture,长安镇兴福村北角兜38号,海宁市,33,314400,GMT+08:00 Asia/Beijing,,30.49,120.46
Joint Venture,长安镇兴福村北角兜38号,海宁市,33,314400,GMT+08:00 Asia/Beijing,,30.49,120.47
Joint Venture,太平街道万泉东路234号（新天地2-101，2-102，2-201）,温岭市,33,317500,GMT+08:00 Asia/Beijing,,28.37,121.39
Joint Venture,太平街道东城路20号,温岭市,33,317500,GMT+08:00 Asia/Beijing,,28.37,121.37
Joint Venture,温岭市,温岭市,33,317500,GMT+08:00 Asia/Beijing,,28.38,121.39
Joint Venture,中华路728号,温岭市,33,317500,GMT+08:00 Asia/Beijing,,28.39,121.36
Joint Venture,浙江省温州市,温州市,33,325000,GMT+08:00 Asia/Beijing,,28.04,120.64
Joint Venture,浙江省温州市,温州市,33,325000,GMT+08:00 Asia/Beijing,,27.96,120.6
Joint Venture,浙江省温州市,温州市,33,325000,GMT+08:00 Asia/Beijing,,27.95,120.69
Joint Venture,鹿城区,温州市,33,325000,GMT+08:00 Asia/Beijing,0577,28.0,120.68
Joint Venture,平阳县车站大道1188号一层1001室,温州市,33,325400,GMT+08:00 Asia/Beijing,,27.6,120.57
Joint Venture,鹿城区,温州市,33,325000,GMT+08:00 Asia/Beijing,0577,28.01,120.66
Joint Venture,瓯海区六虹桥路1189号,温州市,33,325000,GMT+08:00 Asia/Beijing,,27.98,120.63
Joint Venture,浙江省温州市,温州市,33,325000,GMT+08:00 Asia/Beijing,,27.95,120.69
Joint Venture,鹿城区,温州市,33,325000,GMT+08:00 Asia/Beijing,,28.01,120.66
Joint Venture,龙港镇广场路61-145号,温州市,33,325800,GMT+08:00 Asia/Beijing,,27.58,120.54
Joint Venture,鹿城区,温州市,33,325000,GMT+08:00 Asia/Beijing,0577,28.01,120.66
Joint Venture,龙湾区,温州市,33,325000,GMT+08:00 Asia/Beijing,0577,27.92,120.81
Joint Venture,浙江省温州市,温州市,33,325000,GMT+08:00 Asia/Beijing,,28.0,120.71
Joint Venture,瓯北镇双塔路2116号,温州市,33,325000,GMT+08:00 Asia/Beijing,,28.04,120.63
Joint Venture,浙江省温州市,温州市,33,325000,GMT+08:00 Asia/Beijing,,28.0,120.7
Joint Venture,平阳县鳌江镇车站大道88号,温州市,33,325400,GMT+08:00 Asia/Beijing,,27.62,120.56
Joint Venture,乐成镇,温州市,33,325600,GMT+08:00 Asia/Beijing,0577,28.11,120.97
Joint Venture,罗阳大道699号,温州市,33,325000,GMT+08:00 Asia/Beijing,0577,27.78,120.66
Joint Venture,浙江省温州市,温州市,33,325000,GMT+08:00 Asia/Beijing,,27.95,120.69
Joint Venture,苍南县灵溪镇玉苍路,温州市,33,325800,GMT+08:00 Asia/Beijing,,27.51,120.43
Joint Venture,吴兴区,湖州市,33,313000,GMT+08:00 Asia/Beijing,0572,30.87,120.1
Joint Venture,湖州,湖州市,33,313000,GMT+08:00 Asia/Beijing,0572,30.87,120.1
Joint Venture,吴兴区,湖州市,33,313000,GMT+08:00 Asia/Beijing,0572,30.87,120.1
Joint Venture,安吉县云鸿东路1号,湖州市,33,313300,GMT+08:00 Asia/Beijing,,30.62,119.69
Joint Venture,吴兴区,湖州市,33,313000,GMT+08:00 Asia/Beijing,,30.87,120.09
Joint Venture,吴兴区新华路658号,湖州市,33,313000,GMT+08:00 Asia/Beijing,,30.87,120.12
Joint Venture,长兴县海洋城2幢119号,湖州市,33,313100,GMT+08:00 Asia/Beijing,,31.04,119.9
Joint Venture,浙江省湖州市,湖州市,33,313000,GMT+08:00 Asia/Beijing,,30.86,120.09
Joint Venture,浙江省湖州市,湖州市,33,313000,GMT+08:00 Asia/Beijing,,30.86,120.41
Joint Venture,浙江省湖州市,湖州市,33,313000,GMT+08:00 Asia/Beijing,,30.86,120.14
Joint Venture,昌硕街道递铺中路19号1号楼,湖州市,33,3,GMT+08:00 Asia/Beijing,,30.64,119.69
Joint Venture,长兴县,湖州市,33,313100,GMT+08:00 Asia/Beijing,0572,31.0,119.91
Joint Venture,浙江省绍兴市,绍兴市,33,312000,GMT+08:00 Asia/Beijing,,30.1,120.64
Joint Venture,苎萝东路555号,绍兴市,33,311800,GMT+08:00 Asia/Beijing,,29.7,120.27
Joint Venture,柯桥,绍兴市,33,312000,GMT+08:00 Asia/Beijing,0575,30.08,120.49
Joint Venture,浙江省绍兴市,绍兴市,33,312000,GMT+08:00 Asia/Beijing,,30.0,120.58
Joint Venture,越城区,绍兴市,33,312000,GMT+08:00 Asia/Beijing,,30.0,120.6
Joint Venture,绍兴市柯桥区,绍兴市,33,312000,GMT+08:00 Asia/Beijing,,30.09,120.51
Joint Venture,绍兴县,绍兴市,33,312400,GMT+08:00 Asia/Beijing,0575,30.09,120.51
Joint Venture,浙江省绍兴市,绍兴市,33,312400,GMT+08:00 Asia/Beijing,,29.59,120.83
Joint Venture,柯桥区,绍兴市,33,312000,GMT+08:00 Asia/Beijing,0575,30.09,120.49
Joint Venture,浙江省绍兴市,绍兴市,33,312000,GMT+08:00 Asia/Beijing,,30.1,120.64
Joint Venture,解放北路199号,绍兴市,33,312300,GMT+08:00 Asia/Beijing,,30.01,120.58
Joint Venture,浙江省绍兴市,绍兴市,33,312300,GMT+08:00 Asia/Beijing,,30.05,120.85
Joint Venture,新昌县鼓山东路196号1层001商铺,绍兴市,33,312500,GMT+08:00 Asia/Beijing,,29.5,120.9
Joint Venture,上虞区,绍兴市,33,312300,GMT+08:00 Asia/Beijing,,30.03,120.88
Joint Venture,越城区,绍兴市,33,312000,GMT+08:00 Asia/Beijing,,29.98,120.58
Joint Venture,越城区,绍兴市,33,312000,GMT+08:00 Asia/Beijing,0575,30.0,120.6
Joint Venture,浙江省绍兴市,绍兴市,33,312000,GMT+08:00 Asia/Beijing,,30.0,120.59
Joint Venture,越城区鲁迅中路209号一层,绍兴市,33,312000,GMT+08:00 Asia/Beijing,,29.99,120.58
Joint Venture,定海区,舟山市,33,316000,GMT+08:00 Asia/Beijing,0580,29.99,122.21
Joint Venture,普陀区,舟山市,33,316100,GMT+08:00 Asia/Beijing,,29.95,122.37
Joint Venture,定海区,舟山市,33,316000,GMT+08:00 Asia/Beijing,,30.02,122.1
Joint Venture,浙江省舟山市,舟山市,33,316100,GMT+08:00 Asia/Beijing,,29.97,122.32
Joint Venture,普陀区,舟山市,33,316100,GMT+08:00 Asia/Beijing,0580,29.97,122.32
Joint Venture,萧山区,萧山市,33,311200,GMT+08:00 Asia/Beijing,,30.17,120.27
Joint Venture,浙江省衢州市,衢州市,33,324000,GMT+08:00 Asia/Beijing,,28.96,118.87
Joint Venture,柯城区,衢州市,33,324000,GMT+08:00 Asia/Beijing,,28.95,118.87
Joint Venture,衢江区,衢州市,33,324000,GMT+08:00 Asia/Beijing,,28.97,118.94
Joint Venture,诸暨市暨阳路7号,诸暨市,33,311800,GMT+08:00 Asia/Beijing,,29.72,120.24
Joint Venture,艮塔路28号,诸暨市,33,311800,GMT+08:00 Asia/Beijing,,29.72,120.24
Joint Venture,浙江省金华市,金华市,33,321000,GMT+08:00 Asia/Beijing,,29.16,120.32
Joint Venture,浙江省金华市,金华市,33,321000,GMT+08:00 Asia/Beijing,,29.25,119.88
Joint Venture,婺城区,金华市,33,321000,GMT+08:00 Asia/Beijing,,29.08,119.65
Joint Venture,东阳市吴宁街道南街51号,金华市,33,322100,GMT+08:00 Asia/Beijing,,29.26,120.23
Joint Venture,婺城区,金华市,33,321000,GMT+08:00 Asia/Beijing,,29.1,119.66
Joint Venture,城中中路168号,金华市,33,321000,GMT+08:00 Asia/Beijing,,29.3,120.07
Joint Venture,浙江省金华市,金华市,33,322000,GMT+08:00 Asia/Beijing,,29.24,119.89
Joint Venture,浙江省金华市,金华市,33,322300,GMT+08:00 Asia/Beijing,,29.31,120.09
Joint Venture,李渔东路366号,金华市,33,321000,GMT+08:00 Asia/Beijing,0579,29.09,119.68
Joint Venture,婺城区,金华市,33,321000,GMT+08:00 Asia/Beijing,0579,29.1,119.65
Joint Venture,浙江省金华市,金华市,33,322000,GMT+08:00 Asia/Beijing,,29.28,120.04
Company Owned,瑶海区,合肥市,34,230000,GMT+08:00 Asia/Beijing,00551,31.87,117.34
Company Owned,瑶海区,合肥市,34,230000,GMT+08:00 Asia/Beijing,,31.88,117.35
Company Owned,滨湖新区,合肥市,34,230000,GMT+08:00 Asia/Beijing,,31.74,117.3
Company Owned,包河区,合肥市,34,230000,GMT+08:00 Asia/Beijing,,31.74,117.29
Company Owned,庐阳区,合肥市,34,230000,GMT+08:00 Asia/Beijing,0551,31.86,117.29
Company Owned,包河区,合肥市,34,230000,GMT+08:00 Asia/Beijing,,31.86,117.3
Company Owned,瑶海区,合肥市,34,230000,GMT+08:00 Asia/Beijing,,31.88,117.32
Company Owned,政务区怀宁路与南二环(东北角东流路)交口,合肥市,34,230000,GMT+08:00 Asia/Beijing,0551,31.82,117.22
Company Owned,蜀山区,合肥市,34,230000,GMT+08:00 Asia/Beijing,0551,31.85,117.26
Company Owned,蜀山区,合肥市,34,230000,GMT+08:00 Asia/Beijing,,31.83,117.23
Company Owned,政务区,合肥市,34,230000,GMT+08:00 Asia/Beijing,,31.8,117.23
Company Owned,政务区,合肥市,34,230000,GMT+08:00 Asia/Beijing,0551,31.81,117.23
Company Owned,庐阳区,合肥市,34,230000,GMT+08:00 Asia/Beijing,0551,31.88,117.27
Company Owned,政务区,合肥市,34,230000,GMT+08:00 Asia/Beijing,,31.82,117.23
Company Owned,庐阳区,合肥市,34,230000,GMT+08:00 Asia/Beijing,0551,31.88,117.28
Company Owned,滨湖新区,合肥市,34,230000,GMT+08:00 Asia/Beijing,,31.7,117.3
Company Owned,黄山路与怀宁路交叉口,合肥市,34,230000,GMT+08:00 Asia/Beijing,0551,31.84,117.22
Company Owned,包河区,合肥市,34,230000,GMT+08:00 Asia/Beijing,0551,31.86,117.3
Company Owned,弋江区,芜湖市,34,241000,GMT+08:00 Asia/Beijing,,31.31,118.37
Company Owned,弋江区,芜湖市,34,241000,GMT+08:00 Asia/Beijing,,31.32,118.37
Company Owned,镜湖区,芜湖市,34,241000,GMT+08:00 Asia/Beijing,,31.33,118.37
Company Owned,镜湖区,芜湖市,34,241000,GMT+08:00 Asia/Beijing,,31.34,118.37
Company Owned,蚌山区,蚌埠市,34,233000,GMT+08:00 Asia/Beijing,,32.92,117.36
Company Owned,花山区,马鞍山,34,243000,GMT+08:00 Asia/Beijing,,31.68,118.51
Company Owned,花山区,马鞍山,34,243000,GMT+08:00 Asia/Beijing,,31.69,118.51
Company Owned,雨山区,马鞍山,34,243000,GMT+08:00 Asia/Beijing,,31.66,118.51
Company Owned,湖里区,厦门市,35,361000,GMT+08:00 Asia/Beijing,,24.53,118.13
Company Owned,海沧区,厦门市,35,361000,GMT+08:00 Asia/Beijing,0592,24.48,118.03
Company Owned,思明区,厦门市,35,361000,GMT+08:00 Asia/Beijing,0592,24.46,118.08
Company Owned,湖里区,厦门市,35,361000,GMT+08:00 Asia/Beijing,,24.53,118.19
Company Owned,思明区,厦门市,35,361000,GMT+08:00 Asia/Beijing,0592,24.45,118.08
Company Owned,思明区,厦门市,35,361000,GMT+08:00 Asia/Beijing,0592,24.5,118.13
Company Owned,同安区,厦门市,35,361100,GMT+08:00 Asia/Beijing,,24.69,118.14
Company Owned,湖里区,厦门市,35,361000,GMT+08:00 Asia/Beijing,0592,24.5,118.18
Company Owned,湖里区,厦门市,35,361000,GMT+08:00 Asia/Beijing,0592,24.52,118.16
Company Owned,嘉禾路399号SM新生活广场,厦门市,35,361000,GMT+08:00 Asia/Beijing,0592,24.5,118.13
Company Owned,思明区,厦门市,35,361000,GMT+08:00 Asia/Beijing,0592,24.47,118.11
Company Owned,思明区,厦门市,35,361000,GMT+08:00 Asia/Beijing,,24.47,118.19
Company Owned,思明区,厦门市,35,361000,GMT+08:00 Asia/Beijing,,24.43,118.09
Company Owned,思明区,厦门市,35,361000,GMT+08:00 Asia/Beijing,,24.47,118.09
Company Owned,海沧区,厦门市,35,361000,GMT+08:00 Asia/Beijing,,24.49,118.05
Company Owned,湖里区,厦门市,35,361000,GMT+08:00 Asia/Beijing,,24.49,118.16
Company Owned,思明区武汉大厦,厦门市,35,361000,GMT+08:00 Asia/Beijing,0592,24.49,118.12
Company Owned,莲岳路1号磐基中心,厦门市,35,361000,GMT+08:00 Asia/Beijing,0592,24.48,118.12
Company Owned,湖里区,厦门市,35,361000,GMT+08:00 Asia/Beijing,0592,24.48,118.19
Company Owned,思明区,厦门市,35,361000,GMT+08:00 Asia/Beijing,0592,24.45,118.08
Company Owned,集美区,厦门市,35,361000,GMT+08:00 Asia/Beijing,0592,24.57,118.09
Company Owned,翔安区,厦门市,35,361100,GMT+08:00 Asia/Beijing,,24.62,118.25
Company Owned,湖里区,厦门市,35,361000,GMT+08:00 Asia/Beijing,0592,24.51,118.16
Company Owned,集美区,厦门市,35,361000,GMT+08:00 Asia/Beijing,,24.57,118.06
Company Owned,思明区,厦门市,35,361000,GMT+08:00 Asia/Beijing,0592,24.48,118.16
Company Owned,思明区,厦门市,35,361000,GMT+08:00 Asia/Beijing,,24.49,118.11
Company Owned,思明区,厦门市,35,361000,GMT+08:00 Asia/Beijing,0592,24.47,118.12
Company Owned,同安区,厦门市,35,361100,GMT+08:00 Asia/Beijing,0592,24.73,118.15
Company Owned,湖滨北建业路马可波罗东方大酒店,厦门市,35,361000,GMT+08:00 Asia/Beijing,0592,24.47,118.09
Company Owned,鹭江道新领荟广场1层M101单元，,厦门市,35,361000,GMT+08:00 Asia/Beijing,0592,24.45,118.08
Company Owned,思明区,厦门市,35,361000,GMT+08:00 Asia/Beijing,0592,24.47,118.11
Company Owned,东侨经济开发区,宁德市,35,352000,GMT+08:00 Asia/Beijing,,26.66,119.55
Company Owned,蕉城区,宁德市,35,352100,GMT+08:00 Asia/Beijing,,26.65,119.54
Company Owned,九二路北侧塔前村段,泉州市,35,362000,GMT+08:00 Asia/Beijing,,24.74,118.62
Company Owned,晋江,泉州市,35,362000,GMT+08:00 Asia/Beijing,0595,24.8,118.57
Company Owned,鲤城区,泉州市,35,362000,GMT+08:00 Asia/Beijing,,24.92,118.59
Company Owned,石狮市,泉州市,35,362700,GMT+08:00 Asia/Beijing,,24.74,118.65
Company Owned,丰泽区,泉州市,35,362000,GMT+08:00 Asia/Beijing,,24.87,118.65
Company Owned,丰泽区,泉州市,35,362000,GMT+08:00 Asia/Beijing,0595,24.88,118.6
Company Owned,晋江市青阳街道阳光社区,泉州市,35,362200,GMT+08:00 Asia/Beijing,0595,24.81,118.59
Company Owned,晋江市福埔开发区,泉州市,35,362200,GMT+08:00 Asia/Beijing,0595,24.78,118.57
Company Owned,石狮市,泉州市,35,362700,GMT+08:00 Asia/Beijing,,24.73,118.65
Company Owned,丰泽区,泉州市,35,362000,GMT+08:00 Asia/Beijing,,24.88,118.6
Company Owned,晋江市世纪大道888号,泉州市,35,362200,GMT+08:00 Asia/Beijing,0595,24.82,118.57
Company Owned,丰泽区,泉州市,35,362000,GMT+08:00 Asia/Beijing,,24.92,118.66
Company Owned,丰泽区,泉州市,35,362000,GMT+08:00 Asia/Beijing,,24.89,118.6
Company Owned,芗城区,漳州市,35,363000,GMT+08:00 Asia/Beijing,,24.51,117.67
Company Owned,台江区,福州市,35,350000,GMT+08:00 Asia/Beijing,,26.06,119.3
Company Owned,台江区,福州市,35,350000,GMT+08:00 Asia/Beijing,0591,26.06,119.29
Company Owned,长乐市,福州市,35,350200,GMT+08:00 Asia/Beijing,0591,25.96,119.5
Company Owned,鼓楼区,福州市,35,350000,GMT+08:00 Asia/Beijing,0591,26.08,119.3
Company Owned,晋安区,福州市,35,350000,GMT+08:00 Asia/Beijing,0591,26.13,119.32
Company Owned,台江区,福州市,35,350000,GMT+08:00 Asia/Beijing,,26.05,119.32
Company Owned,晋安区,福州市,35,350000,GMT+08:00 Asia/Beijing,,26.09,119.34
Company Owned,台江区,福州市,35,350000,GMT+08:00 Asia/Beijing,,26.06,119.29
Company Owned,福州市,福州市,35,350000,GMT+08:00 Asia/Beijing,,25.93,119.67
Company Owned,鼓楼区,福州市,35,350000,GMT+08:00 Asia/Beijing,,26.08,119.31
Company Owned,福州市,福州市,35,350000,GMT+08:00 Asia/Beijing,,25.72,119.35
Company Owned,台江区,福州市,35,350000,GMT+08:00 Asia/Beijing,0591,26.05,119.34
Company Owned,闽侯县,福州市,35,350100,GMT+08:00 Asia/Beijing,,26.02,119.22
Company Owned,浦上大道,福州市,35,350000,GMT+08:00 Asia/Beijing,0591,26.04,119.28
Company Owned,仓山区,福州市,35,350000,GMT+08:00 Asia/Beijing,,26.04,119.28
Company Owned,鼓楼区,福州市,35,350000,GMT+08:00 Asia/Beijing,0591,26.09,119.31
Company Owned,晋安区,福州市,35,350000,GMT+08:00 Asia/Beijing,,26.09,119.34
Company Owned,马尾区,福州市,35,350000,GMT+08:00 Asia/Beijing,,25.99,119.47
Company Owned,闽侯县,福州市,35,350100,GMT+08:00 Asia/Beijing,,26.07,119.2
Company Owned,福州市,福州市,35,350000,GMT+08:00 Asia/Beijing,,26.07,119.33
Company Owned,台江区,福州市,35,350000,GMT+08:00 Asia/Beijing,0591,26.06,119.29
Company Owned,鼓楼区,福州市,35,350000,GMT+08:00 Asia/Beijing,0591,26.08,119.3
Company Owned,台江区,福州市,35,350000,GMT+08:00 Asia/Beijing,0591,26.05,119.31
Company Owned,城厢区,莆田市,35,351100,GMT+08:00 Asia/Beijing,0594,25.42,119.0
Company Owned,荔城区,莆田市,35,351100,GMT+08:00 Asia/Beijing,,25.42,119.03
Company Owned,荔城区,莆田市,35,351100,GMT+08:00 Asia/Beijing,,25.43,119.02
Company Owned,龙岩市新罗区,龙岩市,35,364000,GMT+08:00 Asia/Beijing,,25.06,117.02
Company Owned,龙岩市新罗区,龙岩市,35,364000,GMT+08:00 Asia/Beijing,,25.08,117.02
Company Owned,经济技术开发区,九江市,36,332000,GMT+08:00 Asia/Beijing,,29.69,115.98
Company Owned,经济技术开发区,九江市,36,332000,GMT+08:00 Asia/Beijing,,29.7,115.97
Company Owned,红谷滩新区,南昌市,36,330000,GMT+08:00 Asia/Beijing,,28.58,115.8
Company Owned,东湖区,南昌市,36,330000,GMT+08:00 Asia/Beijing,,28.69,115.9
Company Owned,象湖新城,南昌市,36,330000,GMT+08:00 Asia/Beijing,,28.58,115.89
Company Owned,红谷滩新区,南昌市,36,330000,GMT+08:00 Asia/Beijing,,28.68,115.85
Company Owned,红谷滩新区,南昌市,36,330000,GMT+08:00 Asia/Beijing,0791,28.69,115.87
Company Owned,红谷滩区,南昌市,36,330000,GMT+08:00 Asia/Beijing,0791,28.69,115.85
Company Owned,西湖区,南昌市,36,330000,GMT+08:00 Asia/Beijing,,28.68,115.89
Company Owned,红谷滩新区,南昌市,36,330000,GMT+08:00 Asia/Beijing,0791,28.69,115.86
Company Owned,青山湖区,南昌市,36,330000,GMT+08:00 Asia/Beijing,0791,28.67,115.94
Company Owned,东湖区,南昌市,36,330000,GMT+08:00 Asia/Beijing,0791,28.68,115.9
Company Owned,西湖区,南昌市,36,330000,GMT+08:00 Asia/Beijing,,28.67,115.91
Company Owned,东营区,东营市,37,257100,GMT+08:00 Asia/Beijing,,37.46,118.54
Company Owned,兰山区,临沂市,37,276000,GMT+08:00 Asia/Beijing,,35.07,118.33
Company Owned,兰山区,临沂市,37,276000,GMT+08:00 Asia/Beijing,,35.11,118.34
Company Owned,兰山区,临沂市,37,276000,GMT+08:00 Asia/Beijing,,35.06,118.33
Company Owned,环翠区,威海市,37,264200,GMT+08:00 Asia/Beijing,0631,37.5,122.12
Company Owned,环翠区,威海市,37,264200,GMT+08:00 Asia/Beijing,0631,37.5,122.13
Company Owned,威海市,威海市,37,264200,GMT+08:00 Asia/Beijing,,37.43,122.15
Company Owned,经济开发区,德州市,37,253000,GMT+08:00 Asia/Beijing,,37.43,116.37
Company Owned,德城区,德州市,37,253000,GMT+08:00 Asia/Beijing,,37.43,116.31
Company Owned,东港区,日照市,37,276800,GMT+08:00 Asia/Beijing,,35.42,119.53
Company Owned,泰山区,泰安市,37,271000,GMT+08:00 Asia/Beijing,,36.18,117.09
Company Owned,历下区,济南市,37,250000,GMT+08:00 Asia/Beijing,0531,36.65,117.01
Company Owned,市中区,济南市,37,250000,GMT+08:00 Asia/Beijing,,36.66,117.01
Company Owned,泺源大街66号,济南市,37,250000,GMT+08:00 Asia/Beijing,0531,36.66,117.03
Company Owned,市中区市中区经四路5号魏家庄万达广场一层,济南市,37,250000,GMT+08:00 Asia/Beijing,0531,36.66,117.0
Company Owned,历下区,济南市,37,250000,GMT+08:00 Asia/Beijing,,36.66,117.02
Company Owned,高新区,济南市,37,250000,GMT+08:00 Asia/Beijing,,36.68,117.12
Company Owned,高新区,济南市,37,250000,GMT+08:00 Asia/Beijing,0531,36.67,117.13
Company Owned,高新区,济南市,37,250000,GMT+08:00 Asia/Beijing,,36.68,117.13
Company Owned,高新区,济南市,37,250000,GMT+08:00 Asia/Beijing,,36.68,117.14
Company Owned,历下区,济南市,37,250000,GMT+08:00 Asia/Beijing,,36.65,117.08
Company Owned,历下区,济南市,37,250000,GMT+08:00 Asia/Beijing,0531,36.66,117.02
Company Owned,市中区,济南市,37,250000,GMT+08:00 Asia/Beijing,0531,36.66,117.0
Company Owned,历称区,济南市,37,250000,GMT+08:00 Asia/Beijing,0513,36.85,117.21
Company Owned,市中区,济南市,37,250000,GMT+08:00 Asia/Beijing,0531,36.61,116.98
Company Owned,历下区,济南市,37,250000,GMT+08:00 Asia/Beijing,0531,36.67,117.03
Company Owned,槐荫区,济南市,37,250000,GMT+08:00 Asia/Beijing,0531,36.65,116.98
Company Owned,市中区,济宁市,37,272000,GMT+08:00 Asia/Beijing,,35.41,116.59
Company Owned,市中区,济宁市,37,272000,GMT+08:00 Asia/Beijing,0537,35.41,116.6
Company Owned,任城区,济宁市,37,272000,GMT+08:00 Asia/Beijing,,35.43,116.6
Company Owned,张店区,淄博市,37,255000,GMT+08:00 Asia/Beijing,,36.8,118.06
Company Owned,张店区,淄博市,37,255000,GMT+08:00 Asia/Beijing,0533,36.8,118.06
Company Owned,高新区,淄博市,37,255000,GMT+08:00 Asia/Beijing,,36.85,118.04
Company Owned,张店区,淄博市,37,255000,GMT+08:00 Asia/Beijing,0533,36.84,118.03
Company Owned,张店区,淄博市,37,255000,GMT+08:00 Asia/Beijing,0533,36.81,118.05
Company Owned,奎文区,潍坊市,37,261000,GMT+08:00 Asia/Beijing,0536,36.7,119.16
Company Owned,奎文区,潍坊市,37,261000,GMT+08:00 Asia/Beijing,,36.72,119.13
Company Owned,东风东街泰华假日广场一层,潍坊市,37,26100,GMT+08:00 Asia/Beijing,0536,36.71,119.11
Company Owned,高新技术开发区,潍坊市,37,261000,GMT+08:00 Asia/Beijing,0536,36.72,119.17
Company Owned,莱山区,烟台市,37,264000,GMT+08:00 Asia/Beijing,,37.48,121.45
Company Owned,经济技术开发区,烟台市,37,246000,GMT+08:00 Asia/Beijing,0535,37.55,121.25
Company Owned,芝罘区,烟台市,37,264000,GMT+08:00 Asia/Beijing,,37.54,121.39
Company Owned,芝罘区,烟台市,37,264000,GMT+08:00 Asia/Beijing,0535,37.54,121.38
Company Owned,芝罘区,烟台市,37,264000,GMT+08:00 Asia/Beijing,0535,37.54,121.38
Company Owned,莱山区,烟台市,37,264000,GMT+08:00 Asia/Beijing,0535,37.47,121.45
Company Owned,芝罘区,烟台市,37,264000,GMT+08:00 Asia/Beijing,,37.55,121.39
Company Owned,莱山区,烟台市,37,264000,GMT+08:00 Asia/Beijing,,37.45,121.43
Company Owned,市南区,青岛市,37,266000,GMT+08:00 Asia/Beijing,,36.06,120.38
Company Owned,市南区,青岛市,37,266000,GMT+08:00 Asia/Beijing,0532,36.07,120.4
Company Owned,市北区,青岛市,37,266000,GMT+08:00 Asia/Beijing,,36.11,120.41
Company Owned,市北区,青岛市,37,266000,GMT+08:00 Asia/Beijing,,36.11,120.39
Company Owned,崂山区,青岛市,37,266100,GMT+08:00 Asia/Beijing,,36.1,120.46
Company Owned,城阳区,青岛市,37,266100,GMT+08:00 Asia/Beijing,0532,36.3,120.42
Company Owned,城阳区,青岛市,37,266100,GMT+08:00 Asia/Beijing,,36.27,120.39
Company Owned,市南区,青岛市,37,266000,GMT+08:00 Asia/Beijing,0532,36.06,120.39
Company Owned,香港中路10号颐和国际一层102,青岛市,37,266000,GMT+08:00 Asia/Beijing,0532,36.07,120.38
Company Owned,市北区,青岛市,37,266000,GMT+08:00 Asia/Beijing,0532,36.09,120.38
Company Owned,崂山区,青岛市,37,266100,GMT+08:00 Asia/Beijing,,36.09,120.46
Company Owned,市南区,青岛市,37,266000,GMT+08:00 Asia/Beijing,,36.07,120.38
Company Owned,李沧区,青岛市,37,266100,GMT+08:00 Asia/Beijing,0532,36.17,120.43
Company Owned,香港中路38号,青岛市,37,266000,GMT+08:00 Asia/Beijing,0532,36.07,120.39
Company Owned,香港中路72号,青岛市,37,266000,GMT+08:00 Asia/Beijing,0532,36.06,120.4
Company Owned,市南区,青岛市,37,266000,GMT+08:00 Asia/Beijing,0532,36.07,120.39
Company Owned,黄岛经济技术开发区,青岛市,37,266500,GMT+08:00 Asia/Beijing,0532,35.96,120.19
Company Owned,燕尔岛路1号,青岛市,37,266000,GMT+08:00 Asia/Beijing,0532,36.05,120.39
Company Owned,黄岛经济开发区,青岛市,37,266000,GMT+08:00 Asia/Beijing,0532,35.95,120.19
Company Owned,崂山区,青岛市,37,266100,GMT+08:00 Asia/Beijing,0532,36.11,120.45
Company Owned,澳门路117号,青岛市,37,266000,GMT+08:00 Asia/Beijing,0532,36.06,120.4
Company Owned,李沧区,青岛市,37,266100,GMT+08:00 Asia/Beijing,0532,36.17,120.43
Company Owned,胶州市,青岛市,37,266300,GMT+08:00 Asia/Beijing,,36.28,120.01
Company Owned,市南区,青岛市,37,266000,GMT+08:00 Asia/Beijing,,36.07,120.38
Company Owned,李沧区,青岛市,37,266100,GMT+08:00 Asia/Beijing,0532,36.16,120.43
Company Owned,城阳区,青岛市,37,266100,GMT+08:00 Asia/Beijing,0532,36.3,120.4
Company Owned,市北区,青岛市,37,266000,GMT+08:00 Asia/Beijing,,36.11,120.39
Company Owned,崂山区,青岛市,37,266100,GMT+08:00 Asia/Beijing,0532,36.1,120.47
Company Owned,洛龙区,洛阳,41,471000,GMT+08:00 Asia/Beijing,,34.61,112.45
Company Owned,西工区,洛阳,41,471000,GMT+08:00 Asia/Beijing,,34.67,112.43
Company Owned,涧西区,洛阳,41,471000,GMT+08:00 Asia/Beijing,0379,34.64,112.41
Company Owned,郑州市,郑州市,41,450000,GMT+08:00 Asia/Beijing,,34.76,113.67
Company Owned,金水区,郑州市,41,450000,GMT+08:00 Asia/Beijing,0371,34.76,113.71
Company Owned,中原区,郑州市,41,450000,GMT+08:00 Asia/Beijing,0371,34.76,113.61
Company Owned,金水区,郑州市,41,450000,GMT+08:00 Asia/Beijing,,34.81,113.67
Company Owned,二七区,郑州市,41,450000,GMT+08:00 Asia/Beijing,0371,34.72,113.64
Company Owned,郑东新区,郑州市,41,450000,GMT+08:00 Asia/Beijing,,34.77,113.73
Company Owned,金水区,郑州市,41,450000,GMT+08:00 Asia/Beijing,,34.77,113.68
Company Owned,二七区,郑州市,41,450000,GMT+08:00 Asia/Beijing,0371,34.75,113.67
Company Owned,管城区,郑州市,41,450000,GMT+08:00 Asia/Beijing,0371,34.75,113.67
Company Owned,中原西路南秦岭路西万达广场1楼,郑州市,41,450000,GMT+08:00 Asia/Beijing,0371,34.75,113.6
Company Owned,二七区,郑州市,41,450000,GMT+08:00 Asia/Beijing,,34.76,113.66
Company Owned,郑东新区,郑州市,41,450000,GMT+08:00 Asia/Beijing,,34.77,113.72
Company Owned,郑东新区,郑州市,41,450000,GMT+08:00 Asia/Beijing,,34.75,113.77
Company Owned,管城回族区,郑州市,41,450000,GMT+08:00 Asia/Beijing,0371,34.75,113.68
Company Owned,惠济区,郑州市,41,450000,GMT+08:00 Asia/Beijing,,34.87,113.64
Company Owned,郑东新区,郑州市,41,450000,GMT+08:00 Asia/Beijing,,34.78,113.72
Company Owned,花园路39号,郑州市,41,450000,GMT+08:00 Asia/Beijing,0371,34.79,113.68
Company Owned,二七区,郑州市,41,450000,GMT+08:00 Asia/Beijing,,34.76,113.67
Company Owned,张湾区,十堰市,42,442000,GMT+08:00 Asia/Beijing,,32.66,110.81
Company Owned,西陵区,宜昌市,42,443000,GMT+08:00 Asia/Beijing,,30.71,111.29
Company Owned,伍家岗区,宜昌市,42,443000,GMT+08:00 Asia/Beijing,,30.68,111.31
Company Owned,开发区,宜昌市,42,443000,GMT+08:00 Asia/Beijing,,30.71,111.32
Company Owned,西陵区,宜昌市,42,443000,GMT+08:00 Asia/Beijing,,30.7,111.3
Company Owned,武昌区,武汉市,42,430000,GMT+08:00 Asia/Beijing,027,30.53,114.3
Company Owned,沌口经济开发区,武汉市,42,430000,GMT+08:00 Asia/Beijing,027,30.51,114.16
Company Owned,武汉大学大门口,武汉市,42,430000,GMT+08:00 Asia/Beijing,027,30.53,114.36
Company Owned,硚口区,武汉市,42,430000,GMT+08:00 Asia/Beijing,027,30.57,114.27
Company Owned,武昌区,武汉市,42,430000,GMT+08:00 Asia/Beijing,,30.54,114.34
Company Owned,黄陂区,武汉市,42,430300,GMT+08:00 Asia/Beijing,,30.73,114.26
Company Owned,江汉区,武汉市,42,430000,GMT+08:00 Asia/Beijing,027,30.58,114.29
Company Owned,东湖新技术开发区,武汉市,42,430000,GMT+08:00 Asia/Beijing,027,30.48,114.41
Company Owned,江岸区,武汉市,42,430000,GMT+08:00 Asia/Beijing,,30.61,114.31
Company Owned,硚口区,武汉市,42,430000,GMT+08:00 Asia/Beijing,,30.58,114.22
Company Owned,东西湖区,武汉市,42,430000,GMT+08:00 Asia/Beijing,,30.65,114.24
Company Owned,经济技术开发区,武汉市,42,430000,GMT+08:00 Asia/Beijing,,30.51,114.21
Company Owned,青山区,武汉市,42,430000,GMT+08:00 Asia/Beijing,,30.62,114.36
Company Owned,江汉区,武汉市,42,430000,GMT+08:00 Asia/Beijing,027,30.58,114.29
Company Owned,东湖开发区,武汉市,42,430000,GMT+08:00 Asia/Beijing,027,30.51,114.4
Company Owned,洪山区,武汉市,42,430000,GMT+08:00 Asia/Beijing,027,30.51,114.4
Company Owned,武昌区,武汉市,42,430000,GMT+08:00 Asia/Beijing,,30.55,114.32
Company Owned,江汉区,武汉市,42,430000,GMT+08:00 Asia/Beijing,,30.6,114.27
Company Owned,武昌区,武汉市,42,430000,GMT+08:00 Asia/Beijing,,30.52,114.33
Company Owned,江汉区,武汉市,42,430000,GMT+08:00 Asia/Beijing,027,30.6,114.27
Company Owned,武昌区,武汉市,42,430000,GMT+08:00 Asia/Beijing,027,30.62,114.36
Company Owned,江汉区,武汉市,42,430000,GMT+08:00 Asia/Beijing,,30.62,114.26
Company Owned,洪山区,武汉市,42,430000,GMT+08:00 Asia/Beijing,,30.61,114.43
Company Owned,武昌区,武汉市,42,430000,GMT+08:00 Asia/Beijing,027,30.56,114.34
Company Owned,武昌区,武汉市,42,430000,GMT+08:00 Asia/Beijing,027,30.57,114.36
Company Owned,江汉区,武汉市,42,430000,GMT+08:00 Asia/Beijing,027,30.58,114.29
Company Owned,东湖中央商务区,武汉市,42,430000,GMT+08:00 Asia/Beijing,027,30.55,114.35
Company Owned,武昌区,武汉市,42,430000,GMT+08:00 Asia/Beijing,,30.58,114.35
Company Owned,汉阳区,武汉市,42,430000,GMT+08:00 Asia/Beijing,,30.56,114.21
Company Owned,江岸区,武汉市,42,430000,GMT+08:00 Asia/Beijing,027,30.6,114.3
Company Owned,武昌区,武汉市,42,430000,GMT+08:00 Asia/Beijing,,30.55,114.34
Company Owned,硚口区,武汉市,42,430000,GMT+08:00 Asia/Beijing,,30.57,114.27
Company Owned,武昌区,武汉市,42,430000,GMT+08:00 Asia/Beijing,,30.57,114.32
Company Owned,武昌区,武汉市,42,430000,GMT+08:00 Asia/Beijing,,30.55,114.34
Company Owned,武昌区,武汉市,42,430000,GMT+08:00 Asia/Beijing,027,30.54,114.3
Company Owned,洪山区,武汉市,42,430000,GMT+08:00 Asia/Beijing,,30.58,114.36
Company Owned,徐东大街18号,武汉市,42,430000,GMT+08:00 Asia/Beijing,027,30.59,114.34
Company Owned,武昌区,武汉市,42,430000,GMT+08:00 Asia/Beijing,027,30.56,114.34
Company Owned,硚口区,武汉市,42,430000,GMT+08:00 Asia/Beijing,,30.62,114.17
Company Owned,武昌区,武汉市,42,430000,GMT+08:00 Asia/Beijing,,30.53,114.33
Company Owned,洪山区,武汉市,42,430000,GMT+08:00 Asia/Beijing,027,30.54,114.33
Company Owned,江汉区,武汉市,42,430000,GMT+08:00 Asia/Beijing,027,30.61,114.26
Company Owned,新华西路与新华下路交汇处,武汉市,42,430000,GMT+08:00 Asia/Beijing,027,30.61,114.27
Company Owned,江汉区,武汉市,42,430000,GMT+08:00 Asia/Beijing,,30.59,114.27
Company Owned,洪山区,武汉市,42,430000,GMT+08:00 Asia/Beijing,18971239097,30.5,114.39
Company Owned,江汉区,武汉市,42,430000,GMT+08:00 Asia/Beijing,,30.6,114.26
Company Owned,江汉区,武汉市,42,430000,GMT+08:00 Asia/Beijing,027,30.58,114.29
Company Owned,汉阳区,武汉市,42,430000,GMT+08:00 Asia/Beijing,027,30.56,114.21
Company Owned,江汉区,武汉市,42,430000,GMT+08:00 Asia/Beijing,027,30.58,114.29
Company Owned,武昌区,武汉市,42,430000,GMT+08:00 Asia/Beijing,027,30.59,114.35
Company Owned,汉阳区,武汉市,42,430000,GMT+08:00 Asia/Beijing,,30.55,114.21
Company Owned,东湖新技术开发区,武汉市,42,430000,GMT+08:00 Asia/Beijing,027,30.49,114.41
Company Owned,武昌区,武汉市,42,430000,GMT+08:00 Asia/Beijing,027,30.5,114.41
Company Owned,江汉区,武汉市,42,430000,GMT+08:00 Asia/Beijing,027,30.59,114.29
Company Owned,洪山区,武汉市,42,430000,GMT+08:00 Asia/Beijing,027,30.53,114.36
Company Owned,江岸区,武汉市,42,430000,GMT+08:00 Asia/Beijing,,30.65,114.31
Company Owned,东湖开发区,武汉市,42,430000,GMT+08:00 Asia/Beijing,027,30.5,114.4
Company Owned,江岸区,武汉市,42,430000,GMT+08:00 Asia/Beijing,,30.61,114.31
Company Owned,武昌区,武汉市,42,430000,GMT+08:00 Asia/Beijing,027,30.57,114.31
Company Owned,汉口解放大道634号,武汉市,42,430000,GMT+08:00 Asia/Beijing,027,30.58,114.27
Company Owned,东湖新技术开发区,武汉市,42,430000,GMT+08:00 Asia/Beijing,027,30.5,114.41
Company Owned,沌口开发区,武汉市,42,430000,GMT+08:00 Asia/Beijing,027,30.51,114.17
Company Owned,洪山区,武汉市,42,430000,GMT+08:00 Asia/Beijing,,30.53,114.35
Company Owned,东湖新技术开发区,武汉市,42,430000,GMT+08:00 Asia/Beijing,,30.48,114.39
Company Owned,江汉区,武汉市,42,430000,GMT+08:00 Asia/Beijing,,30.58,114.27
Company Owned,江岸区,武汉市,42,430000,GMT+08:00 Asia/Beijing,,30.66,114.32
Company Owned,武昌区,武汉市,42,430000,GMT+08:00 Asia/Beijing,027,30.51,114.33
Company Owned,樊城区,襄樊市,42,441000,GMT+08:00 Asia/Beijing,,32.04,112.15
Company Owned,高新区,襄阳市,42,441000,GMT+08:00 Asia/Beijing,,32.06,112.13
Company Owned,樊城区,襄阳市,42,441000,GMT+08:00 Asia/Beijing,,32.04,112.14
Company Owned,黄石港区,黄石市,42,435000,GMT+08:00 Asia/Beijing,,30.24,115.06
Company Owned,岳阳楼区,岳阳市,43,414000,GMT+08:00 Asia/Beijing,,29.36,113.14
Company Owned,岳阳楼区,岳阳市,43,414000,GMT+08:00 Asia/Beijing,,29.37,113.11
Company Owned,天元区,株洲市,43,412000,GMT+08:00 Asia/Beijing,0731,27.83,113.13
Company Owned,芦淞区,株洲市,43,412000,GMT+08:00 Asia/Beijing,0731,27.83,113.15
Company Owned,岳塘区,湘潭市,43,411100,GMT+08:00 Asia/Beijing,0731,27.83,112.92
Company Owned,岳塘区,湘潭市,43,411100,GMT+08:00 Asia/Beijing,,27.83,112.94
Company Owned,蒸湘区,衡阳市,43,421000,GMT+08:00 Asia/Beijing,,26.9,112.6
Company Owned,蒸湘区,衡阳市,43,421000,GMT+08:00 Asia/Beijing,,26.89,112.56
Company Owned,雁峰区,衡阳市,43,421000,GMT+08:00 Asia/Beijing,,26.89,112.6
Company Owned,雨花区,长沙市,43,410000,GMT+08:00 Asia/Beijing,0731,28.17,112.99
Company Owned,雨花区,长沙市,43,410000,GMT+08:00 Asia/Beijing,,28.17,113.04
Company Owned,岳麓区,长沙市,43,410200,GMT+08:00 Asia/Beijing,0731,28.2,112.95
Company Owned,黄兴南路步行街,长沙市,43,410000,GMT+08:00 Asia/Beijing,0731,28.19,112.98
Company Owned,芙蓉区,长沙市,43,410000,GMT+08:00 Asia/Beijing,0731,28.2,113.01
Company Owned,芙蓉区,长沙市,43,410000,GMT+08:00 Asia/Beijing,0731,28.19,112.98
Company Owned,岳麓区,长沙市,43,410200,GMT+08:00 Asia/Beijing,0731,28.16,112.93
Company Owned,岳麓区,长沙市,43,410200,GMT+08:00 Asia/Beijing,0731,28.22,112.94
Company Owned,芙蓉区,长沙市,43,410000,GMT+08:00 Asia/Beijing,0731,28.2,112.98
Company Owned,韶山中路421号,长沙市,43,410000,GMT+08:00 Asia/Beijing,0731,28.15,113.0
Company Owned,岳麓区,长沙市,43,410200,GMT+08:00 Asia/Beijing,0731,28.22,112.95
Company Owned,经济技术开发区,长沙市,43,410000,GMT+08:00 Asia/Beijing,,28.25,113.09
Company Owned,雨花区,长沙市,43,410000,GMT+08:00 Asia/Beijing,0731,28.14,113.04
Company Owned,天心区,长沙市,43,410000,GMT+08:00 Asia/Beijing,0731,28.14,112.99
Company Owned,雨花区,长沙市,43,410000,GMT+08:00 Asia/Beijing,,28.11,113.01
Company Owned,开福区,长沙市,43,410000,GMT+08:00 Asia/Beijing,0731,28.2,112.97
Company Owned,天心区,长沙市,43,410000,GMT+08:00 Asia/Beijing,0731,28.19,112.97
Company Owned,开福区,长沙市,43,410000,GMT+08:00 Asia/Beijing,0731,28.2,112.97
Company Owned,雨花区,长沙市,43,410000,GMT+08:00 Asia/Beijing,,28.17,112.99
Company Owned,岳麓区,长沙市,43,410200,GMT+08:00 Asia/Beijing,,28.22,112.93
Company Owned,天心区,长沙市,43,410000,GMT+08:00 Asia/Beijing,0731,28.19,112.97
Company Owned,雨花区,长沙市,43,410000,GMT+08:00 Asia/Beijing,0731,28.18,113.03
Company Owned,岳麓区,长沙市,43,410200,GMT+08:00 Asia/Beijing,0731,28.2,112.86
Company Owned,开福区,长沙市,43,410000,GMT+08:00 Asia/Beijing,,28.22,112.99
Company Owned,长沙县,长沙市,43,410100,GMT+08:00 Asia/Beijing,,28.19,113.22
Company Owned,天心区,长沙市,43,410000,GMT+08:00 Asia/Beijing,0731,28.19,112.98
Company Owned,松山湖高新技术产业开发区,东莞市,44,523000,GMT+08:00 Asia/Beijing,0769,22.93,113.89
Company Owned,虎门镇虎门大道121号豪门饭店一、二层,东莞市,44,523000,GMT+08:00 Asia/Beijing,0769,22.82,113.68
Company Owned,东莞市,东莞市,44,523000,GMT+08:00 Asia/Beijing,,22.83,113.68
Company Owned,东城区,东莞市,44,523000,GMT+08:00 Asia/Beijing,,23.04,113.78
Company Owned,常平镇,东莞市,44,523000,GMT+08:00 Asia/Beijing,,22.97,114.0
Company Owned,虎门镇金洲社区,东莞市,44,523000,GMT+08:00 Asia/Beijing,0769,22.81,113.69
Company Owned,莞城区,东莞市,44,523000,GMT+08:00 Asia/Beijing,,23.02,113.76
Company Owned,东城区,东莞市,44,523000,GMT+08:00 Asia/Beijing,,23.03,113.78
Company Owned,塘厦镇,东莞市,44,523000,GMT+08:00 Asia/Beijing,,22.81,114.08
Company Owned,南城区,东莞市,44,523000,GMT+08:00 Asia/Beijing,0769,23.02,113.74
Company Owned,长安镇,东莞市,44,523000,GMT+08:00 Asia/Beijing,,22.8,113.8
Company Owned,中心广场东莞名牌商业街A28、A29号商铺,东莞市,44,523000,GMT+08:00 Asia/Beijing,0769,23.02,113.76
Company Owned,厚街镇,东莞市,44,523000,GMT+08:00 Asia/Beijing,,22.94,113.67
Company Owned,南城区,东莞市,44,523000,GMT+08:00 Asia/Beijing,,23.0,113.74
Company Owned,南城区,东莞市,44,523000,GMT+08:00 Asia/Beijing,,23.01,113.76
Company Owned,凤岗镇官井头村龙平南路一号,东莞市,44,523000,GMT+08:00 Asia/Beijing,,22.72,114.21
Company Owned,松山湖万科松湖中心,东莞市,44,523000,GMT+08:00 Asia/Beijing,,22.93,113.89
Company Owned,樟木头镇,东莞市,44,523000,GMT+08:00 Asia/Beijing,0769,22.91,114.06
Company Owned,万江区,东莞市,44,523000,GMT+08:00 Asia/Beijing,,23.04,113.73
Company Owned,长安镇,东莞市,44,523000,GMT+08:00 Asia/Beijing,0769,22.81,113.82
Company Owned,厚街镇,东莞市,44,523000,GMT+08:00 Asia/Beijing,0769,22.94,113.66
Company Owned,南城区,东莞市,44,523000,GMT+08:00 Asia/Beijing,0769,23.01,113.76
Company Owned,莞城区,东莞市,44,523000,GMT+08:00 Asia/Beijing,,23.04,113.77
Company Owned,厚街镇康乐南路112号康华城首、二楼,东莞市,44,523900,GMT+08:00 Asia/Beijing,0769,22.93,113.66
Company Owned,常平镇常平大道星汇中心首层,东莞市,44,523000,GMT+08:00 Asia/Beijing,0769,22.97,114.0
Company Owned,东城区,东莞市,44,523000,GMT+08:00 Asia/Beijing,0769,23.03,113.77
Company Owned,塘厦镇大坪林坪路,东莞市,44,523000,GMT+08:00 Asia/Beijing,0769,22.78,114.01
Company Owned,南城区,东莞市,44,523000,GMT+08:00 Asia/Beijing,,23.0,113.75
Company Owned,大朗镇,东莞市,44,523000,GMT+08:00 Asia/Beijing,,22.93,113.93
Company Owned,黄江镇,东莞市,44,523000,GMT+08:00 Asia/Beijing,,22.91,114.01
Company Owned,东城区,东莞市,44,523000,GMT+08:00 Asia/Beijing,0769,23.02,113.79
Company Owned,东区,中山市,44,528400,GMT+08:00 Asia/Beijing,0760,22.51,113.4
Company Owned,石岐区,中山市,44,528400,GMT+08:00 Asia/Beijing,0760,22.52,113.37
Company Owned,孙文东路78号假日广场首层,中山市,44,528400,GMT+08:00 Asia/Beijing,0760,22.52,113.39
Company Owned,石岐区,中山市,44,528400,GMT+08:00 Asia/Beijing,,22.53,113.38
Company Owned,小榄镇北区,中山市,44,528400,GMT+08:00 Asia/Beijing,,22.69,113.23
Company Owned,石岐中山三路益华百货一层3号商铺,中山市,44,528400,GMT+08:00 Asia/Beijing,0760,22.51,113.38
Company Owned,小榄镇,中山市,44,528400,GMT+08:00 Asia/Beijing,0760,22.67,113.25
Company Owned,西区,中山市,44,528400,GMT+08:00 Asia/Beijing,0760,22.52,113.37
Company Owned,石岐区,中山市,44,528400,GMT+08:00 Asia/Beijing,,22.5,113.42
Company Owned,东区,中山市,44,528400,GMT+08:00 Asia/Beijing,0760,22.51,113.38
Company Owned,古镇,中山市,44,528400,GMT+08:00 Asia/Beijing,,22.61,113.19
Company Owned,广州至珠海高速公路（西线）顺德碧江,佛山市,44,528300,GMT+08:00 Asia/Beijing,,22.92,113.27
Company Owned,南海区,佛山市,44,528200,GMT+08:00 Asia/Beijing,,23.04,113.16
Company Owned,南海区,佛山市,44,528200,GMT+08:00 Asia/Beijing,,23.12,113.01
Company Owned,南海区,佛山市,44,528200,GMT+08:00 Asia/Beijing,0757,23.03,113.14
Company Owned,顺德,佛山市,44,528000,GMT+08:00 Asia/Beijing,,22.79,113.29
Company Owned,禅城区,佛山市,44,528000,GMT+08:00 Asia/Beijing,,23.04,113.12
Company Owned,顺德区,佛山市,44,528300,GMT+08:00 Asia/Beijing,0757,22.83,113.27
Company Owned,南海区,佛山市,44,528200,GMT+08:00 Asia/Beijing,,22.94,112.99
Company Owned,禅城区,佛山市,44,528000,GMT+08:00 Asia/Beijing,0757,23.01,113.11
Company Owned,南海区,佛山市,44,528200,GMT+08:00 Asia/Beijing,,23.03,113.14
Company Owned,南海区,佛山市,44,528200,GMT+08:00 Asia/Beijing,,23.17,113.21
Company Owned,禅城区,佛山市,44,528000,GMT+08:00 Asia/Beijing,,23.01,113.11
Company Owned,三水区,佛山市,44,528100,GMT+08:00 Asia/Beijing,0757,23.17,112.89
Company Owned,顺德区,佛山市,44,528300,GMT+08:00 Asia/Beijing,,22.95,113.24
Company Owned,顺德区乐从镇,佛山市,44,528300,GMT+08:00 Asia/Beijing,,22.95,113.11
Company Owned,南海区,佛山市,44,528200,GMT+08:00 Asia/Beijing,,23.05,113.16
Company Owned,三水区,佛山市,44,528100,GMT+08:00 Asia/Beijing,,23.18,112.9
Company Owned,顺德区,佛山市,44,528300,GMT+08:00 Asia/Beijing,0757,22.83,113.27
Company Owned,顺德区大良街,佛山市,44,528300,GMT+08:00 Asia/Beijing,0757,22.84,113.26
Company Owned,禅城区,佛山市,44,528000,GMT+08:00 Asia/Beijing,,22.97,113.02
Company Owned,顺德区,佛山市,44,528300,GMT+08:00 Asia/Beijing,,22.87,113.08
Company Owned,三水区,佛山市,44,528100,GMT+08:00 Asia/Beijing,0757,23.16,112.89
Company Owned,禅城区,佛山市,44,528000,GMT+08:00 Asia/Beijing,0757,23.03,113.11
Company Owned,禅城区,佛山市,44,528000,GMT+08:00 Asia/Beijing,,23.03,113.11
Company Owned,顺德区,佛山市,44,528300,GMT+08:00 Asia/Beijing,,22.92,113.27
Company Owned,南海区,佛山市,44,528200,GMT+08:00 Asia/Beijing,,23.06,113.16
Company Owned,禅城区,佛山市,44,528000,GMT+08:00 Asia/Beijing,0757,23.03,113.12
Company Owned,禅城区,佛山市,44,528000,GMT+08:00 Asia/Beijing,0757,23.01,113.1
Company Owned,禅城区,佛山市,44,528000,GMT+08:00 Asia/Beijing,,23.03,113.11
Company Owned,顺德区,佛山市,44,528300,GMT+08:00 Asia/Beijing,0757,22.76,113.27
Company Owned,南海,佛山市,44,528000,GMT+08:00 Asia/Beijing,0757,23.03,113.16
Company Owned,南海区,佛山市,44,528200,GMT+08:00 Asia/Beijing,,23.01,113.23
Company Owned,南海区,佛山市,44,528200,GMT+08:00 Asia/Beijing,0757,23.06,113.15
Company Owned,广州市越秀区,广州市,44,510000,GMT+08:00 Asia/Beijing,020,23.14,113.28
Company Owned,珠江新城华利路46-52号,广州市,44,510600,GMT+08:00 Asia/Beijing,020,23.12,113.32
Company Owned,天河区,广州市,44,510600,GMT+08:00 Asia/Beijing,,23.12,113.34
Company Owned,荔湾区,广州市,44,510100,GMT+08:00 Asia/Beijing,,23.1,113.24
Company Owned,天河区,广州市,44,510600,GMT+08:00 Asia/Beijing,020,23.13,113.32
Company Owned,黄埔大道西666号首层102单元102，,广州市,44,510600,GMT+08:00 Asia/Beijing,020,23.13,113.35
Company Owned,越秀区,广州市,44,510000,GMT+08:00 Asia/Beijing,,23.14,113.29
Company Owned,白云区,广州市,44,510400,GMT+08:00 Asia/Beijing,,23.18,113.27
Company Owned,番禺区,广州市,44,511400,GMT+08:00 Asia/Beijing,,23.03,113.33
Company Owned,海珠区,广州市,44,510200,GMT+08:00 Asia/Beijing,020,23.1,113.32
Company Owned,天河区,广州市,44,510600,GMT+08:00 Asia/Beijing,,23.12,113.34
Company Owned,荔湾区,广州市,44,510100,GMT+08:00 Asia/Beijing,020,23.11,113.25
Company Owned,海珠区,广州市,44,510200,GMT+08:00 Asia/Beijing,020,23.1,113.29
Company Owned,增城荔城街,广州市,44,510000,GMT+08:00 Asia/Beijing,,23.28,113.82
Company Owned,天河路208号天河城首层北门103C号铺,广州市,44,510600,GMT+08:00 Asia/Beijing,020,23.13,113.32
Company Owned,越秀区,广州市,44,510000,GMT+08:00 Asia/Beijing,020,23.13,113.3
Company Owned,越秀区,广州市,44,510000,GMT+08:00 Asia/Beijing,,23.13,113.31
Company Owned,海珠区,广州市,44,510200,GMT+08:00 Asia/Beijing,,23.09,113.31
Company Owned,天河区,广州市,44,510600,GMT+08:00 Asia/Beijing,020,23.12,113.32
Company Owned,花都区,广州市,44,510800,GMT+08:00 Asia/Beijing,020,23.39,113.31
Company Owned,天河路383号太古汇商场裙楼内地铁上层MU23号,广州市,44,510600,GMT+08:00 Asia/Beijing,020,23.13,113.33
Company Owned,越秀区,广州市,44,510000,GMT+08:00 Asia/Beijing,,23.13,113.26
Company Owned,海珠区,广州市,44,510200,GMT+08:00 Asia/Beijing,020,23.1,113.27
Company Owned,番禺区,广州市,44,511400,GMT+08:00 Asia/Beijing,,22.99,113.27
Company Owned,荔湾区,广州市,44,510100,GMT+08:00 Asia/Beijing,020,23.11,113.24
Company Owned,天河区,广州市,44,510600,GMT+08:00 Asia/Beijing,020,23.12,113.32
Company Owned,天河区,广州市,44,510600,GMT+08:00 Asia/Beijing,,23.13,113.33
Company Owned,天河区,广州市,44,510600,GMT+08:00 Asia/Beijing,020,23.12,113.32
Company Owned,天河区,广州市,44,510600,GMT+08:00 Asia/Beijing,020,23.12,113.32
Company Owned,天河区,广州市,44,510600,GMT+08:00 Asia/Beijing,,23.13,113.32
Company Owned,萝岗区,广州市,44,510000,GMT+08:00 Asia/Beijing,,23.17,113.47
Company Owned,越秀区,广州市,44,510000,GMT+08:00 Asia/Beijing,,23.14,113.27
Company Owned,广州市越秀区中山3路2号,广州市,44,510000,GMT+08:00 Asia/Beijing,,23.13,113.29
Company Owned,天河区,广州市,44,510600,GMT+08:00 Asia/Beijing,020,23.14,113.33
Company Owned,海珠区,广州市,44,510200,GMT+08:00 Asia/Beijing,,23.1,113.31
Company Owned,天河区,广州市,44,510600,GMT+08:00 Asia/Beijing,,23.14,113.34
Company Owned,农林下路46号东山锦轩大厦首层A6号铺,广州市,44,510000,GMT+08:00 Asia/Beijing,020,23.13,113.3
Company Owned,天河区,广州市,44,510600,GMT+08:00 Asia/Beijing,020,23.12,113.32
Company Owned,白云区,广州市,44,510400,GMT+08:00 Asia/Beijing,,23.17,113.27
Company Owned,华夏路10富力中心首层东北面103单元,广州市,44,510600,GMT+08:00 Asia/Beijing,020,23.12,113.32
Company Owned,天河区,广州市,44,510600,GMT+08:00 Asia/Beijing,,23.12,113.33
Company Owned,番禺区,广州市,44,511400,GMT+08:00 Asia/Beijing,020,22.94,113.37
Company Owned,天河区,广州市,44,510600,GMT+08:00 Asia/Beijing,020,23.13,113.34
Company Owned,海珠区,广州市,44,510200,GMT+08:00 Asia/Beijing,,23.09,113.27
Company Owned,番禺区,广州市,44,511400,GMT+08:00 Asia/Beijing,020,22.92,113.36
Company Owned,增城区,广州市,44,511300,GMT+08:00 Asia/Beijing,020,23.13,113.57
Company Owned,天河区,广州市,44,510600,GMT+08:00 Asia/Beijing,020,23.13,113.32
Company Owned,环市东路369号广州友谊商店综合楼首层106号铺,广州市,44,510000,GMT+08:00 Asia/Beijing,020,23.14,113.29
Company Owned,天河区,广州市,44,510600,GMT+08:00 Asia/Beijing,020,23.13,113.34
Company Owned,天河区,广州市,44,510600,GMT+08:00 Asia/Beijing,,23.13,113.32
Company Owned,海珠区,广州市,44,510200,GMT+08:00 Asia/Beijing,,23.11,113.27
Company Owned,越秀区,广州市,44,510000,GMT+08:00 Asia/Beijing,020,23.14,113.28
Company Owned,海珠区,广州市,44,510200,GMT+08:00 Asia/Beijing,020,23.1,113.33
Company Owned,天河区体育西路191号,广州市,44,510600,GMT+08:00 Asia/Beijing,020,23.14,113.32
Company Owned,白云区,广州市,44,510400,GMT+08:00 Asia/Beijing,,23.18,113.32
Company Owned,海珠区新港西路82号,广州市,44,510200,GMT+08:00 Asia/Beijing,020,23.09,113.3
Company Owned,天河北路476号首层A号铺,广州市,44,510600,GMT+08:00 Asia/Beijing,020,23.14,113.34
Company Owned,天河区,广州市,44,510600,GMT+08:00 Asia/Beijing,020,23.12,113.32
Company Owned,天河区,广州市,44,510600,GMT+08:00 Asia/Beijing,020,23.14,113.33
Company Owned,花都区,广州市,44,510800,GMT+08:00 Asia/Beijing,020,23.39,113.3
Company Owned,天河区,广州市,44,510600,GMT+08:00 Asia/Beijing,020,23.13,113.33
Company Owned,越秀区,广州市,44,510000,GMT+08:00 Asia/Beijing,020,23.11,113.31
Company Owned,中山大道西路186号,广州市,44,510600,GMT+08:00 Asia/Beijing,020,23.13,113.36
Company Owned,天河区,广州市,44,510600,GMT+08:00 Asia/Beijing,020,23.14,113.32
Company Owned,越秀区,广州市,44,510000,GMT+08:00 Asia/Beijing,020,23.13,113.26
Company Owned,增城区,广州市,44,511300,GMT+08:00 Asia/Beijing,020,23.28,113.82
Company Owned,海珠区,广州市,44,510200,GMT+08:00 Asia/Beijing,,23.11,113.32
Company Owned,天河区,广州市,44,510600,GMT+08:00 Asia/Beijing,020,23.14,113.33
Company Owned,,广州市,44,510600,GMT+08:00 Asia/Beijing,020,23.12,113.33
Company Owned,海珠区,广州市,44,510200,GMT+08:00 Asia/Beijing,,23.08,113.28
Company Owned,天河区,广州市,44,510600,GMT+08:00 Asia/Beijing,,23.13,113.32
Company Owned,流花路1号中国大酒店首层S125及S155号铺,广州市,44,510000,GMT+08:00 Asia/Beijing,020,23.14,113.26
Company Owned,中山三路33号中华广场负一层A23号铺,广州市,44,510600,GMT+08:00 Asia/Beijing,020,23.13,113.28
Company Owned,天河区,广州市,44,510600,GMT+08:00 Asia/Beijing,,23.12,113.33
Company Owned,越秀区,广州市,44,510000,GMT+08:00 Asia/Beijing,,23.12,113.27
Company Owned,番禺区,广州市,44,511400,GMT+08:00 Asia/Beijing,,22.94,113.39
Company Owned,北京路238号,广州市,44,510000,GMT+08:00 Asia/Beijing,020,23.12,113.27
Company Owned,康王中路666号新光城市广场首、二层,广州市,44,510100,GMT+08:00 Asia/Beijing,020,23.12,113.25
Company Owned,花都区,广州市,44,510800,GMT+08:00 Asia/Beijing,020,23.39,113.31
Company Owned,番禺区,广州市,44,511400,GMT+08:00 Asia/Beijing,,22.95,113.36
Company Owned,海珠区,广州市,44,510200,GMT+08:00 Asia/Beijing,020,23.1,113.36
Company Owned,荔湾区,广州市,44,510100,GMT+08:00 Asia/Beijing,020,23.11,113.24
Company Owned,海珠区,广州市,44,510200,GMT+08:00 Asia/Beijing,020,23.09,113.27
Company Owned,天河区,广州市,44,510600,GMT+08:00 Asia/Beijing,020,23.14,113.33
Company Owned,天河区,广州市,44,510600,GMT+08:00 Asia/Beijing,020,23.15,113.32
Company Owned,天河区,广州市,44,510600,GMT+08:00 Asia/Beijing,020,23.12,113.33
Company Owned,番禺区,广州市,44,511400,GMT+08:00 Asia/Beijing,,22.92,113.35
Company Owned,天河区,广州市,44,510600,GMT+08:00 Asia/Beijing,020,23.14,113.33
Company Owned,白云区,广州市,44,510400,GMT+08:00 Asia/Beijing,020,23.17,113.27
Company Owned,天河区,广州市,44,510600,GMT+08:00 Asia/Beijing,020,23.12,113.32
Company Owned,天河区,广州市,44,510600,GMT+08:00 Asia/Beijing,,23.12,113.33
Company Owned,海珠区,广州市,44,510200,GMT+08:00 Asia/Beijing,,23.09,113.28
Company Owned,环市东路362-363号,广州市,44,510000,GMT+08:00 Asia/Beijing,020,23.14,113.29
Company Owned,白云区,广州市,44,510400,GMT+08:00 Asia/Beijing,020,23.18,113.27
Company Owned,花都区,广州市,44,510800,GMT+08:00 Asia/Beijing,020,23.4,113.23
Company Owned,越秀区,广州市,44,510000,GMT+08:00 Asia/Beijing,,23.13,113.27
Company Owned,中山大道中路437号,广州市,44,510600,GMT+08:00 Asia/Beijing,020,23.12,113.4
Company Owned,天河区,广州市,44,510600,GMT+08:00 Asia/Beijing,020,23.15,113.32
Company Owned,南沙区,广州市,44,511400,GMT+08:00 Asia/Beijing,,22.8,113.53
Company Owned,天河区,广州市,44,510600,GMT+08:00 Asia/Beijing,020,23.13,113.33
Company Owned,白云区,广州市,44,510400,GMT+08:00 Asia/Beijing,,23.19,113.33
Company Owned,番禺区,广州市,44,511400,GMT+08:00 Asia/Beijing,,23.01,113.35
Company Owned,越秀区,广州市,44,510000,GMT+08:00 Asia/Beijing,020,23.13,113.27
Company Owned,白云区,广州市,44,510400,GMT+08:00 Asia/Beijing,,23.16,113.26
Company Owned,天河区,广州市,44,510600,GMT+08:00 Asia/Beijing,,23.14,113.36
Company Owned,中山三路33号,广州市,44,510000,GMT+08:00 Asia/Beijing,020,23.13,113.28
Company Owned,惠城区,惠州市,44,516000,GMT+08:00 Asia/Beijing,,23.09,114.4
Company Owned,江北区,惠州市,44,516000,GMT+08:00 Asia/Beijing,0752,23.1,114.42
Company Owned,麦地路天虹商场一层1019,惠州市,44,516000,GMT+08:00 Asia/Beijing,0752,23.07,114.41
Company Owned,惠州市,惠州市,44,516000,GMT+08:00 Asia/Beijing,0752,23.12,114.42
Company Owned,惠城区,惠州市,44,516000,GMT+08:00 Asia/Beijing,,23.07,114.42
Company Owned,惠阳区,惠州市,44,516200,GMT+08:00 Asia/Beijing,0752,22.79,114.45
Company Owned,惠城区,惠州市,44,516000,GMT+08:00 Asia/Beijing,0752,23.08,114.42
Company Owned,梅江区,梅州市,44,514000,GMT+08:00 Asia/Beijing,,24.27,116.14
Company Owned,龙湖区,汕头市,44,515000,GMT+08:00 Asia/Beijing,,23.37,116.75
Company Owned,龙湖区,汕头市,44,515000,GMT+08:00 Asia/Beijing,,23.36,116.72
Company Owned,金平区,汕头市,44,515000,GMT+08:00 Asia/Beijing,,23.39,116.71
Company Owned,澄海区,汕头市,44,515800,GMT+08:00 Asia/Beijing,,23.47,116.76
Company Owned,蓬江区,江门市,44,529000,GMT+08:00 Asia/Beijing,,22.62,113.08
Company Owned,新会区会城大新路50号,江门市,44,529100,GMT+08:00 Asia/Beijing,,22.52,113.04
Company Owned,鹤山市,江门市,44,529700,GMT+08:00 Asia/Beijing,,22.77,112.98
Company Owned,蓬江区,江门市,44,529000,GMT+08:00 Asia/Beijing,,22.6,113.08
Company Owned,蓬江区,江门市,44,529000,GMT+08:00 Asia/Beijing,,22.58,113.08
Company Owned,蓬江区,江门市,44,529000,GMT+08:00 Asia/Beijing,,22.61,113.08
Company Owned,龙岗区,深圳市,44,518100,GMT+08:00 Asia/Beijing,0755,22.72,114.25
Company Owned,龙岗区,深圳市,44,518100,GMT+08:00 Asia/Beijing,0755,22.72,114.24
Company Owned,南山区,深圳市,44,518000,GMT+08:00 Asia/Beijing,0755,22.49,113.92
Company Owned,福田区,深圳市,44,518000,GMT+08:00 Asia/Beijing,0755,22.54,114.09
Company Owned,福田区,深圳市,44,518000,GMT+08:00 Asia/Beijing,0755,22.55,114.06
Company Owned,龙岗区,深圳市,44,518100,GMT+08:00 Asia/Beijing,,22.65,114.21
Company Owned,龙岗区,深圳市,44,518100,GMT+08:00 Asia/Beijing,,22.66,114.07
Company Owned,南山区,深圳市,44,518000,GMT+08:00 Asia/Beijing,0755,22.52,113.9
Company Owned,宝安,深圳市,44,518000,GMT+08:00 Asia/Beijing,0755,22.58,113.88
Company Owned,南山区,深圳市,44,518000,GMT+08:00 Asia/Beijing,0755,22.52,113.93
Company Owned,南山区,深圳市,44,518000,GMT+08:00 Asia/Beijing,0755,22.52,113.99
Company Owned,罗湖区,深圳市,44,518000,GMT+08:00 Asia/Beijing,0755,22.54,114.11
Company Owned,福田区,深圳市,44,518000,GMT+08:00 Asia/Beijing,,22.55,114.1
Company Owned,宝安区,深圳市,44,518100,GMT+08:00 Asia/Beijing,0755,22.62,113.82
Company Owned,南山区,深圳市,44,518000,GMT+08:00 Asia/Beijing,0755,22.54,113.98
Company Owned,南山区,深圳市,44,518000,GMT+08:00 Asia/Beijing,0755,22.52,113.94
Company Owned,宝安区,深圳市,44,518100,GMT+08:00 Asia/Beijing,,22.76,113.86
Company Owned,南山区,深圳市,44,518000,GMT+08:00 Asia/Beijing,0755,22.5,113.92
Company Owned,深南大道深圳联通大厦首层,深圳市,44,518000,GMT+08:00 Asia/Beijing,0755,22.54,114.05
Company Owned,福田区,深圳市,44,518000,GMT+08:00 Asia/Beijing,0755,22.54,114.05
Company Owned,龙华区,深圳市,44,518000,GMT+08:00 Asia/Beijing,,22.62,114.06
Company Owned,盐田区,深圳市,44,518000,GMT+08:00 Asia/Beijing,0755,22.61,114.3
Company Owned,福田区,深圳市,44,518000,GMT+08:00 Asia/Beijing,0755,22.53,114.05
Company Owned,福田区,深圳市,44,518000,GMT+08:00 Asia/Beijing,0755,22.53,114.05
Company Owned,深圳市,深圳市,44,518000,GMT+08:00 Asia/Beijing,0755,22.54,113.93
Company Owned,罗湖区,深圳市,44,518000,GMT+08:00 Asia/Beijing,0755,22.54,114.12
Company Owned,福田区,深圳市,44,518000,GMT+08:00 Asia/Beijing,0755,22.54,114.02
Company Owned,罗湖区,深圳市,44,518000,GMT+08:00 Asia/Beijing,0755,22.54,114.11
Company Owned,南山区,深圳市,44,518000,GMT+08:00 Asia/Beijing,0755,22.59,113.97
Company Owned,宝安区,深圳市,44,518100,GMT+08:00 Asia/Beijing,0755,22.63,113.81
Company Owned,南山区,深圳市,44,518000,GMT+08:00 Asia/Beijing,0755,22.53,113.97
Company Owned,南山区,深圳市,44,518000,GMT+08:00 Asia/Beijing,0755,22.5,113.94
Company Owned,龙华区,深圳市,44,518000,GMT+08:00 Asia/Beijing,0755,22.63,114.06
Company Owned,宝安区,深圳市,44,518100,GMT+08:00 Asia/Beijing,0755,22.58,113.89
Company Owned,福田区,深圳市,44,518000,GMT+08:00 Asia/Beijing,0755,22.53,114.03
Company Owned,龙华新区,深圳市,44,518000,GMT+08:00 Asia/Beijing,0755,22.72,114.07
Company Owned,南山区,深圳市,44,518000,GMT+08:00 Asia/Beijing,0755,22.54,113.95
Company Owned,南山区,深圳市,44,518000,GMT+08:00 Asia/Beijing,0755,22.54,113.96
Company Owned,福田区,深圳市,44,518000,GMT+08:00 Asia/Beijing,0755,22.54,114.1
Company Owned,南山区,深圳市,44,518000,GMT+08:00 Asia/Beijing,,22.51,113.94
Company Owned,罗湖区,深圳市,44,518000,GMT+08:00 Asia/Beijing,0755,22.57,114.14
Company Owned,福田区,深圳市,44,518000,GMT+08:00 Asia/Beijing,0755,22.55,114.1
Company Owned,宝安区,深圳市,44,518100,GMT+08:00 Asia/Beijing,0755,22.74,114.08
Company Owned,龙岗区,深圳市,44,518100,GMT+08:00 Asia/Beijing,,22.61,114.13
Company Owned,南山区,深圳市,44,518000,GMT+08:00 Asia/Beijing,0755,22.53,113.93
Company Owned,罗湖区,深圳市,44,518000,GMT+08:00 Asia/Beijing,0755,22.55,114.12
Company Owned,龙岗区,深圳市,44,518100,GMT+08:00 Asia/Beijing,,22.68,114.12
Company Owned,罗湖区,深圳市,44,518000,GMT+08:00 Asia/Beijing,0755,22.54,114.11
Company Owned,罗湖区,深圳市,44,518000,GMT+08:00 Asia/Beijing,0755,22.54,114.12
Company Owned,南山区,深圳市,44,518000,GMT+08:00 Asia/Beijing,0755,22.54,113.92
Company Owned,龙华区,深圳市,44,518000,GMT+08:00 Asia/Beijing,,22.63,114.03
Company Owned,宝安区,深圳市,44,518100,GMT+08:00 Asia/Beijing,0755,22.63,113.81
Company Owned,南山区,深圳市,44,518000,GMT+08:00 Asia/Beijing,0755,22.54,113.98
Company Owned,宝安区,深圳市,44,518100,GMT+08:00 Asia/Beijing,0755,22.56,113.91
Company Owned,罗湖区,深圳市,44,518000,GMT+08:00 Asia/Beijing,0755,22.54,114.12
Company Owned,龙华区,深圳市,44,518000,GMT+08:00 Asia/Beijing,,22.63,114.02
Company Owned,龙岗区,深圳市,44,518100,GMT+08:00 Asia/Beijing,0755,22.69,114.23
Company Owned,福田区,深圳市,44,518000,GMT+08:00 Asia/Beijing,0755,22.54,114.06
Company Owned,宝安区,深圳市,44,518100,GMT+08:00 Asia/Beijing,0755,22.58,113.86
Company Owned,福田区,深圳市,44,518000,GMT+08:00 Asia/Beijing,,22.53,114.06
Company Owned,南山区,深圳市,44,518000,GMT+08:00 Asia/Beijing,0755,22.51,113.93
Company Owned,福田区,深圳市,44,518000,GMT+08:00 Asia/Beijing,0755,22.57,114.06
Company Owned,福田区,深圳市,44,518000,GMT+08:00 Asia/Beijing,,22.54,114.08
Company Owned,福田区,深圳市,44,518000,GMT+08:00 Asia/Beijing,,22.52,114.05
Company Owned,福田区,深圳市,44,518000,GMT+08:00 Asia/Beijing,0755,22.54,114.08
Company Owned,宝安区,深圳市,44,518100,GMT+08:00 Asia/Beijing,0755,22.57,113.91
Company Owned,龙华新区,深圳市,44,518000,GMT+08:00 Asia/Beijing,0755,22.66,114.02
Company Owned,南山区,深圳市,44,518000,GMT+08:00 Asia/Beijing,0755,22.52,113.94
Company Owned,福田区,深圳市,44,518000,GMT+08:00 Asia/Beijing,0755,22.54,114.1
Company Owned,南山区,深圳市,44,518000,GMT+08:00 Asia/Beijing,,22.52,113.94
Company Owned,宝安区民治街道,深圳市,44,518100,GMT+08:00 Asia/Beijing,0755,22.63,114.04
Company Owned,罗湖区,深圳市,44,518000,GMT+08:00 Asia/Beijing,0755,22.54,114.12
Company Owned,龙华新区,深圳市,44,518000,GMT+08:00 Asia/Beijing,,22.61,114.03
Company Owned,龙岗区,深圳市,44,518100,GMT+08:00 Asia/Beijing,0755,22.62,114.07
Company Owned,福田区,深圳市,44,518000,GMT+08:00 Asia/Beijing,,22.54,114.08
Company Owned,深南东路5002号地王商场G层113单元,深圳市,44,518000,GMT+08:00 Asia/Beijing,0755,22.54,114.11
Company Owned,南山区,深圳市,44,518000,GMT+08:00 Asia/Beijing,0755,22.52,113.95
Company Owned,龙岗区,深圳市,44,518100,GMT+08:00 Asia/Beijing,,22.61,114.14
Company Owned,盐田区,深圳市,44,518000,GMT+08:00 Asia/Beijing,0755,22.6,114.31
Company Owned,宝安区,深圳市,44,518100,GMT+08:00 Asia/Beijing,0755,22.56,113.88
Company Owned,福田区,深圳市,44,518000,GMT+08:00 Asia/Beijing,0755,22.52,114.06
Company Owned,福田区,深圳市,44,518000,GMT+08:00 Asia/Beijing,0755,22.55,114.06
Company Owned,福田区,深圳市,44,518000,GMT+08:00 Asia/Beijing,0755,22.54,114.06
Company Owned,龙华新区,深圳市,44,518000,GMT+08:00 Asia/Beijing,0755,22.7,114.05
Company Owned,宝安区,深圳市,44,518100,GMT+08:00 Asia/Beijing,0755,22.56,113.91
Company Owned,龙华区,深圳市,44,518000,GMT+08:00 Asia/Beijing,,22.6,114.05
Company Owned,罗湖区,深圳市,44,518000,GMT+08:00 Asia/Beijing,,22.56,114.13
Company Owned,盐田区,深圳市,44,518000,GMT+08:00 Asia/Beijing,0755,22.55,114.24
Company Owned,南山区,深圳市,44,518000,GMT+08:00 Asia/Beijing,0755,22.48,113.92
Company Owned,福田区,深圳市,44,518000,GMT+08:00 Asia/Beijing,0755,22.55,114.09
Company Owned,龙岗区,深圳市,44,518100,GMT+08:00 Asia/Beijing,0755,22.72,114.27
Company Owned,福田区,深圳市,44,518000,GMT+08:00 Asia/Beijing,,22.56,114.04
Company Owned,罗湖区,深圳市,44,518000,GMT+08:00 Asia/Beijing,0755,22.54,114.11
Company Owned,罗湖区,深圳市,44,518000,GMT+08:00 Asia/Beijing,0755,22.54,114.11
Company Owned,南山区,深圳市,44,518000,GMT+08:00 Asia/Beijing,0755,22.52,113.93
Company Owned,宝安区,深圳市,44,518100,GMT+08:00 Asia/Beijing,,22.73,113.8
Company Owned,罗湖区,深圳市,44,518000,GMT+08:00 Asia/Beijing,0755,22.54,114.12
Company Owned,南山区,深圳市,44,518000,GMT+08:00 Asia/Beijing,0755,22.54,113.99
Company Owned,福田区,深圳市,44,518000,GMT+08:00 Asia/Beijing,0755,22.54,114.02
Company Owned,龙岗区,深圳市,44,518100,GMT+08:00 Asia/Beijing,,22.68,114.14
Company Owned,罗湖区,深圳市,44,518000,GMT+08:00 Asia/Beijing,,22.55,114.13
Company Owned,福田区,深圳市,44,518000,GMT+08:00 Asia/Beijing,0755,22.55,114.05
Company Owned,南山区,深圳市,44,518000,GMT+08:00 Asia/Beijing,0755,22.54,113.98
Company Owned,福田区,深圳市,44,518000,GMT+08:00 Asia/Beijing,0755,22.54,114.02
Company Owned,宝安区,深圳市,44,518100,GMT+08:00 Asia/Beijing,0755,22.76,113.85
Company Owned,福田区,深圳市,44,518000,GMT+08:00 Asia/Beijing,75583217677,22.54,114.08
Company Owned,南山区,深圳市,44,518000,GMT+08:00 Asia/Beijing,0755,22.52,113.94
Company Owned,罗湖区,深圳市,44,518000,GMT+08:00 Asia/Beijing,0755,22.55,114.12
Company Owned,福田区,深圳市,44,518000,GMT+08:00 Asia/Beijing,0755,22.54,114.05
Company Owned,南山区,深圳市,44,518000,GMT+08:00 Asia/Beijing,0755,22.58,113.94
Company Owned,福田区,深圳市,44,518000,GMT+08:00 Asia/Beijing,0755,22.54,114.01
Company Owned,福田区,深圳市,44,518000,GMT+08:00 Asia/Beijing,0755,22.54,114.06
Company Owned,罗湖区,深圳市,44,518000,GMT+08:00 Asia/Beijing,,22.55,114.13
Company Owned,清城区,清远市,44,511500,GMT+08:00 Asia/Beijing,,23.71,113.01
Company Owned,经济技术开发区,湛江市,44,524000,GMT+08:00 Asia/Beijing,,21.25,110.4
Company Owned,霞山区,湛江市,44,524000,GMT+08:00 Asia/Beijing,,21.2,110.41
Company Owned,霞山区,湛江市,44,524000,GMT+08:00 Asia/Beijing,0759,21.21,110.4
Company Owned,赤坎区,湛江市,44,524000,GMT+08:00 Asia/Beijing,,21.27,110.37
Company Owned,香洲区,珠海市,44,519000,GMT+08:00 Asia/Macau,,22.28,113.58
Company Owned,拱北迎宾大道,珠海市,44,519000,GMT+08:00 Asia/Beijing,0756,22.22,113.55
Company Owned,香洲区,珠海市,44,519000,GMT+08:00 Asia/Beijing,,22.24,113.59
Company Owned,吉大情侣中路33号,珠海市,44,519000,GMT+08:00 Asia/Beijing,0756,22.25,113.59
Company Owned,香洲区,珠海市,44,519000,GMT+08:00 Asia/Macau,0756,22.26,113.53
Company Owned,香洲区,珠海市,44,519000,GMT+08:00 Asia/Beijing,,22.23,113.54
Company Owned,拱北昌盛路376号,珠海市,44,519000,GMT+08:00 Asia/Beijing,0756,22.21,113.53
Company Owned,香洲区,珠海市,44,519000,GMT+08:00 Asia/Beijing,,22.22,113.51
Company Owned,金湾区,珠海市,44,519000,GMT+08:00 Asia/Beijing,,22.22,113.51
Company Owned,新香洲,珠海市,44,519000,GMT+08:00 Asia/Macau,0756,22.27,113.53
Company Owned,香洲区,珠海市,44,519000,GMT+08:00 Asia/Beijing,,22.25,113.57
Company Owned,香洲区,珠海市,44,519000,GMT+08:00 Asia/Beijing,,22.23,113.55
Company Owned,香洲区,珠海市,44,519000,GMT+08:00 Asia/Macau,0756,22.27,113.51
Company Owned,吉大景山路228号,珠海市,44,519000,GMT+08:00 Asia/Beijing,0756,22.26,113.58
Company Owned,端州区,肇庆市,44,526000,GMT+08:00 Asia/Beijing,,23.05,112.47
Company Owned,江城区,阳江市,44,529500,GMT+08:00 Asia/Beijing,,21.85,111.97
Company Owned,海城区,北海市,45,536000,GMT+08:00 Asia/Beijing,,21.47,109.11
Company Owned,青秀区,南宁市,45,530000,GMT+08:00 Asia/Beijing,,22.83,108.37
Company Owned,民族大道136号三层319号商铺,南宁市,45,530000,GMT+08:00 Asia/Beijing,0771,22.81,108.39
Company Owned,青秀区,南宁市,45,530000,GMT+08:00 Asia/Beijing,,22.81,108.39
Company Owned,江南区,南宁市,45,530000,GMT+08:00 Asia/Beijing,,22.61,108.17
Company Owned,青秀区,南宁市,45,530000,GMT+08:00 Asia/Beijing,0771,22.81,108.37
Company Owned,青秀区,南宁市,45,530000,GMT+08:00 Asia/Beijing,0771,22.81,108.38
Company Owned,青秀区,南宁市,45,530000,GMT+08:00 Asia/Beijing,0771,22.81,108.4
Company Owned,青秀区,南宁市,45,530000,GMT+08:00 Asia/Beijing,0771,22.82,108.37
Company Owned,兴宁区,南宁市,45,530000,GMT+08:00 Asia/Beijing,0771,22.81,108.32
Company Owned,西乡塘区,南宁市,45,530000,GMT+08:00 Asia/Beijing,0771,22.83,108.29
Company Owned,高新区,南宁市,45,530000,GMT+08:00 Asia/Beijing,,22.87,108.29
Company Owned,民族大道136号负一层B117号商铺,南宁市,45,530000,GMT+08:00 Asia/Beijing,0771,22.81,108.39
Company Owned,柳南区,柳州,45,545000,GMT+08:00 Asia/Beijing,,24.29,109.39
Company Owned,鱼峰区,柳州,45,545000,GMT+08:00 Asia/Beijing,,24.3,109.41
Company Owned,城中区,柳州,45,545000,GMT+08:00 Asia/Beijing,,24.32,109.44
Company Owned,东环大道256号,柳州,45,545000,GMT+08:00 Asia/Beijing,,24.33,109.44
Company Owned,广西柳州市城中区,柳州,45,545000,GMT+08:00 Asia/Beijing,,24.31,109.41
Company Owned,广场路10号,柳州,45,545000,GMT+08:00 Asia/Beijing,0772,24.32,109.41
Company Owned,七星区,桂林,45,541000,GMT+08:00 Asia/Beijing,,25.24,110.32
Company Owned,秀峰区,桂林,45,541000,GMT+08:00 Asia/Beijing,,25.27,110.29
Company Owned,亚龙湾旅游度假区,三亚市,46,572000,GMT+08:00 Asia/Beijing,0898,18.23,109.64
Company Owned,吉阳区,三亚市,46,572000,GMT+08:00 Asia/Beijing,,18.27,109.5
Company Owned,市河东区,三亚市,46,572000,GMT+08:00 Asia/Beijing,0898,18.22,109.52
Company Owned,河西区,三亚市,46,572000,GMT+08:00 Asia/Beijing,0898,18.25,109.51
Company Owned,三亚市凤凰机场国内候机楼14号登机口,三亚市,46,572000,GMT+08:00 Asia/Beijing,,18.31,109.41
Company Owned,河西区,三亚市,46,572000,GMT+08:00 Asia/Beijing,,18.26,109.5
Company Owned,儋州市,儋州市,46,571700,GMT+08:00 Asia/Beijing,,19.53,109.59
Company Owned,美兰区,海口市,46,571100,GMT+08:00 Asia/Beijing,0898,20.02,110.35
Company Owned,秀英区,海口市,46,570300,GMT+08:00 Asia/Beijing,,19.98,110.28
Company Owned,美兰区,海口市,46,571100,GMT+08:00 Asia/Beijing,,20.02,110.37
Company Owned,美兰区,海口市,46,571100,GMT+08:00 Asia/Beijing,0898,20.03,110.34
Company Owned,美兰区,海口市,46,571100,GMT+08:00 Asia/Beijing,,20.06,110.34
Company Owned,龙华区,海口市,46,570100,GMT+08:00 Asia/Beijing,0898,20.03,110.32
Company Owned,美兰区,海口市,46,571100,GMT+08:00 Asia/Beijing,0898,19.94,110.46
Company Owned,美兰区,海口市,46,571100,GMT+08:00 Asia/Beijing,,20.05,110.35
Company Owned,美兰区,海口市,46,571100,GMT+08:00 Asia/Beijing,0898,20.02,110.34
Company Owned,沙坪坝区,重庆市,50,400000,GMT+08:00 Asia/Beijing,,29.56,106.46
Company Owned,渝北区,重庆市,50,401100,GMT+08:00 Asia/Beijing,023,29.58,106.5
Company Owned,渝北区,重庆市,50,401100,GMT+08:00 Asia/Beijing,023,29.63,106.53
Company Owned,北部新区,重庆市,50,401100,GMT+08:00 Asia/Beijing,023,29.6,106.51
Company Owned,渝中区,重庆市,50,400000,GMT+08:00 Asia/Beijing,023,29.54,106.51
Company Owned,渝中区 `,重庆市,50,400000,GMT+08:00 Asia/Beijing,023,29.56,106.58
Company Owned,江北区,重庆市,50,400000,GMT+08:00 Asia/Beijing,023,29.58,106.53
Company Owned,沙坪坝区,重庆市,50,400000,GMT+08:00 Asia/Beijing,023,29.56,106.46
Company Owned,南岸区,重庆市,50,400000,GMT+08:00 Asia/Beijing,,29.58,106.58
Company Owned,渝中区,重庆市,50,400000,GMT+08:00 Asia/Beijing,023,29.54,106.52
Company Owned,南岸区,重庆市,50,400000,GMT+08:00 Asia/Beijing,,29.53,106.57
Company Owned,南岸区,重庆市,50,400000,GMT+08:00 Asia/Beijing,023,29.53,106.56
Company Owned,北部新区,重庆市,50,401100,GMT+08:00 Asia/Beijing,,29.64,106.57
Company Owned,渝北区,重庆市,50,401100,GMT+08:00 Asia/Beijing,,29.59,106.53
Company Owned,南岸区,重庆市,50,400000,GMT+08:00 Asia/Beijing,023,29.53,106.57
Company Owned,江北区,重庆市,50,400000,GMT+08:00 Asia/Beijing,,29.58,106.53
Company Owned,江北区,重庆市,50,400000,GMT+08:00 Asia/Beijing,023,29.58,106.55
Company Owned,江北区,重庆市,50,400000,GMT+08:00 Asia/Beijing,023,29.58,106.53
Company Owned,渝中区,重庆市,50,400000,GMT+08:00 Asia/Beijing,023,29.56,106.58
Company Owned,渝北区,重庆市,50,401100,GMT+08:00 Asia/Beijing,,29.61,106.51
Company Owned,渝北区,重庆市,50,401100,GMT+08:00 Asia/Beijing,,29.61,106.55
Company Owned,九龙坡区,重庆市,50,400000,GMT+08:00 Asia/Beijing,023,29.51,106.52
Company Owned,渝北区,重庆市,50,401100,GMT+08:00 Asia/Beijing,023,29.71,106.64
Company Owned,渝中区,重庆市,50,400000,GMT+08:00 Asia/Beijing,,29.54,106.51
Company Owned,沙坪坝区,重庆市,50,400000,GMT+08:00 Asia/Beijing,,29.61,106.29
Company Owned,大渡口区,重庆市,50,400000,GMT+08:00 Asia/Beijing,023,29.47,106.48
Company Owned,九龙坡区,重庆市,50,400000,GMT+08:00 Asia/Beijing,023,29.51,106.51
Company Owned,沙坪坝区,重庆市,50,400000,GMT+08:00 Asia/Beijing,,29.6,106.3
Company Owned,江北区,重庆市,50,400000,GMT+08:00 Asia/Beijing,,29.58,106.53
Company Owned,江北区,重庆市,50,400000,GMT+08:00 Asia/Beijing,023,29.58,106.53
Company Owned,渝中区,重庆市,50,400000,GMT+08:00 Asia/Beijing,023,29.56,106.58
Company Owned,南岸区,重庆市,50,400000,GMT+08:00 Asia/Beijing,023,29.53,106.57
Company Owned,渝中区,重庆市,50,400000,GMT+08:00 Asia/Beijing,023,29.56,106.57
Company Owned,九龙坡区,重庆市,50,400000,GMT+08:00 Asia/Beijing,,29.52,106.52
Company Owned,江北区,重庆市,50,400000,GMT+08:00 Asia/Beijing,023,29.58,106.53
Company Owned,北部新区,重庆市,50,400000,GMT+08:00 Asia/Beijing,023,29.63,106.57
Company Owned,巴南区,重庆市,50,401300,GMT+08:00 Asia/Beijing,,29.39,106.54
Company Owned,渝中区,重庆市,50,400000,GMT+08:00 Asia/Beijing,023,29.56,106.58
Company Owned,渝中区,重庆市,50,400000,GMT+08:00 Asia/Beijing,,29.56,106.58
Company Owned,西南区,重庆市,50,401100,GMT+08:00 Asia/Beijing,023,29.55,106.59
Company Owned,渝北区,重庆市,50,401100,GMT+08:00 Asia/Beijing,023,29.72,106.63
Company Owned,乐山乐青路与竹公溪交汇处,乐山市,51,614000,GMT+08:00 Asia/Beijing,,29.6,103.72
Company Owned,旌阳区,德阳市,51,618000,GMT+08:00 Asia/Beijing,,31.13,104.39
Company Owned,旌阳区,德阳市,51,618000,GMT+08:00 Asia/Beijing,,31.16,104.42
Company Owned,高新区,成都市,51,610000,GMT+08:00 Asia/Beijing,,30.55,104.07
Company Owned,锦江区,成都市,51,610000,GMT+08:00 Asia/Beijing,028,30.65,104.06
Company Owned,高新区天府一街699号,成都市,51,610000,GMT+08:00 Asia/Beijing,,30.56,104.05
Company Owned,高新区,成都市,51,610000,GMT+08:00 Asia/Beijing,028,30.55,104.04
Company Owned,高新区,成都市,51,610000,GMT+08:00 Asia/Beijing,028,30.58,104.07
Company Owned,高新区,成都市,51,610000,GMT+08:00 Asia/Beijing,028,30.58,104.06
Company Owned,高新区,成都市,51,610000,GMT+08:00 Asia/Beijing,028,30.57,104.07
Company Owned,都江堰,成都市,51,610000,GMT+08:00 Asia/Beijing,,30.99,103.64
Company Owned,武侯祠大街231号,成都市,51,610000,GMT+08:00 Asia/Beijing,028,30.64,104.05
Company Owned,成华区,成都市,51,610000,GMT+08:00 Asia/Beijing,028,30.67,104.11
Company Owned,人民南路4段19号威斯顿联邦大厦1楼,成都市,51,610000,GMT+08:00 Asia/Beijing,028,30.62,104.07
Company Owned,青羊区,成都市,51,610000,GMT+08:00 Asia/Beijing,,30.68,103.97
Company Owned,武侯区,成都市,51,610000,GMT+08:00 Asia/Beijing,,30.65,104.0
Company Owned,双流县双楠大道中段633号,成都市,51,610200,GMT+08:00 Asia/Beijing,028,30.6,103.95
Company Owned,高新区,成都市,51,610000,GMT+08:00 Asia/Beijing,028,30.6,104.07
Company Owned,高新区,成都市,51,610000,GMT+08:00 Asia/Beijing,,30.6,104.07
Company Owned,成华区,成都市,51,610000,GMT+08:00 Asia/Beijing,028,30.68,104.09
Company Owned,人民南路四段三号,成都市,51,610000,GMT+08:00 Asia/Beijing,028,30.63,104.07
Company Owned,高新区,成都市,51,610000,GMT+08:00 Asia/Beijing,,30.59,104.07
Company Owned,锦江区,成都市,51,610000,GMT+08:00 Asia/Beijing,,30.66,104.07
Company Owned,天府新区,成都市,51,610000,GMT+08:00 Asia/Beijing,,30.52,104.06
Company Owned,锦江区,成都市,51,610000,GMT+08:00 Asia/Beijing,028,30.65,104.08
Company Owned,锦江区,成都市,51,610000,GMT+08:00 Asia/Beijing,,30.65,104.07
Company Owned,金牛区,成都市,51,610000,GMT+08:00 Asia/Beijing,028,30.71,104.07
Company Owned,青羊区,成都市,51,610000,GMT+08:00 Asia/Beijing,,30.66,104.02
Company Owned,总府路18号2层1-3号,成都市,51,610000,GMT+08:00 Asia/Beijing,028,30.66,104.08
Company Owned,锦江区,成都市,51,610000,GMT+08:00 Asia/Beijing,028,30.66,104.08
Company Owned,金牛区,成都市,51,610000,GMT+08:00 Asia/Beijing,028,30.7,104.04
Company Owned,双流区,成都市,51,610200,GMT+08:00 Asia/Beijing,,30.6,103.93
Company Owned,武侯区,成都市,51,610000,GMT+08:00 Asia/Beijing,028,30.65,104.01
Company Owned,武侯区,成都市,51,610000,GMT+08:00 Asia/Beijing,,30.63,104.07
Company Owned,青羊区,成都市,51,610000,GMT+08:00 Asia/Beijing,,30.66,104.07
Company Owned,高新区,成都市,51,610000,GMT+08:00 Asia/Beijing,,30.59,104.07
Company Owned,青羊区,成都市,51,610000,GMT+08:00 Asia/Beijing,,30.68,103.97
Company Owned,青羊区,成都市,51,610000,GMT+08:00 Asia/Beijing,,30.67,104.06
Company Owned,锦江区,成都市,51,610000,GMT+08:00 Asia/Beijing,028,30.65,104.07
Company Owned,武侯区,成都市,51,610000,GMT+08:00 Asia/Beijing,028,30.62,104.07
Company Owned,高新区,成都市,51,610000,GMT+08:00 Asia/Beijing,,30.59,104.06
Company Owned,郫县,成都市,51,610000,GMT+08:00 Asia/Beijing,,30.81,103.91
Company Owned,东御街19号人民商场1楼,成都市,51,610000,GMT+08:00 Asia/Beijing,028,30.66,104.07
Company Owned,青羊区,成都市,51,610000,GMT+08:00 Asia/Beijing,028,30.66,104.01
Company Owned,锦江区,成都市,51,610000,GMT+08:00 Asia/Beijing,,30.65,104.09
Company Owned,高新区,成都市,51,610000,GMT+08:00 Asia/Beijing,028,30.59,104.07
Company Owned,锦江区,成都市,51,610000,GMT+08:00 Asia/Beijing,028,30.62,104.1
Company Owned,高新区,成都市,51,610000,GMT+08:00 Asia/Beijing,028,30.6,104.06
Company Owned,双流国际机场T2航站楼,成都市,51,610200,GMT+08:00 Asia/Beijing,028,30.54,103.95
Company Owned,成都倍特店,成都市,51,610000,GMT+08:00 Asia/Beijing,028,30.67,104.06
Company Owned,武侯区,成都市,51,610000,GMT+08:00 Asia/Beijing,,30.64,104.03
Company Owned,高新西区,成都市,51,610000,GMT+08:00 Asia/Beijing,,30.75,103.92
Company Owned,高新区,成都市,51,610000,GMT+08:00 Asia/Beijing,,30.55,104.05
Company Owned,锦江区,成都市,51,610000,GMT+08:00 Asia/Beijing,,30.65,104.08
Company Owned,锦江区,成都市,51,610000,GMT+08:00 Asia/Beijing,,30.65,104.08
Company Owned,人民东路61号香榭里广场1楼,成都市,51,610000,GMT+08:00 Asia/Beijing,028,30.66,104.07
Company Owned,青羊区,成都市,51,610000,GMT+08:00 Asia/Beijing,,30.68,103.96
Company Owned,双流国际机场,成都市,51,610000,GMT+08:00 Asia/Beijing,,30.58,103.95
Company Owned,成华区,成都市,51,610000,GMT+08:00 Asia/Beijing,,30.66,104.09
Company Owned,宽窄巷子文化保护区,成都市,51,610000,GMT+08:00 Asia/Beijing,028,30.66,104.05
Company Owned,武侯区,成都市,51,610000,GMT+08:00 Asia/Beijing,,30.65,104.02
Company Owned,锦江区,成都市,51,610000,GMT+08:00 Asia/Beijing,,30.66,104.08
Company Owned,青羊区,成都市,51,610000,GMT+08:00 Asia/Beijing,,30.67,104.0
Company Owned,高新区,成都市,51,610000,GMT+08:00 Asia/Beijing,,30.59,104.06
Company Owned,锦江区,成都市,51,610000,GMT+08:00 Asia/Beijing,,30.64,104.09
Company Owned,大业路6号青石桥南街财富中心1楼,成都市,51,610000,GMT+08:00 Asia/Beijing,028,30.65,104.07
Company Owned,高新区,成都市,51,610000,GMT+08:00 Asia/Beijing,,30.62,104.06
Company Owned,双流县,成都市,51,101,GMT+08:00 Asia/Beijing,028,30.57,103.99
Company Owned,温江区,成都市,51,611100,GMT+08:00 Asia/Beijing,,30.68,103.86
Company Owned,金牛区,成都市,51,610000,GMT+08:00 Asia/Beijing,028,30.72,104.04
Company Owned,武侯区,成都市,51,610000,GMT+08:00 Asia/Beijing,,30.63,104.0
Company Owned,高新西区,成都市,51,60000,GMT+08:00 Asia/Beijing,028,30.72,103.98
Company Owned,武侯区,成都市,51,610000,GMT+08:00 Asia/Beijing,028,30.62,104.08
Company Owned,锦江区,成都市,51,610000,GMT+08:00 Asia/Beijing,,30.66,104.07
Company Owned,武侯区,成都市,51,610000,GMT+08:00 Asia/Beijing,028,30.63,104.03
Company Owned,锦江区,成都市,51,610000,GMT+08:00 Asia/Beijing,028,30.66,104.08
Company Owned,高新区,成都市,51,610000,GMT+08:00 Asia/Beijing,028,30.6,104.06
Company Owned,青羊区,成都市,51,610000,GMT+08:00 Asia/Beijing,,30.67,103.96
Company Owned,成都市锦江区,成都市,51,610000,GMT+08:00 Asia/Beijing,,30.66,104.08
Company Owned,武侯区,成都市,51,610000,GMT+08:00 Asia/Beijing,,30.62,104.03
Company Owned,高新区,成都市,51,610000,GMT+08:00 Asia/Beijing,,30.57,104.07
Company Owned,锦江区,成都市,51,610000,GMT+08:00 Asia/Beijing,028,30.61,104.09
Company Owned,锦江区区,成都市,51,610000,GMT+08:00 Asia/Beijing,,30.65,104.08
Company Owned,高新区,成都市,51,610000,GMT+08:00 Asia/Beijing,,30.57,104.07
Company Owned,金牛区,成都市,51,610000,GMT+08:00 Asia/Beijing,028,30.69,104.05
Company Owned,成华区,成都市,51,610000,GMT+08:00 Asia/Beijing,,30.67,104.11
Company Owned,成华区,成都市,51,610000,GMT+08:00 Asia/Beijing,028,30.67,104.11
Company Owned,双流区,成都市,51,610200,GMT+08:00 Asia/Beijing,,30.52,103.94
Company Owned,锦江区,成都市,51,610000,GMT+08:00 Asia/Beijing,,30.66,104.07
Company Owned,成华区,成都市,51,610000,GMT+08:00 Asia/Beijing,028,30.65,104.12
Company Owned,神仙树南路37号,成都市,51,610000,GMT+08:00 Asia/Beijing,028,30.61,104.05
Company Owned,成华区,成都市,51,610000,GMT+08:00 Asia/Beijing,028,30.67,104.11
Company Owned,成都市锦江区,成都市,51,610000,GMT+08:00 Asia/Beijing,028,30.65,104.08
Company Owned,青羊区,成都市,51,610000,GMT+08:00 Asia/Beijing,028,30.69,104.07
Company Owned,龙泉驿区,成都市,51,610100,GMT+08:00 Asia/Beijing,,30.58,104.24
Company Owned,高新区,成都市,51,610000,GMT+08:00 Asia/Beijing,,30.54,104.06
Company Owned,锦江区,成都市,51,610000,GMT+08:00 Asia/Beijing,028,30.64,104.08
Company Owned,锦江区,成都市,51,610000,GMT+08:00 Asia/Beijing,028,30.65,104.08
Company Owned,高新区,成都市,51,610000,GMT+08:00 Asia/Beijing,028,30.54,104.07
Company Owned,高新区,成都市,51,610000,GMT+08:00 Asia/Beijing,,30.55,104.06
Company Owned,总府路15号王府井百货1楼,成都市,51,610000,GMT+08:00 Asia/Beijing,028,30.66,104.08
Company Owned,涪城区,绵阳市,51,621000,GMT+08:00 Asia/Beijing,,31.45,104.72
Company Owned,涪城区,绵阳市,51,621000,GMT+08:00 Asia/Beijing,,31.46,104.74
Company Owned,涪城区,绵阳市,51,621000,GMT+08:00 Asia/Beijing,,31.46,104.74
Company Owned,南明区,贵阳,52,550000,GMT+08:00 Asia/Beijing,,26.58,106.72
Company Owned,南明区,贵阳,52,550000,GMT+08:00 Asia/Beijing,,26.57,106.69
Company Owned,云岩区,贵阳,52,550000,GMT+08:00 Asia/Beijing,,26.6,106.72
Company Owned,云岩区,贵阳,52,550000,GMT+08:00 Asia/Beijing,,26.58,106.7
Company Owned,金阳新区,贵阳,52,550000,GMT+08:00 Asia/Beijing,,26.6,106.62
Company Owned,南明区,贵阳,52,550000,GMT+08:00 Asia/Beijing,,26.58,106.71
Company Owned,南明区,贵阳,52,550000,GMT+08:00 Asia/Beijing,,26.54,106.8
Company Owned,南明区,贵阳,52,550000,GMT+08:00 Asia/Beijing,0851,26.56,106.72
Company Owned,南明区,贵阳市,52,550000,GMT+08:00 Asia/Beijing,,26.56,106.71
Company Owned,古城区,丽江市,53,674100,GMT+08:00 Asia/Beijing,,26.87,100.24
Company Owned,古城区,丽江市,53,674100,GMT+08:00 Asia/Beijing,,26.88,100.23
Company Owned,大理古城,大理市,53,671000,GMT+08:00 Asia/Beijing,,25.69,100.16
Company Owned,官渡区,昆明市,53,650200,GMT+08:00 Asia/Beijing,,25.1,102.93
Company Owned,盘龙区,昆明市,53,650200,GMT+08:00 Asia/Beijing,,25.07,102.72
Company Owned,三市街6号,昆明市,53,650000,GMT+08:00 Asia/Beijing,0871,25.04,102.71
Company Owned,人民中路富春街98号,昆明市,53,650000,GMT+08:00 Asia/Beijing,0871,25.04,102.7
Company Owned,北市区,昆明市,53,650000,GMT+08:00 Asia/Beijing,0871,25.1,102.74
Company Owned,五华区,昆明市,53,650000,GMT+08:00 Asia/Beijing,0871,25.04,102.71
Company Owned,滇池国家旅游度假区,昆明市,53,650000,GMT+08:00 Asia/Beijing,,24.99,102.68
Company Owned,西山区,昆明市,53,650200,GMT+08:00 Asia/Beijing,,24.99,102.68
Company Owned,西山区,昆明市,53,650200,GMT+08:00 Asia/Beijing,,25.01,102.71
Company Owned,西山区,昆明市,53,650200,GMT+08:00 Asia/Beijing,0871,25.01,102.68
Company Owned,北京路1079,昆明市,53,650200,GMT+08:00 Asia/Beijing,0871,25.08,102.73
Company Owned,五华区,昆明市,53,650000,GMT+08:00 Asia/Beijing,0871,25.04,102.71
Company Owned,官渡区,昆明市,53,650200,GMT+08:00 Asia/Beijing,,24.97,102.77
Company Owned,盘龙区,昆明市,53,650200,GMT+08:00 Asia/Beijing,0871,25.05,102.73
Company Owned,官渡区,昆明市,53,650200,GMT+08:00 Asia/Beijing,0871,25.1,102.93
Company Owned,五华区,昆明市,53,650000,GMT+08:00 Asia/Beijing,,25.05,102.71
Company Owned,盘龙区,昆明市,53,650200,GMT+08:00 Asia/Beijing,,25.07,102.72
Company Owned,五华区,昆明市,53,650000,GMT+08:00 Asia/Beijing,0871,25.04,102.71
Company Owned,官渡区,昆明市,53,650200,GMT+08:00 Asia/Beijing,0871,24.98,102.76
Company Owned,官渡区,昆明市,53,650200,GMT+08:00 Asia/Beijing,,24.96,102.75
Company Owned,昆明五华区,昆明市,53,650000,GMT+08:00 Asia/Beijing,0871,25.04,102.71
Company Owned,秦都区,咸阳市,61,712000,GMT+08:00 Asia/Beijing,,34.34,108.71
Company Owned,渭滨区,宝鸡市,61,721000,GMT+08:00 Asia/Beijing,,34.35,107.23
Company Owned,新城区,西安市,61,710000,GMT+08:00 Asia/Beijing,029,34.27,108.96
Company Owned,雁塔区,西安市,61,710000,GMT+08:00 Asia/Beijing,029,34.22,108.94
Company Owned,新城区,西安市,61,710000,GMT+08:00 Asia/Beijing,,34.27,108.96
Company Owned,曲江新区,西安市,61,101,GMT+08:00 Asia/Beijing,029,34.21,108.97
Company Owned,西大街1号钟鼓楼广场,西安市,61,710000,GMT+08:00 Asia/Beijing,029,34.26,108.95
Company Owned,雁塔区,西安市,61,710000,GMT+08:00 Asia/Beijing,,34.22,108.95
Company Owned,陕西省西安市经济技术开发区,西安市,61,710000,GMT+08:00 Asia/Beijing,029,34.34,108.94
Company Owned,咸阳机场,西安市,61,712000,GMT+08:00 Asia/Beijing,029,34.44,108.76
Company Owned,北部经济技术开发区,西安市,61,710000,GMT+08:00 Asia/Beijing,029,34.33,108.95
Company Owned,高新区,西安市,61,710000,GMT+08:00 Asia/Beijing,,34.22,108.9
Company Owned,曲江雁南路,西安市,61,710000,GMT+08:00 Asia/Beijing,029,34.21,108.96
Company Owned,长安区,西安市,61,710100,GMT+08:00 Asia/Beijing,,34.16,108.91
Company Owned,高新区,西安市,61,710000,GMT+08:00 Asia/Beijing,029,34.24,108.89
Company Owned,南二环太白路十字怡丰城,西安市,61,710000,GMT+08:00 Asia/Beijing,029,34.23,108.92
Company Owned,碑林区,西安市,61,710000,GMT+08:00 Asia/Beijing,029,34.24,108.96
Company Owned,莲湖区,西安市,61,710000,GMT+08:00 Asia/Beijing,,34.26,108.95
Company Owned,未央区,西安市,61,710000,GMT+08:00 Asia/Beijing,,34.32,108.97
Company Owned,碑林区,西安市,61,710000,GMT+08:00 Asia/Beijing,029,34.25,109.0
Company Owned,雁塔区,西安市,61,710000,GMT+08:00 Asia/Beijing,,34.17,108.87
Company Owned,科技路三十三号,西安市,61,710000,GMT+08:00 Asia/Beijing,029,34.23,108.9
Company Owned,东大街骡马市1号兴正元百货一楼,西安市,61,710000,GMT+08:00 Asia/Beijing,029,34.26,108.95
Company Owned,临潼区,西安市,61,710600,GMT+08:00 Asia/Beijing,,34.36,109.17
Company Owned,未央区,西安市,61,710000,GMT+08:00 Asia/Beijing,,34.29,108.95
Company Owned,雁塔区,西安市,61,710000,GMT+08:00 Asia/Beijing,029,34.23,108.97
Company Owned,高新区,西安市,61,710000,GMT+08:00 Asia/Beijing,,34.23,108.9
Company Owned,曲江新区,西安市,61,710000,GMT+08:00 Asia/Beijing,,34.2,108.99
Company Owned,莲湖区,西安市,61,710000,GMT+08:00 Asia/Beijing,,34.26,108.94
Company Owned,曲江新区,西安市,61,710000,GMT+08:00 Asia/Beijing,,34.21,108.96
Company Owned,曲江新区,西安市,61,710000,GMT+08:00 Asia/Beijing,029,34.22,108.96
Company Owned,高新区,西安市,61,710000,GMT+08:00 Asia/Beijing,029,34.24,108.89
Company Owned,未央经济技术开发区,西安市,61,710000,GMT+08:00 Asia/Beijing,029,34.34,108.94
Company Owned,未央经济技术开发区,西安市,61,710000,GMT+08:00 Asia/Beijing,,34.34,108.95
Company Owned,临潼区,西安市,61,710600,GMT+08:00 Asia/Beijing,,34.39,109.29
Company Owned,高新区,西安市,61,710000,GMT+08:00 Asia/Beijing,,34.23,108.9
Company Owned,碑林区,西安市,61,710000,GMT+08:00 Asia/Beijing,,34.24,108.95
Company Owned,雁塔区,西安市,61,710000,GMT+08:00 Asia/Beijing,,34.22,108.95
Company Owned,解放市场6号开元商城负一楼,西安市,61,710000,GMT+08:00 Asia/Beijing,,34.26,108.95
Company Owned,高新区,西安市,61,710000,GMT+08:00 Asia/Beijing,,34.19,108.88
Company Owned,劳动南路118号,西安市,61,710000,GMT+08:00 Asia/Beijing,029,34.25,108.91
Company Owned,未央区,西安市,61,710000,GMT+08:00 Asia/Beijing,,34.34,108.94
Company Owned,城关区,兰州市,62,730000,GMT+08:00 Asia/Beijing,0931,36.06,103.86
Company Owned,城关区,兰州市,62,730000,GMT+08:00 Asia/Beijing,,36.06,103.82
Company Owned,城关区,兰州市,62,730000,GMT+08:00 Asia/Beijing,,36.05,103.84
Company Owned,海湖新区,西宁市,63,810000,GMT+08:00 Asia/Beijing,,36.64,101.72
Company Owned,城西区,西宁市,63,810000,GMT+08:00 Asia/Beijing,,36.63,101.76
Company Owned,城西区,西宁市,63,810000,GMT+08:00 Asia/Beijing,,36.63,101.76
Company Owned,金凤区,银川市,64,750000,GMT+08:00 Asia/Beijing,,38.49,106.25
Company Owned,兴庆区,银川市,64,750000,GMT+08:00 Asia/Beijing,,38.46,106.28
