Province,City,County,Postcode,area_code
北京市,北京市,通县,101100,010
北京市,北京市,东城区,100000,010
北京市,北京市,西城区,100000,010
北京市,北京市,崇文区,100000,010
北京市,北京市,宣武区,100000,010
北京市,北京市,朝阳区,100000,010
北京市,北京市,丰台区,100000,010
北京市,北京市,石景山区,100000,010
北京市,北京市,海淀区,100000,010
北京市,北京市,门头沟区,102300,010
北京市,北京市,房山区,102400,010
北京市,北京市,通州区,101100,010
北京市,北京市,顺义区,101300,010
北京市,北京市,昌平区,102200,010
北京市,北京市,大兴区,102600,010
北京市,北京市,怀柔区,101400,010
北京市,北京市,平谷区,101200,010
北京市,北京市,密云区,101500,010
北京市,北京市,延庆区,102100,010
北京市,北京市,北京市,100000,010
天津市,天津市,蓟县,301900,022
天津市,天津市,滨海新区（原塘沽区）,300400,022
天津市,天津市,滨海新区（原汉沽区）,300400,022
天津市,天津市,滨海新区（原大港区）,300200,022
天津市,天津市,北辰区,300400,022
天津市,天津市,大港区,300200,022
天津市,天津市,东丽区,300300,022
天津市,天津市,汉沽区,300400,022
天津市,天津市,河北区,300100,022
天津市,天津市,河东区,300100,022
天津市,天津市,河西区,300200,022
天津市,天津市,红桥区,300100,022
天津市,天津市,津南区,300300,022
天津市,天津市,南开区,300100,022
天津市,天津市,塘沽区,300400,022
天津市,天津市,西青区,300300,022
天津市,天津市,和平区,300000,022
天津市,天津市,武清区,301700,022
天津市,天津市,宝坻区,301800,022
天津市,天津市,宁河区,301500,022
天津市,天津市,静海区,301600,022
天津市,天津市,天津市,300000,022
天津市,天津市,滨海新区,300400,022
河北省,邯郸市,邯郸市,056000,0310
河北省,邯郸市,邯山区,056000,0310
河北省,邯郸市,丛台区,056000,0310
河北省,邯郸市,复兴区,056000,0310
河北省,邯郸市,峰峰矿区,056200,0310
河北省,邯郸市,临漳县,056600,0310
河北省,邯郸市,成安县,056700,0310
河北省,邯郸市,大名县,056900,0310
河北省,邯郸市,涉县,056400,0310
河北省,邯郸市,磁县,056500,0310
河北省,邯郸市,魏县,056800,0310
河北省,邯郸市,武安市,056300,0310
河北省,邯郸市,肥乡区,057500,0310
河北省,邯郸市,馆陶县,057700,0310
河北省,邯郸市,广平县,057600,0310
河北省,邯郸市,邯郸县,056100,0310
河北省,邯郸市,鸡泽县,057300,0310
河北省,邯郸市,邱县,057400,0310
河北省,邯郸市,曲周县,057200,0310
河北省,邯郸市,永年区,057100,0310
河北省,邯郸市,丘县,057400,0310
河北省,石家庄市,石家庄市,050000,0311
河北省,石家庄市,长安区,050000,0311
河北省,石家庄市,桥东区,050000,0311
河北省,石家庄市,桥西区,050000,0311
河北省,石家庄市,新华区,050000,0311
河北省,石家庄市,井陉矿区,050100,0311
河北省,石家庄市,裕华区,050000,0311
河北省,石家庄市,井陉县,050300,0311
河北省,石家庄市,正定县,050800,0311
河北省,石家庄市,行唐县,050600,0311
河北省,石家庄市,灵寿县,050500,0311
河北省,石家庄市,深泽县,052500,0311
河北省,石家庄市,平山县,050400,0311
河北省,石家庄市,晋州市,052200,0311
河北省,石家庄市,新乐市,050700,0311
河北省,石家庄市,鹿泉区,050200,0311
河北省,石家庄市,高邑县,051300,0311
河北省,石家庄市,藁城区,052100,0311
河北省,石家庄市,栾城区,051400,0311
河北省,石家庄市,无极县,052400,0311
河北省,石家庄市,辛集市,052300,0311
河北省,石家庄市,元氏县,051100,0311
河北省,石家庄市,赞皇县,051200,0311
河北省,石家庄市,赵县,051500,0311
河北省,石家庄市,获鹿,050200,0311
河北省,保定市,保定市,071000,0312
河北省,保定市,竞秀区,071000,0312
河北省,保定市,莲池区,071000,0312
河北省,保定市,清苑区,071100,0312
河北省,保定市,涞水县,074100,0312
河北省,保定市,阜平县,073200,0312
河北省,保定市,高阳县,071500,0312
河北省,保定市,容城县,071700,0312
河北省,保定市,涞源县,074300,0312
河北省,保定市,安新县,071600,0312
河北省,保定市,易县,074200,0312
河北省,保定市,曲阳县,073100,0312
河北省,保定市,蠡县,071400,0312
河北省,保定市,博野县,071300,0312
河北省,保定市,雄县,071800,0312
河北省,保定市,定州市,073000,0312
河北省,保定市,安国市,071200,0312
河北省,保定市,高碑店市,074000,0312
河北省,保定市,定兴县,072600,0312
河北省,保定市,满城区,072100,0312
河北省,保定市,顺平县,072200,0312
河北省,保定市,唐县,072300,0312
河北省,保定市,望都县,072400,0312
河北省,保定市,徐水区,072500,0312
河北省,保定市,涿州市,072700,0312
河北省,保定市,潢城,072100,0312
河北省,保定市,南市区,071000,0312
河北省,张家口市,张家口市,075000,0313
河北省,张家口市,桥东区,075000,0313
河北省,张家口市,桥西区,075000,0313
河北省,张家口市,下花园区,075300,0313
河北省,张家口市,宣化县,075100,0313
河北省,张家口市,蔚县,075700,0313
河北省,张家口市,阳原县,075800,0313
河北省,张家口市,怀来县,075400,0313
河北省,张家口市,涿鹿县,075600,0313
河北省,张家口市,赤城县,075500,0313
河北省,张家口市,崇礼区,076300,0313
河北省,张家口市,沽源县,076500,0313
河北省,张家口市,怀安县,076100,0313
河北省,张家口市,康保县,076600,0313
河北省,张家口市,尚义县,076700,0313
河北省,张家口市,万全区,076200,0313
河北省,张家口市,宣化区,075100,0313
河北省,张家口市,张北县,076400,0313
河北省,承德市,承德市,067000,0314
河北省,承德市,双桥区,067000,0314
河北省,承德市,鹰手营子矿区,067200,0314
河北省,承德市,承德县,067400,0314
河北省,承德市,兴隆县,067300,0314
河北省,承德市,平泉县,067500,0314
河北省,承德市,宽城满族自治县,067600,0314
河北省,承德市,丰宁满族自治县,068300,0314
河北省,承德市,隆化县,068100,0314
河北省,承德市,滦平县,068200,0314
河北省,承德市,双滦区,067100,0314
河北省,承德市,围场满族蒙古族自治县,068400,0314
河北省,唐山市,唐山市,063000,0315
河北省,唐山市,路北区,063000,0315
河北省,唐山市,古冶区,063100,0315
河北省,唐山市,开平区,063000,0315
河北省,唐山市,丰南区,063300,0315
河北省,唐山市,滦县,063700,0315
河北省,唐山市,滦南县,063500,0315
河北省,唐山市,乐亭县,063600,0315
河北省,唐山市,迁西县,064300,0315
河北省,唐山市,玉田县,064100,0315
河北省,唐山市,遵化市,064200,0315
河北省,唐山市,迁安市,064400,0315
河北省,唐山市,路南区,063000,0315
河北省,唐山市,丰润区,064000,0315
河北省,唐山市,曹妃甸区,063200,0315
河北省,廊坊市,廊坊市,065000,0316
河北省,廊坊市,安次区,065000,0316
河北省,廊坊市,广阳区,065000,0316
河北省,廊坊市,固安县,065500,0316
河北省,廊坊市,永清县,065600,0316
河北省,廊坊市,香河县,065400,0316
河北省,廊坊市,大城县,065900,0316
河北省,廊坊市,文安县,065800,0316
河北省,廊坊市,大厂回族自治县,065300,0316
河北省,廊坊市,霸州市,065700,0316
河北省,廊坊市,三河市,065200,0316
河北省,沧州市,沧州市,061000,0317
河北省,沧州市,黄骅市,061100,0317
河北省,沧州市,孟村回族自治县,061400,0317
河北省,沧州市,新华区,061000,0317
河北省,沧州市,运河区,061000,0317
河北省,沧州市,东光县,061600,0317
河北省,沧州市,海兴县,061200,0317
河北省,沧州市,盐山县,061300,0317
河北省,沧州市,南皮县,061500,0317
河北省,沧州市,吴桥县,061800,0317
河北省,沧州市,泊头市,062100,0317
河北省,沧州市,沧县,061700,0317
河北省,沧州市,河间市,062400,0317
河北省,沧州市,青县,062600,0317
河北省,沧州市,任丘市,062500,0317
河北省,沧州市,肃宁县,062300,0317
河北省,沧州市,献县,062200,0317
河北省,衡水市,衡水市,053000,0318
河北省,衡水市,桃城区,053000,0318
河北省,衡水市,枣强县,053100,0318
河北省,衡水市,武邑县,053400,0318
河北省,衡水市,武强县,053300,0318
河北省,衡水市,饶阳县,053900,0318
河北省,衡水市,安平县,053600,0318
河北省,衡水市,景县,053500,0318
河北省,衡水市,阜城县,053700,0318
河北省,衡水市,冀州区,053200,0318
河北省,衡水市,深州市,053800,0318
河北省,衡水市,冀县,053200,0318
河北省,衡水市,铙阳,052700,0318
河北省,衡水市,故城县,053800,0318
河北省,邢台市,邢台市,054000,0319
河北省,邢台市,沙河市,054100,0319
河北省,邢台市,威县,054700,0319
河北省,邢台市,清河县,054800,0319
河北省,邢台市,临西县,054900,0319
河北省,邢台市,南和县,054400,0319
河北省,邢台市,广宗县,054600,0319
河北省,邢台市,平乡县,054500,0319
河北省,邢台市,桥东区,054000,0319
河北省,邢台市,桥西区,054000,0319
河北省,邢台市,邢台县,054000,0319
河北省,邢台市,临城县,054300,0319
河北省,邢台市,内邱县,054200,0319
河北省,邢台市,柏乡县,055400,0319
河北省,邢台市,巨鹿县,055200,0319
河北省,邢台市,隆尧县,055300,0319
河北省,邢台市,南宫市,055700,0319
河北省,邢台市,宁晋县,055500,0319
河北省,邢台市,任县,055100,0319
河北省,邢台市,新河县,055600,0319
河北省,邢台市,内丘县,054200,0319
河北省,秦皇岛市,秦皇岛市,066000,0335
河北省,秦皇岛市,海港区,066000,0335
河北省,秦皇岛市,山海关区,066200,0335
河北省,秦皇岛市,卢龙县,066400,0335
河北省,秦皇岛市,北戴河区,066100,0335
河北省,秦皇岛市,青龙满族自治县,066500,0335
河北省,秦皇岛市,昌黎县,066600,0335
河北省,秦皇岛市,抚宁区,066300,0335
河北省,秦皇岛市,经济技术开发区,066000,0335
河北省,雄安新区,雄安新区,071700,0312
山西省,朔州市,朔州市,036000,0349
山西省,朔州市,平鲁区,036800,0349
山西省,朔州市,山阴县,036900,0349
山西省,朔州市,应县,037600,0349
山西省,朔州市,右玉县,037200,0349
山西省,朔州市,怀仁县,038300,0349
山西省,朔州市,朔城区,036000,0349
山西省,忻州市,忻州市,034000,0350
山西省,忻州市,忻府区,034000,0350
山西省,忻州市,定襄县,035400,0350
山西省,忻州市,五台县,035500,0350
山西省,忻州市,代县,034200,0350
山西省,忻州市,繁峙县,034300,0350
山西省,忻州市,静乐县,035100,0350
山西省,忻州市,神池县,036100,0350
山西省,忻州市,五寨县,036200,0350
山西省,忻州市,岢岚县,036300,0350
山西省,忻州市,河曲县,036500,0350
山西省,忻州市,保德县,036600,0350
山西省,忻州市,偏关县,036400,0350
山西省,忻州市,原平市,034100,0350
山西省,忻州市,宁武县,036700,0350
山西省,太原市,太原市,030000,0351
山西省,太原市,小店区,030000,0351
山西省,太原市,迎泽区,030000,0351
山西省,太原市,杏花岭区,030000,0351
山西省,太原市,尖草坪区,030000,0351
山西省,太原市,万柏林区,030000,0351
山西省,太原市,晋源区,030000,0351
山西省,太原市,清徐县,030400,0351
山西省,太原市,阳曲县,030100,0351
山西省,太原市,娄烦县,030300,0351
山西省,太原市,古交市,030200,0351
山西省,大同市,大同市,037000,0352
山西省,大同市,城区,037000,0352
山西省,大同市,矿区,037000,0352
山西省,大同市,南郊区,037000,0352
山西省,大同市,新荣区,037000,0352
山西省,大同市,阳高县,038100,0352
山西省,大同市,天镇县,038200,0352
山西省,大同市,广灵县,037500,0352
山西省,大同市,灵丘县,034400,0352
山西省,大同市,浑源县,037400,0352
山西省,大同市,左云县,037100,0352
山西省,大同市,大同县,037300,0352
山西省,阳泉市,阳泉市,045000,0353
山西省,阳泉市,城区,045000,0353
山西省,阳泉市,矿区,045000,0353
山西省,阳泉市,郊区,045000,0353
山西省,阳泉市,平定县,045200,0353
山西省,阳泉市,盂县,045100,0353
山西省,阳泉市,孟县,045100,0353
山西省,晋中市,晋中市,030600,0354
山西省,晋中市,灵石县,031300,0354
山西省,晋中市,介休市,032000,0354
山西省,晋中市,榆次区,030600,0354
山西省,晋中市,榆社县,031800,0354
山西省,晋中市,左权县,032600,0354
山西省,晋中市,和顺县,032700,0354
山西省,晋中市,昔阳县,045300,0354
山西省,晋中市,寿阳县,045400,0354
山西省,晋中市,太谷县,030800,0354
山西省,晋中市,祁县,030900,0354
山西省,晋中市,平遥县,031100,0354
山西省,长治市,长治市,046000,0355
山西省,长治市,平顺县,047400,0355
山西省,长治市,黎城县,047600,0355
山西省,长治市,壶关县,047300,0355
山西省,长治市,长子县,046600,0355
山西省,长治市,武乡县,046300,0355
山西省,长治市,沁县,046400,0355
山西省,长治市,沁源县,046500,0355
山西省,长治市,潞城市,047500,0355
山西省,长治市,城区,046000,0355
山西省,长治市,郊区,046000,0355
山西省,长治市,长治县,047100,0355
山西省,长治市,襄垣县,046200,0355
山西省,长治市,屯留县,046100,0355
山西省,晋城市,晋城市,048000,0356
山西省,晋城市,陵川县,048300,0356
山西省,晋城市,泽州县,048000,0356
山西省,晋城市,城区,048000,0356
山西省,晋城市,沁水县,048200,0356
山西省,晋城市,阳城县,048100,0356
山西省,晋城市,高平市,048400,0356
山西省,临汾市,临汾市,041000,0357
山西省,临汾市,尧都区,041000,0357
山西省,临汾市,曲沃县,043400,0357
山西省,临汾市,翼城县,043500,0357
山西省,临汾市,襄汾县,041500,0357
山西省,临汾市,古县,042400,0357
山西省,临汾市,安泽县,042500,0357
山西省,临汾市,浮山县,042600,0357
山西省,临汾市,吉县,042200,0357
山西省,临汾市,乡宁县,042100,0357
山西省,临汾市,大宁县,042300,0357
山西省,临汾市,隰县,041300,0357
山西省,临汾市,永和县,041400,0357
山西省,临汾市,蒲县,041200,0357
山西省,临汾市,汾西县,031500,0357
山西省,临汾市,侯马市,043000,0357
山西省,临汾市,霍州市,031400,0357
山西省,临汾市,候马,043000,0357
山西省,临汾市,洪洞县,031600,0357
山西省,吕梁市,吕梁市,033000,0358
山西省,吕梁市,离石区,033000,0358
山西省,吕梁市,文水县,032100,0358
山西省,吕梁市,交城县,030500,0358
山西省,吕梁市,临县,033200,0358
山西省,吕梁市,柳林县,033300,0358
山西省,吕梁市,石楼县,032500,0358
山西省,吕梁市,方山县,033100,0358
山西省,吕梁市,中阳县,033400,0358
山西省,吕梁市,交口县,032400,0358
山西省,吕梁市,孝义市,032300,0358
山西省,吕梁市,汾阳市,032200,0358
山西省,吕梁市,兴县,033600,0358
山西省,吕梁市,岚县,033500,0358
山西省,运城市,运城市,044000,0359
山西省,运城市,盐湖区,044000,0359
山西省,运城市,临猗县,044100,0359
山西省,运城市,万荣县,044200,0359
山西省,运城市,闻喜县,043800,0359
山西省,运城市,稷山县,043200,0359
山西省,运城市,新绛县,043100,0359
山西省,运城市,绛县,043600,0359
山西省,运城市,垣曲县,043700,0359
山西省,运城市,夏县,044400,0359
山西省,运城市,平陆县,044300,0359
山西省,运城市,芮城县,044600,0359
山西省,运城市,永济市,044500,0359
山西省,运城市,河津市,043300,0359
山西省,运城市,永剂,044500,0359
内蒙古自治区,锡林郭勒盟,锡林郭勒盟,026000,0479
内蒙古自治区,锡林郭勒盟,锡林浩特市,026000,0479
内蒙古自治区,锡林郭勒盟,阿巴嘎旗,011400,0479
内蒙古自治区,锡林郭勒盟,多伦县,027300,0479
内蒙古自治区,锡林郭勒盟,苏尼特左旗,011300,0479
内蒙古自治区,锡林郭勒盟,苏尼特右旗,011200,0479
内蒙古自治区,锡林郭勒盟,东乌珠穆沁旗,026300,0479
内蒙古自治区,锡林郭勒盟,西乌珠穆沁旗,026200,0479
内蒙古自治区,锡林郭勒盟,太仆寺旗,027000,0479
内蒙古自治区,锡林郭勒盟,正镶白旗,013800,0479
内蒙古自治区,锡林郭勒盟,正蓝旗,027200,0479
内蒙古自治区,锡林郭勒盟,二连浩特市,011100,0479
内蒙古自治区,锡林郭勒盟,镶黄旗,013200,0479
内蒙古自治区,锡林郭勒盟,阿马嗄旗,026100,0479
内蒙古自治区,兴安盟,兴安盟,137400,0482
内蒙古自治区,兴安盟,科尔沁右翼中旗,029400,0482
内蒙古自治区,兴安盟,扎赉特旗,137600,0482
内蒙古自治区,兴安盟,突泉县,137500,0482
内蒙古自治区,兴安盟,乌兰浩特市,137400,0482
内蒙古自治区,兴安盟,科右中旗,029400,0482
内蒙古自治区,兴安盟,阿尔山市,137800,0482
内蒙古自治区,兴安盟,科尔沁右翼前旗,137700,0482
内蒙古自治区,阿拉善盟,阿拉善盟,750300,0483
内蒙古自治区,阿拉善盟,阿拉善左旗,750300,0483
内蒙古自治区,阿拉善盟,阿拉善右旗,737300,0483
内蒙古自治区,阿拉善盟,额济纳旗,735400,0483
内蒙古自治区,呼伦贝尔市,呼伦贝尔市,021000,0470
内蒙古自治区,呼伦贝尔市,海拉尔区,021000,0470
内蒙古自治区,呼伦贝尔市,鄂伦春自治旗,022400,0470
内蒙古自治区,呼伦贝尔市,鄂温克自治旗,021100,0470
内蒙古自治区,呼伦贝尔市,陈巴尔虎旗,021500,0470
内蒙古自治区,呼伦贝尔市,新巴尔虎左旗,021200,0470
内蒙古自治区,呼伦贝尔市,新巴尔虎右旗,021300,0470
内蒙古自治区,呼伦贝尔市,满洲里市,021400,0470
内蒙古自治区,呼伦贝尔市,阿荣旗,162700,0470
内蒙古自治区,呼伦贝尔市,额尔古纳市,022200,0470
内蒙古自治区,呼伦贝尔市,根河市,022300,0470
内蒙古自治区,呼伦贝尔市,莫力达瓦达斡尔族自治旗,162800,0470
内蒙古自治区,呼伦贝尔市,牙克石市,022100,0470
内蒙古自治区,呼伦贝尔市,扎兰屯市,162600,0470
内蒙古自治区,呼伦贝尔市,额尔古纳右旗,022200,0470
内蒙古自治区,呼伦贝尔市,莫力达瓦旗,162800,0470
内蒙古自治区,呼伦贝尔市,扎赉诺尔区,021400,0470
内蒙古自治区,呼和浩特市,呼和浩特市,010000,0471
内蒙古自治区,呼和浩特市,新城区,010000,0471
内蒙古自治区,呼和浩特市,回民区,010000,0471
内蒙古自治区,呼和浩特市,玉泉区,010000,0471
内蒙古自治区,呼和浩特市,土默特左旗,010100,0471
内蒙古自治区,呼和浩特市,托克托县,010200,0471
内蒙古自治区,呼和浩特市,和林格尔县,011500,0471
内蒙古自治区,呼和浩特市,清水河县,011600,0471
内蒙古自治区,呼和浩特市,武川县,011700,0471
内蒙古自治区,呼和浩特市,赛罕区,010000,0471
内蒙古自治区,包头市,包头市,014000,0472
内蒙古自治区,包头市,东河区,014000,0472
内蒙古自治区,包头市,青山区,014000,0472
内蒙古自治区,包头市,白云矿区,014000,0472
内蒙古自治区,包头市,土默特右旗,014100,0472
内蒙古自治区,包头市,固阳县,014200,0472
内蒙古自治区,包头市,达尔罕茂明安联合旗,014500,0472
内蒙古自治区,包头市,白云鄂博矿区,014000,0472
内蒙古自治区,包头市,九原区,014000,0472
内蒙古自治区,包头市,石拐区,014000,0472
内蒙古自治区,包头市,昆都仑区,014000,0472
内蒙古自治区,包头市,白云鄂博,014000,0472
内蒙古自治区,包头市,达茂旗,014300,0472
内蒙古自治区,乌海市,乌海市,016000,0473
内蒙古自治区,乌海市,海勃湾区,016000,0473
内蒙古自治区,乌海市,海南区,016000,0473
内蒙古自治区,乌海市,乌达区,016000,0473
内蒙古自治区,乌兰察布市,乌兰察布市,012000,0474
内蒙古自治区,乌兰察布市,集宁区,012000,0474
内蒙古自治区,乌兰察布市,卓资县,012300,0474
内蒙古自治区,乌兰察布市,商都县,013400,0474
内蒙古自治区,乌兰察布市,察哈尔右翼前旗,012200,0474
内蒙古自治区,乌兰察布市,察哈尔右翼中旗,013500,0474
内蒙古自治区,乌兰察布市,察哈尔右翼后旗,012400,0474
内蒙古自治区,乌兰察布市,四子王旗,011800,0474
内蒙古自治区,乌兰察布市,丰镇市,012100,0474
内蒙古自治区,乌兰察布市,化德县,013300,0474
内蒙古自治区,乌兰察布市,凉城县,013700,0474
内蒙古自治区,乌兰察布市,兴和县,013600,0474
内蒙古自治区,通辽市,通辽市,028000,0475
内蒙古自治区,通辽市,科尔沁区,028000,0475
内蒙古自治区,通辽市,科尔沁左翼中旗,029300,0475
内蒙古自治区,通辽市,科尔沁左翼后旗,028100,0475
内蒙古自治区,通辽市,开鲁县,028400,0475
内蒙古自治区,通辽市,库伦旗,028200,0475
内蒙古自治区,通辽市,奈曼旗,028300,0475
内蒙古自治区,通辽市,扎鲁特旗,029100,0475
内蒙古自治区,通辽市,霍林郭勒市,029200,0475
内蒙古自治区,赤峰市,赤峰市,024000,0476
内蒙古自治区,赤峰市,敖汉旗,024300,0476
内蒙古自治区,赤峰市,红山区,024000,0476
内蒙古自治区,赤峰市,元宝山区,024000,0476
内蒙古自治区,赤峰市,松山区,024000,0476
内蒙古自治区,赤峰市,阿鲁科尔沁旗,025500,0476
内蒙古自治区,赤峰市,翁牛特旗,024500,0476
内蒙古自治区,赤峰市,喀喇沁旗,024400,0476
内蒙古自治区,赤峰市,宁城县,024200,0476
内蒙古自治区,赤峰市,巴林右旗,025100,0476
内蒙古自治区,赤峰市,巴林左旗,025400,0476
内蒙古自治区,赤峰市,克什克腾旗,025300,0476
内蒙古自治区,赤峰市,林西县,025200,0476
内蒙古自治区,鄂尔多斯市,鄂尔多斯市,017000,0477
内蒙古自治区,鄂尔多斯市,东胜区,017000,0477
内蒙古自治区,鄂尔多斯市,达拉特旗,014300,0477
内蒙古自治区,鄂尔多斯市,准格尔旗,017100,0477
内蒙古自治区,鄂尔多斯市,鄂托克前旗,016200,0477
内蒙古自治区,鄂尔多斯市,鄂托克旗,016100,0477
内蒙古自治区,鄂尔多斯市,伊金霍洛旗,017200,0477
内蒙古自治区,鄂尔多斯市,杭锦旗,017400,0477
内蒙古自治区,鄂尔多斯市,乌审旗,017300,0477
内蒙古自治区,巴彦淖尔市,巴彦淖尔市,015000,0478
内蒙古自治区,巴彦淖尔市,杭锦后旗,015400,0478
内蒙古自治区,巴彦淖尔市,临河区,015000,0478
内蒙古自治区,巴彦淖尔市,五原县,015100,0478
内蒙古自治区,巴彦淖尔市,磴口县,015200,0478
内蒙古自治区,巴彦淖尔市,乌拉特后旗,015500,0478
内蒙古自治区,巴彦淖尔市,乌拉特中旗,015300,0478
内蒙古自治区,巴彦淖尔市,乌拉特前旗,014400,0478
辽宁省,沈阳市,沈阳市,110000,024
辽宁省,沈阳市,和平区,110000,024
辽宁省,沈阳市,沈河区,110000,024
辽宁省,沈阳市,大东区,110000,024
辽宁省,沈阳市,皇姑区,110000,024
辽宁省,沈阳市,苏家屯区,110100,024
辽宁省,沈阳市,辽中区,110200,024
辽宁省,沈阳市,康平县,110500,024
辽宁省,沈阳市,法库县,110400,024
辽宁省,沈阳市,新民市,110300,024
辽宁省,沈阳市,浑南区,110100,024
辽宁省,沈阳市,沈北新区,110100,024
辽宁省,沈阳市,铁西区,110000,024
辽宁省,沈阳市,于洪区,110100,024
辽宁省,沈阳市,东陵区,110000,024
辽宁省,抚顺市,抚顺市,113000,024
辽宁省,抚顺市,新抚区,113000,024
辽宁省,抚顺市,东洲区,113000,024
辽宁省,抚顺市,望花区,113000,024
辽宁省,抚顺市,顺城区,113000,024
辽宁省,抚顺市,抚顺县,113100,024
辽宁省,抚顺市,新宾满族自治县,113200,024
辽宁省,抚顺市,清原满族自治县,113300,024
辽宁省,铁岭市,铁岭市,112000,024
辽宁省,铁岭市,铁法,112700,024
辽宁省,铁岭市,调兵山市,112700,024
辽宁省,铁岭市,开原市,112300,024
辽宁省,铁岭市,昌图县,112500,024
辽宁省,铁岭市,西丰县,112400,024
辽宁省,铁岭市,铁岭县,112600,024
辽宁省,铁岭市,清河区,112000,024
辽宁省,铁岭市,银州区,112000,024
辽宁省,大连市,大连市,116000,0411
辽宁省,大连市,中山区,116000,0411
辽宁省,大连市,西岗区,116000,0411
辽宁省,大连市,沙河口区,116000,0411
辽宁省,大连市,甘井子区,116000,0411
辽宁省,大连市,旅顺口区,116000,0411
辽宁省,大连市,长海县,116500,0411
辽宁省,大连市,瓦房店市,116300,0411
辽宁省,大连市,普兰店区,116200,0411
辽宁省,大连市,庄河市,116400,0411
辽宁省,大连市,金州区,116600,0411
辽宁省,大连市,金县,116100,0411
辽宁省,大连市,新金,116200,0411
辽宁省,鞍山市,鞍山市,114000,0412
辽宁省,鞍山市,铁东区,114000,0412
辽宁省,鞍山市,铁西区,114000,0412
辽宁省,鞍山市,立山区,114000,0412
辽宁省,鞍山市,千山区,114000,0412
辽宁省,鞍山市,台安县,114100,0412
辽宁省,鞍山市,海城市,114200,0412
辽宁省,鞍山市,岫岩满族自治县,114300,0412
辽宁省,本溪市,本溪市,117000,024
辽宁省,本溪市,平山区,117000,024
辽宁省,本溪市,溪湖区,117000,024
辽宁省,本溪市,明山区,117000,024
辽宁省,本溪市,南芬区,117000,024
辽宁省,本溪市,本溪满族自治县,117100,024
辽宁省,本溪市,桓仁满族自治县,117200,024
辽宁省,本溪市,本溪县,117100,024
辽宁省,丹东市,丹东市,118000,0415
辽宁省,丹东市,元宝区,118000,0415
辽宁省,丹东市,振兴区,118000,0415
辽宁省,丹东市,振安区,118000,0415
辽宁省,丹东市,宽甸满族自治县,118200,0415
辽宁省,丹东市,东港市,118300,0415
辽宁省,丹东市,凤城市,118100,0415
辽宁省,锦州市,锦州市,121000,0416
辽宁省,锦州市,古塔区,121000,0416
辽宁省,锦州市,凌河区,121000,0416
辽宁省,锦州市,太和区,121000,0416
辽宁省,锦州市,黑山县,121400,0416
辽宁省,锦州市,义县,121100,0416
辽宁省,锦州市,凌海市,121200,0416
辽宁省,锦州市,北镇市,121300,0416
辽宁省,锦州市,北宁,121300,0416
辽宁省,营口市,营口市,115000,0417
辽宁省,营口市,站前区,115000,0417
辽宁省,营口市,西市区,115000,0417
辽宁省,营口市,鲅鱼圈区,115000,0417
辽宁省,营口市,老边区,115000,0417
辽宁省,营口市,盖州市,115200,0417
辽宁省,营口市,大石桥市,115100,0417
辽宁省,阜新市,阜新市,123000,0418
辽宁省,阜新市,海州区,123000,0418
辽宁省,阜新市,新邱区,123000,0418
辽宁省,阜新市,太平区,123000,0418
辽宁省,阜新市,清河门区,123000,0418
辽宁省,阜新市,细河区,123000,0418
辽宁省,阜新市,阜新蒙古族自治县,123100,0418
辽宁省,阜新市,彰武县,123200,0418
辽宁省,阜新市,阜新县,123100,0418
辽宁省,辽阳市,辽阳市,111000,0419
辽宁省,辽阳市,白塔区,111000,0419
辽宁省,辽阳市,文圣区,111000,0419
辽宁省,辽阳市,宏伟区,111000,0419
辽宁省,辽阳市,弓长岭区,111000,0419
辽宁省,辽阳市,太子河区,111000,0419
辽宁省,辽阳市,辽阳县,111200,0419
辽宁省,辽阳市,灯塔市,111300,0419
辽宁省,朝阳市,朝阳市,122000,0421
辽宁省,朝阳市,双塔区,122000,0421
辽宁省,朝阳市,龙城区,122000,0421
辽宁省,朝阳市,建平县,122400,0421
辽宁省,朝阳市,北票市,122100,0421
辽宁省,朝阳市,凌源市,122500,0421
辽宁省,朝阳市,朝阳县,122600,0421
辽宁省,朝阳市,喀喇沁左翼蒙古族自治县,122300,0421
辽宁省,盘锦市,盘锦市,124000,0427
辽宁省,盘锦市,双台子区,124000,0427
辽宁省,盘锦市,兴隆台区,124000,0427
辽宁省,盘锦市,大洼区,124200,0427
辽宁省,盘锦市,盘山县,124100,0427
辽宁省,葫芦岛市,葫芦岛市,125000,0429
辽宁省,葫芦岛市,连山区,125000,0429
辽宁省,葫芦岛市,龙港区,125000,0429
辽宁省,葫芦岛市,绥中县,125200,0429
辽宁省,葫芦岛市,建昌县,125300,0429
辽宁省,葫芦岛市,兴城市,125100,0429
辽宁省,葫芦岛市,南票区,125000,0429
吉林省,四平市,四平市,136000,0434
吉林省,四平市,铁西区,136000,0434
吉林省,四平市,铁东区,136000,0434
吉林省,四平市,伊通满族自治县,130700,0434
吉林省,四平市,公主岭市,136100,0434
吉林省,四平市,双辽市,136400,0434
吉林省,四平市,梨树县,136500,0434
吉林省,通化市,通化市,134000,0435
吉林省,通化市,二道江区,134000,0435
吉林省,通化市,通化县,134100,0435
吉林省,通化市,辉南县,135100,0435
吉林省,通化市,集安市,134200,0435
吉林省,通化市,梅河口市,135000,0435
吉林省,通化市,东昌区,134000,0435
吉林省,通化市,柳河县,135300,0435
吉林省,白城市,白城市,137000,0436
吉林省,白城市,洮南市,137100,0436
吉林省,白城市,大安市,131300,0436
吉林省,白城市,镇赉县,137300,0436
吉林省,白城市,通榆县,137200,0436
吉林省,白城市,洮北区,137000,0436
吉林省,辽源市,辽源市,136200,0437
吉林省,辽源市,东辽县,136600,0437
吉林省,辽源市,西安区,136200,0437
吉林省,辽源市,东丰县,136300,0437
吉林省,辽源市,龙山区,136200,0437
吉林省,松原市,松原市,138000,0438
吉林省,松原市,前郭尔罗斯蒙古族自治县,131100,0438
吉林省,松原市,乾安县,131400,0438
吉林省,松原市,扶余市,131200,0438
吉林省,松原市,宁江区,138000,0438
吉林省,松原市,长岭县,131500,0438
吉林省,白山市,白山市,134300,0439
吉林省,白山市,临江市,134600,0439
吉林省,白山市,八道江区,134300,0439
吉林省,白山市,江源区,134700,0439
吉林省,白山市,抚松县,134500,0439
吉林省,白山市,长白朝鲜族自治县,134400,0439
吉林省,白山市,靖宇县,135200,0439
吉林省,白山市,浑江区,134300,0439
吉林省,长春市,长春市,130000,0431
吉林省,长春市,南关区,130000,0431
吉林省,长春市,宽城区,130000,0431
吉林省,长春市,朝阳区,130000,0431
吉林省,长春市,二道区,130000,0431
吉林省,长春市,双阳区,130600,0431
吉林省,长春市,农安县,130200,0431
吉林省,长春市,九台市,130500,0431
吉林省,长春市,德惠市,130300,0431
吉林省,长春市,绿园区,130000,0431
吉林省,长春市,榆树市,130400,0431
吉林省,吉林市,吉林市,132000,0432
吉林省,吉林市,昌邑区,132000,0432
吉林省,吉林市,龙潭区,132000,0432
吉林省,吉林市,丰满区,132000,0432
吉林省,吉林市,蛟河市,132500,0432
吉林省,吉林市,桦甸市,132400,0432
吉林省,吉林市,舒兰市,132600,0432
吉林省,吉林市,磐石市,132300,0432
吉林省,吉林市,永吉县,132200,0432
吉林省,吉林市,船营区,132000,0432
吉林省,延边朝鲜族自治州,延边朝鲜族自治州,133000,0433
吉林省,延边朝鲜族自治州,延吉市,133000,0433
吉林省,延边朝鲜族自治州,敦化市,133700,0433
吉林省,延边朝鲜族自治州,珲春市,133300,0433
吉林省,延边朝鲜族自治州,龙井市,133400,0433
吉林省,延边朝鲜族自治州,和龙市,133500,0433
吉林省,延边朝鲜族自治州,安图县,133600,0433
吉林省,延边朝鲜族自治州,图们市,133100,0433
吉林省,延边朝鲜族自治州,汪清县,133200,0433
黑龙江省,大兴安岭地区,大兴安岭地区,165000,0457
黑龙江省,大兴安岭地区,呼玛县,165100,0457
黑龙江省,大兴安岭地区,塔河县,165200,0457
黑龙江省,大兴安岭地区,漠河县,165300,0457
黑龙江省,大兴安岭地区,呼中区,165000,0457
黑龙江省,大兴安岭地区,松岭区,165000,0457
黑龙江省,大兴安岭地区,新林区,165000,0457
黑龙江省,大兴安岭地区,加格达奇,165000,0457
黑龙江省,伊春市,伊春市,153000,0458
黑龙江省,伊春市,友好区,153000,0458
黑龙江省,伊春市,西林区,153000,0458
黑龙江省,伊春市,翠峦区,153000,0458
黑龙江省,伊春市,新青区,153000,0458
黑龙江省,伊春市,金山屯区,153000,0458
黑龙江省,伊春市,五营区,153000,0458
黑龙江省,伊春市,乌马河区,153000,0458
黑龙江省,伊春市,乌伊岭区,153000,0458
黑龙江省,伊春市,红星区,153000,0458
黑龙江省,伊春市,上甘岭区,153000,0458
黑龙江省,伊春市,嘉荫县,153200,0458
黑龙江省,伊春市,带岭区,153100,0458
黑龙江省,伊春市,南岔区,153100,0458
黑龙江省,伊春市,铁力市,152500,0458
黑龙江省,伊春市,伊春区,153000,0458
黑龙江省,伊春市,美溪区,153000,0458
黑龙江省,伊春市,汤旺河区,153000,0458
黑龙江省,大庆市,大庆市,163000,0459
黑龙江省,大庆市,林甸县,166300,0459
黑龙江省,大庆市,肇州县,166400,0459
黑龙江省,大庆市,肇源县,166500,0459
黑龙江省,大庆市,大同区,163500,0459
黑龙江省,大庆市,红岗区,163500,0459
黑龙江省,大庆市,让胡路区,163400,0459
黑龙江省,大庆市,萨尔图区,163300,0459
黑龙江省,大庆市,杜尔伯特蒙古族自治县,166200,0459
黑龙江省,大庆市,龙凤区,163700,0459
黑龙江省,七台河市,七台河市,154600,0464
黑龙江省,七台河市,新兴区,154600,0464
黑龙江省,七台河市,桃山区,154600,0464
黑龙江省,七台河市,茄子河区,154600,0464
黑龙江省,七台河市,勃利县,154500,0464
黑龙江省,鸡西市,鸡西市,158100,0467
黑龙江省,鸡西市,鸡冠区,158100,0467
黑龙江省,鸡西市,恒山区,158100,0467
黑龙江省,鸡西市,滴道区,158100,0467
黑龙江省,鸡西市,城子河区,158100,0467
黑龙江省,鸡西市,麻山区,158100,0467
黑龙江省,鸡西市,鸡东县,158200,0467
黑龙江省,鸡西市,虎林市,158400,0467
黑龙江省,鸡西市,密山市,158300,0467
黑龙江省,鸡西市,梨树区,158100,0467
黑龙江省,鹤岗市,鹤岗市,154100,0468
黑龙江省,鹤岗市,向阳区,154100,0468
黑龙江省,鹤岗市,工农区,154100,0468
黑龙江省,鹤岗市,南山区,154100,0468
黑龙江省,鹤岗市,兴安区,154100,0468
黑龙江省,鹤岗市,东山区,154100,0468
黑龙江省,鹤岗市,萝北县,154200,0468
黑龙江省,鹤岗市,绥滨县,156200,0468
黑龙江省,鹤岗市,兴山区,154100,0468
黑龙江省,双鸭山市,双鸭山市,155100,0469
黑龙江省,双鸭山市,尖山区,155100,0469
黑龙江省,双鸭山市,岭东区,155100,0469
黑龙江省,双鸭山市,宝山区,155100,0469
黑龙江省,双鸭山市,集贤县,155900,0469
黑龙江省,双鸭山市,友谊县,155800,0469
黑龙江省,双鸭山市,宝清县,155600,0469
黑龙江省,双鸭山市,四方台区,155100,0469
黑龙江省,双鸭山市,饶河县,155700,0469
黑龙江省,哈尔滨市,哈尔滨市,150000,0451
黑龙江省,哈尔滨市,道里区,150000,0451
黑龙江省,哈尔滨市,南岗区,150000,0451
黑龙江省,哈尔滨市,道外区,150000,0451
黑龙江省,哈尔滨市,动力区,150000,0451
黑龙江省,哈尔滨市,平房区,150000,0451
黑龙江省,哈尔滨市,松北区,150000,0451
黑龙江省,哈尔滨市,呼兰区,150500,0451
黑龙江省,哈尔滨市,依兰县,154800,0451
黑龙江省,哈尔滨市,方正县,150800,0451
黑龙江省,哈尔滨市,宾县,150400,0451
黑龙江省,哈尔滨市,巴彦县,151800,0451
黑龙江省,哈尔滨市,通河县,150900,0451
黑龙江省,哈尔滨市,延寿县,150700,0451
黑龙江省,哈尔滨市,双城区,150100,0451
黑龙江省,哈尔滨市,尚志市,150600,0451
黑龙江省,哈尔滨市,阿城区,150300,0451
黑龙江省,哈尔滨市,双成,150100,0451
黑龙江省,哈尔滨市,香坊区,150000,0451
黑龙江省,哈尔滨市,木兰县,151900,0451
黑龙江省,哈尔滨市,五常市,150200,0451
黑龙江省,齐齐哈尔市,齐齐哈尔市,161000,0452
黑龙江省,齐齐哈尔市,龙沙区,161000,0452
黑龙江省,齐齐哈尔市,铁锋区,161000,0452
黑龙江省,齐齐哈尔市,昂昂溪区,161000,0452
黑龙江省,齐齐哈尔市,富拉尔基区,161000,0452
黑龙江省,齐齐哈尔市,碾子山区,161000,0452
黑龙江省,齐齐哈尔市,龙江县,161100,0452
黑龙江省,齐齐哈尔市,依安县,161500,0452
黑龙江省,齐齐哈尔市,泰来县,162400,0452
黑龙江省,齐齐哈尔市,甘南县,162100,0452
黑龙江省,齐齐哈尔市,富裕县,161200,0452
黑龙江省,齐齐哈尔市,克山县,161600,0452
黑龙江省,齐齐哈尔市,克东县,164800,0452
黑龙江省,齐齐哈尔市,拜泉县,164700,0452
黑龙江省,齐齐哈尔市,讷河市,161300,0452
黑龙江省,齐齐哈尔市,建华区,161000,0452
黑龙江省,齐齐哈尔市,梅里斯达斡尔族区,161000,0452
黑龙江省,牡丹江市,牡丹江市,157000,0453
黑龙江省,牡丹江市,阳明区,157000,0453
黑龙江省,牡丹江市,爱民区,157000,0453
黑龙江省,牡丹江市,西安区,157000,0453
黑龙江省,牡丹江市,东宁市,157200,0453
黑龙江省,牡丹江市,绥芬河市,157300,0453
黑龙江省,牡丹江市,海林市,157100,0453
黑龙江省,牡丹江市,宁安市,157400,0453
黑龙江省,牡丹江市,东安区,157000,0453
黑龙江省,牡丹江市,林口县,157600,0453
黑龙江省,牡丹江市,穆棱市,157500,0453
黑龙江省,佳木斯市,佳木斯市,154000,0454
黑龙江省,佳木斯市,向阳区,154000,0454
黑龙江省,佳木斯市,前进区,154000,0454
黑龙江省,佳木斯市,东风区,154000,0454
黑龙江省,佳木斯市,郊区,154000,0454
黑龙江省,佳木斯市,桦南县,154400,0454
黑龙江省,佳木斯市,汤原县,154700,0454
黑龙江省,佳木斯市,抚远市,156500,0454
黑龙江省,佳木斯市,同江市,156400,0454
黑龙江省,佳木斯市,富锦市,156100,0454
黑龙江省,佳木斯市,桦川县,154300,0454
黑龙江省,绥化市,绥化市,152000,0455
黑龙江省,绥化市,望奎县,152100,0455
黑龙江省,绥化市,兰西县,151500,0455
黑龙江省,绥化市,青冈县,151600,0455
黑龙江省,绥化市,庆安县,152400,0455
黑龙江省,绥化市,绥棱县,152200,0455
黑龙江省,绥化市,安达市,151400,0455
黑龙江省,绥化市,肇东市,151100,0455
黑龙江省,绥化市,北林区,152000,0455
黑龙江省,绥化市,明水县,151700,0455
黑龙江省,绥化市,海伦市,152300,0455
黑龙江省,黑河市,黑河市,164300,0456
黑龙江省,黑河市,北安市,164000,0456
黑龙江省,黑河市,五大连池市,164100,0456
黑龙江省,黑河市,爱辉区,164300,0456
黑龙江省,黑河市,嫩江县,161400,0456
黑龙江省,黑河市,逊克县,164400,0456
黑龙江省,黑河市,孙吴县,164200,0456
黑龙江省,黑河市,德都,164100,0456
上海市,上海市,浦东新区（原南汇区）,201300,021
上海市,上海市,川沙,201200,021
上海市,上海市,南汇区,201300,021
上海市,上海市,奉贤区,201400,021
上海市,上海市,崇明区,202100,021
上海市,上海市,松江区,201600,021
上海市,上海市,青浦区,201700,021
上海市,上海市,嘉定区,201800,021
上海市,上海市,宝山区,201900,021
上海市,上海市,金山区,201500,021
上海市,上海市,黄浦区,200000,021
上海市,上海市,卢湾区,200000,021
上海市,上海市,徐汇区,200000,021
上海市,上海市,长宁区,200000,021
上海市,上海市,静安区,200000,021
上海市,上海市,普陀区,200300,021
上海市,上海市,虹口区,200000,021
上海市,上海市,闸北区,200000,021
上海市,上海市,杨浦区,200000,021
上海市,上海市,闵行区,201100,021
上海市,上海市,上海市,201100,021
上海市,上海市,浦东新区,200100,021
江苏省,南京市,南京市,210000,025
江苏省,南京市,玄武区,210000,025
江苏省,南京市,白下区,210000,025
江苏省,南京市,秦淮区,210000,025
江苏省,南京市,建邺区,210000,025
江苏省,南京市,下关区,210000,025
江苏省,南京市,浦口区,210000,025
江苏省,南京市,栖霞区,210000,025
江苏省,南京市,江宁区,211100,025
江苏省,南京市,六合区,211500,025
江苏省,南京市,溧水区,211200,025
江苏省,南京市,高淳区,211300,025
江苏省,南京市,鼓楼区,210000,025
江苏省,南京市,雨花台区,210000,025
江苏省,南京市,江浦,211800,025
江苏省,无锡市,无锡市,214000,0510
江苏省,无锡市,崇安区,214000,0510
江苏省,无锡市,南长区,214000,0510
江苏省,无锡市,北塘区,214000,0510
江苏省,无锡市,宜兴市,214200,0510
江苏省,无锡市,滨湖区,214100,0510
江苏省,无锡市,惠山区,214100,0510
江苏省,无锡市,江阴市,214400,0510
江苏省,无锡市,锡山区,214100,0510
江苏省,无锡市,梁溪区,214000,0510
江苏省,无锡市,新吴区,214000,0510
江苏省,镇江市,镇江市,212000,0511
江苏省,镇江市,京口区,212000,0511
江苏省,镇江市,润州区,212000,0511
江苏省,镇江市,丹徒区,212100,0511
江苏省,镇江市,扬中市,212200,0511
江苏省,镇江市,句容市,212400,0511
江苏省,镇江市,丹阳市,212300,0511
江苏省,苏州市,苏州市,215000,0512
江苏省,苏州市,高新区,215000,0512
江苏省,苏州市,工业园区,215000,0512
江苏省,苏州市,沧浪区,215000,0512
江苏省,苏州市,平江区,215000,0512
江苏省,苏州市,金阊区,215000,0512
江苏省,苏州市,吴中区,215100,0512
江苏省,苏州市,相城区,215100,0512
江苏省,苏州市,张家港市,215600,0512
江苏省,苏州市,昆山市,215300,0512
江苏省,苏州市,吴江区,215200,0512
江苏省,苏州市,太仓市,215400,0512
江苏省,苏州市,吴县,215100,0512
江苏省,苏州市,姑苏区,215000,0512
江苏省,苏州市,常熟市,215500,0512
江苏省,苏州市,虎丘区,215100,0512
江苏省,南通市,南通市,226000,0513
江苏省,南通市,崇川区,226000,0513
江苏省,南通市,港闸区,226000,0513
江苏省,南通市,如东县,226400,0513
江苏省,南通市,启东市,226200,0513
江苏省,南通市,如皋市,226500,0513
江苏省,南通市,海门市,226100,0513
江苏省,南通市,海安县,226600,0513
江苏省,南通市,通州市,226300,0513
江苏省,扬州市,扬州市,225000,0514
江苏省,扬州市,广陵区,225000,0514
江苏省,扬州市,邗江区,225100,0514
江苏省,扬州市,宝应县,225800,0514
江苏省,扬州市,高邮市,225600,0514
江苏省,扬州市,维扬区,225000,0514
江苏省,扬州市,江都区,225200,0514
江苏省,扬州市,仪征市,211400,0514
江苏省,盐城市,盐城市,224000,0515
江苏省,盐城市,阜宁县,224400,0515
江苏省,盐城市,射阳县,224300,0515
江苏省,盐城市,建湖县,224700,0515
江苏省,盐城市,盐都区,224000,0515
江苏省,盐城市,响水县,224600,0515
江苏省,盐城市,滨海县,224500,0515
江苏省,盐城市,亭湖区,224000,0515
江苏省,盐城市,大丰区,224100,0515
江苏省,盐城市,东台市,224200,0515
江苏省,徐州市,徐州市,221000,0516
江苏省,徐州市,丰县,221700,0516
江苏省,徐州市,沛县,221600,0516
江苏省,徐州市,铜山区,221100,0516
江苏省,徐州市,新沂市,221400,0516
江苏省,徐州市,邳州市,221300,0516
江苏省,徐州市,鼓楼区,221000,0516
江苏省,徐州市,云龙区,221000,0516
江苏省,徐州市,贾汪区,221100,0516
江苏省,徐州市,邳县,221300,0516
江苏省,徐州市,泉山区,221000,0516
江苏省,徐州市,睢宁县,221200,0516
江苏省,徐州市,九里区,221000,0516
江苏省,淮安市,淮安市,223000,0517
江苏省,淮安市,涟水县,223400,0517
江苏省,淮安市,洪泽区,223100,0517
江苏省,淮安市,淮安区,223200,0517
江苏省,淮安市,淮阴区,223300,0517
江苏省,淮安市,清河区,223000,0517
江苏省,淮安市,清浦区,223000,0517
江苏省,淮安市,金湖县,211600,0517
江苏省,淮安市,盱眙县,211700,0517
江苏省,淮安市,淮阴县,223300,0517
江苏省,淮安市,清江浦区,223000,0517
江苏省,连云港市,连云港市,222000,0518
江苏省,连云港市,东海县,222300,0518
江苏省,连云港市,灌云县,222200,0518
江苏省,连云港市,连云区,222000,0518
江苏省,连云港市,海州区,222000,0518
江苏省,连云港市,赣榆区,222100,0518
江苏省,连云港市,灌南县,222500,0518
江苏省,连云港市,新浦区,222000,0518
江苏省,常州市,常州市,213000,0519
江苏省,常州市,溧阳市,213300,0519
江苏省,常州市,天宁区,213000,0519
江苏省,常州市,钟楼区,213000,0519
江苏省,常州市,新北区,213100,0519
江苏省,常州市,金坛区,213200,0519
江苏省,常州市,武进区,213100,0519
江苏省,泰州市,泰州市,225300,0523
江苏省,泰州市,海陵区,225300,0523
江苏省,泰州市,高港区,225300,0523
江苏省,泰州市,兴化市,225700,0523
江苏省,泰州市,靖江市,214500,0523
江苏省,泰州市,泰兴市,225400,0523
江苏省,泰州市,姜堰区,225500,0523
江苏省,宿迁市,宿迁市,223800,0527
江苏省,宿迁市,宿城区,223800,0527
江苏省,宿迁市,沭阳县,223600,0527
江苏省,宿迁市,泗阳县,223700,0527
江苏省,宿迁市,泗洪县,223900,0527
江苏省,宿迁市,宿豫区,223800,0527
江苏省,宿迁市,沐阳,223600,0527
浙江省,衢州市,衢州市,324000,0570
浙江省,衢州市,开化县,324300,0570
浙江省,衢州市,龙游县,324400,0570
浙江省,衢州市,江山市,324100,0570
浙江省,衢州市,柯城区,324000,0570
浙江省,衢州市,常山县,324200,0570
浙江省,衢州市,衢县,324000,0570
浙江省,衢州市,衢江区,324000,0570
浙江省,杭州市,杭州市,310000,0571
浙江省,杭州市,上城区,310000,0571
浙江省,杭州市,下城区,310000,0571
浙江省,杭州市,拱墅区,310000,0571
浙江省,杭州市,西湖区,310000,0571
浙江省,杭州市,滨江区,310000,0571
浙江省,杭州市,萧山区,311200,0571
浙江省,杭州市,余杭区,311100,0571
浙江省,杭州市,桐庐县,311500,0571
浙江省,杭州市,淳安县,311700,0571
浙江省,杭州市,建德市,311600,0571
浙江省,杭州市,富阳区,311400,0571
浙江省,杭州市,临安市,311300,0571
浙江省,杭州市,江干区,310000,0571
浙江省,湖州市,湖州市,313000,0572
浙江省,湖州市,吴兴区,313000,0572
浙江省,湖州市,德清县,313200,0572
浙江省,湖州市,长兴县,313100,0572
浙江省,湖州市,安吉县,313300,0572
浙江省,湖州市,南浔区,313000,0572
浙江省,嘉兴市,嘉兴市,314000,0573
浙江省,嘉兴市,嘉善县,314100,0573
浙江省,嘉兴市,海盐县,314300,0573
浙江省,嘉兴市,海宁市,314400,0573
浙江省,嘉兴市,南湖区,314000,0573
浙江省,嘉兴市,秀洲区,314000,0573
浙江省,嘉兴市,桐乡市,314500,0573
浙江省,嘉兴市,平湖市,314200,0573
浙江省,宁波市,宁波市,315000,0574
浙江省,宁波市,慈溪市,315300,0574
浙江省,宁波市,奉化区,315500,0574
浙江省,宁波市,江东区,315000,0574
浙江省,宁波市,高新区,315000,0574
浙江省,宁波市,江北区,315000,0574
浙江省,宁波市,北仑区,315800,0574
浙江省,宁波市,鄞州区,315100,0574
浙江省,宁波市,象山县,315700,0574
浙江省,宁波市,宁海县,315600,0574
浙江省,宁波市,鄞县,315100,0574
浙江省,宁波市,海曙区,315000,0574
浙江省,宁波市,镇海区,315200,0574
浙江省,宁波市,余姚市,315400,0574
浙江省,绍兴市,绍兴市,312000,0575
浙江省,绍兴市,越城区,312000,0575
浙江省,绍兴市,柯桥区,312000,0575
浙江省,绍兴市,新昌县,312500,0575
浙江省,绍兴市,上虞区,312300,0575
浙江省,绍兴市,嵊州市,312400,0575
浙江省,绍兴市,嵊县,312400,0575
浙江省,绍兴市,诸暨市,311800,0575
浙江省,台州市,台州市,318000,0576
浙江省,台州市,路桥区,318000,0576
浙江省,台州市,三门县,317100,0576
浙江省,台州市,天台县,317200,0576
浙江省,台州市,仙居县,317300,0576
浙江省,台州市,临海市,317000,0576
浙江省,台州市,黄岩区,318000,0576
浙江省,台州市,椒江区,318000,0576
浙江省,台州市,玉环县,317600,0576
浙江省,台州市,温岭市,317500,0576
浙江省,温州市,温州市,325000,0577
浙江省,温州市,龙湾区,325000,0577
浙江省,温州市,瓯海区,325000,0577
浙江省,温州市,洞头区,325700,0577
浙江省,温州市,永嘉县,325100,0577
浙江省,温州市,瑞安市,325200,0577
浙江省,温州市,乐清市,325600,0577
浙江省,温州市,平阳县,325400,0577
浙江省,温州市,文成县,325300,0577
浙江省,温州市,泰顺县,325500,0577
浙江省,温州市,鹿城区,325000,0577
浙江省,温州市,苍南县,325800,0577
浙江省,丽水市,丽水市,323000,0578
浙江省,丽水市,莲都区,323000,0578
浙江省,丽水市,缙云县,321400,0578
浙江省,丽水市,遂昌县,323300,0578
浙江省,丽水市,松阳县,323400,0578
浙江省,丽水市,云和县,323600,0578
浙江省,丽水市,景宁畲族自治县,323500,0578
浙江省,丽水市,龙泉市,323700,0578
浙江省,丽水市,青田县,323900,0578
浙江省,丽水市,庆元县,323800,0578
浙江省,金华市,金华市,321000,0579
浙江省,金华市,婺城区,321000,0579
浙江省,金华市,武义县,321200,0579
浙江省,金华市,浦江县,322200,0579
浙江省,金华市,磐安县,322300,0579
浙江省,金华市,兰溪市,321100,0579
浙江省,金华市,东阳市,322100,0579
浙江省,金华市,永康市,321300,0579
浙江省,金华市,金华县,321000,0579
浙江省,金华市,金东区,321000,0579
浙江省,金华市,义乌市,322000,0579
浙江省,舟山市,舟山市,316000,0580
浙江省,舟山市,普陀区,316100,0580
浙江省,舟山市,岱山县,316200,0580
浙江省,舟山市,嵊泗县,202400,0580
浙江省,舟山市,定海区,316000,0580
安徽省,滁州市,滁州市,239000,0550
安徽省,滁州市,南谯区,239000,0550
安徽省,滁州市,来安县,239200,0550
安徽省,滁州市,全椒县,239500,0550
安徽省,滁州市,凤阳县,233100,0550
安徽省,滁州市,天长市,239300,0550
安徽省,滁州市,明光市,239400,0550
安徽省,滁州市,琅琊区,239000,0550
安徽省,滁州市,定远县,233200,0550
安徽省,合肥市,合肥市,230000,0551
安徽省,合肥市,包河区,230000,0551
安徽省,合肥市,长丰县,231100,0551
安徽省,合肥市,肥西县,231200,0551
安徽省,合肥市,瑶海区,230000,0551
安徽省,合肥市,庐阳区,230000,0551
安徽省,合肥市,肥东县,231600,0551
安徽省,合肥市,庐江县,231500,0551
安徽省,合肥市,蜀山区,230000,0551
安徽省,合肥市,巢湖市,238000,0565
安徽省,蚌埠市,蚌埠市,233000,0552
安徽省,蚌埠市,龙子湖区,233000,0552
安徽省,蚌埠市,蚌山区,233000,0552
安徽省,蚌埠市,禹会区,233000,0552
安徽省,蚌埠市,淮上区,233000,0552
安徽省,蚌埠市,五河县,233300,0552
安徽省,蚌埠市,固镇县,233700,0552
安徽省,蚌埠市,怀远县,233400,0552
安徽省,芜湖市,芜湖市,241000,0553
安徽省,芜湖市,三山区,241000,0553
安徽省,芜湖市,繁昌县,241200,0553
安徽省,芜湖市,镜湖区,241000,0553
安徽省,芜湖市,弋江区,241000,0553
安徽省,芜湖市,南陵县,241300,0553
安徽省,芜湖市,无为县,238300,0553
安徽省,芜湖市,芜湖县,241100,0553
安徽省,芜湖市,鸠江区,241000,0553
安徽省,淮南市,淮南市,232000,0554
安徽省,淮南市,大通区,232000,0554
安徽省,淮南市,田家庵区,232000,0554
安徽省,淮南市,八公山区,232000,0554
安徽省,淮南市,潘集区,232000,0554
安徽省,淮南市,凤台县,232100,0554
安徽省,淮南市,寿县,232200,0554
安徽省,淮南市,谢家集区,232000,0554
安徽省,马鞍山市,马鞍山市,243000,0555
安徽省,马鞍山市,金家庄区,243000,0555
安徽省,马鞍山市,雨山区,243000,0555
安徽省,马鞍山市,当涂县,243100,0555
安徽省,马鞍山市,含山县,238100,0555
安徽省,马鞍山市,和县,238200,0555
安徽省,马鞍山市,博望区,243100,0555
安徽省,马鞍山市,花山区,243000,0555
安徽省,安庆市,安庆市,246000,0556
安徽省,安庆市,潜山县,246300,0556
安徽省,安庆市,宿松县,246500,0556
安徽省,安庆市,望江县,246200,0556
安徽省,安庆市,岳西县,246600,0556
安徽省,安庆市,迎江区,246000,0556
安徽省,安庆市,大观区,246000,0556
安徽省,安庆市,怀宁县,246100,0556
安徽省,安庆市,宜秀区,246000,0556
安徽省,安庆市,太湖县,246400,0556
安徽省,安庆市,桐城市,231400,0556
安徽省,宿州市,宿州市,234000,0557
安徽省,宿州市,砀山县,235300,0557
安徽省,宿州市,萧县,235200,0557
安徽省,宿州市,灵璧县,234200,0557
安徽省,宿州市,灵壁,234200,0557
安徽省,宿州市,墉桥区,234100,0557
安徽省,宿州市,泗县,234300,0557
安徽省,宿州市,埇桥区,234000,0557
安徽省,阜阳市,阜阳市,236000,0558
安徽省,阜阳市,颍州区,236000,0558
安徽省,阜阳市,太和县,236600,0558
安徽省,阜阳市,阜南县,236300,0558
安徽省,阜阳市,颍上县,236200,0558
安徽省,阜阳市,界首市,236500,0558
安徽省,阜阳市,颍泉区,236100,0558
安徽省,阜阳市,临泉县,236400,0558
安徽省,阜阳市,颍东区,236100,0558
安徽省,亳州市,亳州市,236000,0558
安徽省,亳州市,谯城区,236800,0558
安徽省,亳州市,涡阳县,233600,0558
安徽省,亳州市,蒙城县,233500,0558
安徽省,亳州市,利辛县,236700,0558
安徽省,黄山市,黄山市,242700,0559
安徽省,黄山市,屯溪区,245000,0559
安徽省,黄山市,黟县,245500,0559
安徽省,黄山市,歙县,245200,0559
安徽省,黄山市,休宁县,245400,0559
安徽省,黄山市,黄山区,245700,0559
安徽省,黄山市,祁门县,245600,0559
安徽省,黄山市,徽州区,245900,0559
安徽省,淮北市,淮北市,235000,0561
安徽省,淮北市,杜集区,235000,0561
安徽省,淮北市,相山区,235000,0561
安徽省,淮北市,烈山区,235000,0561
安徽省,淮北市,濉溪县,235100,0561
安徽省,铜陵市,铜陵市,244000,0562
安徽省,铜陵市,铜官区,244000,0562
安徽省,铜陵市,狮子山区,244000,0562
安徽省,铜陵市,郊区,244000,0562
安徽省,铜陵市,枞阳县,246700,0562
安徽省,铜陵市,铜陵县,244100,0562
安徽省,铜陵市,义安区,244100,0562
安徽省,宣城市,宣城市,242000,0563
安徽省,宣城市,宣州区,242000,0563
安徽省,宣城市,郎溪县,242100,0563
安徽省,宣城市,广德县,242200,0563
安徽省,宣城市,泾县,242500,0563
安徽省,宣城市,旌德县,242600,0563
安徽省,宣城市,宁国市,242300,0563
安徽省,宣城市,绩溪县,245300,0563
安徽省,六安市,六安市,237000,0564
安徽省,六安市,霍邱县,237400,0564
安徽省,六安市,金寨县,237300,0564
安徽省,六安市,霍山县,237200,0564
安徽省,六安市,裕安区,237100,0564
安徽省,六安市,舒城县,231300,0564
安徽省,六安市,金安区,237100,0564
安徽省,六安市,叶集区,237400,0564
安徽省,池州市,池州市,247100,0566
安徽省,池州市,石台县,245100,0566
安徽省,池州市,贵池区,247100,0566
安徽省,池州市,东至县,247200,0566
安徽省,池州市,青阳县,242800,0566
安徽省,巢湖市,巢湖市,238000,0565
福建省,福州市,福州市,350000,0591
福建省,福州市,鼓楼区,350000,0591
福建省,福州市,仓山区,350000,0591
福建省,福州市,马尾区,350000,0591
福建省,福州市,晋安区,350000,0591
福建省,福州市,连江县,350500,0591
福建省,福州市,罗源县,350600,0591
福建省,福州市,闽清县,350800,0591
福建省,福州市,永泰县,350700,0591
福建省,福州市,平潭县,350400,0591
福建省,福州市,福清市,350300,0591
福建省,福州市,台江区,350000,0591
福建省,福州市,闽侯县,350100,0591
福建省,福州市,长乐市,350200,0591
福建省,厦门市,厦门市,361000,0592
福建省,厦门市,思明区,361000,0592
福建省,厦门市,海沧区,361000,0592
福建省,厦门市,湖里区,361000,0592
福建省,厦门市,同安区,361100,0592
福建省,厦门市,翔安区,361100,0592
福建省,厦门市,集美区,361000,0592
福建省,宁德市,宁德市,352000,0593
福建省,宁德市,霞浦县,355100,0593
福建省,宁德市,古田县,352200,0593
福建省,宁德市,寿宁县,355500,0593
福建省,宁德市,周宁县,355400,0593
福建省,宁德市,柘荣县,355300,0593
福建省,宁德市,福鼎市,355200,0593
福建省,宁德市,蕉城区,352100,0593
福建省,宁德市,屏南县,352300,0593
福建省,宁德市,福安市,355000,0593
福建省,莆田市,莆田市,351100,0594
福建省,莆田市,城厢区,351100,0594
福建省,莆田市,荔城区,351100,0594
福建省,莆田市,秀屿区,351100,0594
福建省,莆田市,仙游县,351200,0594
福建省,莆田市,涵江区,351100,0594
福建省,泉州市,泉州市,362000,0595
福建省,泉州市,丰泽区,362000,0595
福建省,泉州市,洛江区,362000,0595
福建省,泉州市,惠安县,362100,0595
福建省,泉州市,安溪县,362400,0595
福建省,泉州市,德化县,362500,0595
福建省,泉州市,金门县,362000,0595
福建省,泉州市,石狮市,362700,0595
福建省,泉州市,南安市,362300,0595
福建省,泉州市,泉港区,362800,0595
福建省,泉州市,鲤城区,362000,0595
福建省,泉州市,永春县,362600,0595
福建省,泉州市,晋江市,362200,0595
福建省,漳州市,漳州市,363000,0596
福建省,漳州市,芗城区,363000,0596
福建省,漳州市,云霄县,363300,0596
福建省,漳州市,漳浦县,363200,0596
福建省,漳州市,诏安县,363500,0596
福建省,漳州市,长泰县,363900,0596
福建省,漳州市,南靖县,363600,0596
福建省,漳州市,平和县,363700,0596
福建省,漳州市,华安县,363800,0596
福建省,漳州市,龙文区,363000,0596
福建省,漳州市,东山县,363400,0596
福建省,漳州市,龙海市,363100,0596
福建省,龙岩市,龙岩市,364000,0597
福建省,龙岩市,连城县,366200,0597
福建省,龙岩市,漳平市,364400,0597
福建省,龙岩市,新罗区,364000,0597
福建省,龙岩市,长汀县,366300,0597
福建省,龙岩市,永定区,364100,0597
福建省,龙岩市,上杭县,364200,0597
福建省,龙岩市,武平县,364300,0597
福建省,三明市,三明市,365000,0598
福建省,三明市,建宁县,354500,0598
福建省,三明市,尤溪县,365100,0598
福建省,三明市,沙县,365500,0598
福建省,三明市,将乐县,353300,0598
福建省,三明市,梅列区,365000,0598
福建省,三明市,三元区,365000,0598
福建省,三明市,明溪县,365200,0598
福建省,三明市,宁化县,365400,0598
福建省,三明市,大田县,366100,0598
福建省,三明市,永安市,366000,0598
福建省,三明市,泰宁县,354400,0598
福建省,三明市,清流县,365300,0598
福建省,南平市,南平市,353000,0599
福建省,南平市,延平区,353000,0599
福建省,南平市,浦城县,353400,0599
福建省,南平市,光泽县,354100,0599
福建省,南平市,松溪县,353500,0599
福建省,南平市,政和县,353600,0599
福建省,南平市,武夷山市,354300,0599
福建省,南平市,建瓯市,353100,0599
福建省,南平市,建阳区,354200,0599
福建省,南平市,顺昌县,353200,0599
福建省,南平市,邵武市,354000,0599
江西省,鹰潭市,鹰潭市,335000,0701
江西省,鹰潭市,余江县,335200,0701
江西省,鹰潭市,贵溪市,335400,0701
江西省,鹰潭市,月湖区,335000,0701
江西省,新余市,新余市,338000,0790
江西省,新余市,渝水区,338000,0790
江西省,新余市,分宜县,336600,0790
江西省,南昌市,南昌市,330000,0791
江西省,南昌市,东湖区,330000,0791
江西省,南昌市,西湖区,330000,0791
江西省,南昌市,青云谱区,330000,0791
江西省,南昌市,南昌县,330200,0791
江西省,南昌市,新建区,330100,0791
江西省,南昌市,安义县,330500,0791
江西省,南昌市,进贤县,331700,0791
江西省,南昌市,湾里区,330000,0791
江西省,南昌市,青山湖区,330000,0791
江西省,九江市,九江市,332000,0792
江西省,九江市,瑞昌市,332200,0792
江西省,九江市,庐山市,332800,0792
江西省,九江市,都昌县,332600,0792
江西省,九江市,彭泽县,332700,0792
江西省,九江市,浔阳区,332000,0792
江西省,九江市,九江县,332100,0792
江西省,九江市,武宁县,332300,0792
江西省,九江市,修水县,332400,0792
江西省,九江市,永修县,330300,0792
江西省,九江市,德安县,330400,0792
江西省,九江市,共青城市,332000,0792
江西省,九江市,湖口县,332500,0792
江西省,九江市,庐山区,332000,0792
江西省,九江市,星子县,332800,0792
江西省,九江市,濂溪区,332000,0792
江西省,上饶市,上饶市,334000,0793
江西省,上饶市,德兴市,334200,0793
江西省,上饶市,信州区,334000,0793
江西省,上饶市,上饶县,334100,0793
江西省,上饶市,广丰区,334600,0793
江西省,上饶市,铅山县,334500,0793
江西省,上饶市,横峰县,334300,0793
江西省,上饶市,弋阳县,334400,0793
江西省,上饶市,鄱阳县,333100,0793
江西省,上饶市,万年县,335500,0793
江西省,上饶市,婺源县,333200,0793
江西省,上饶市,波阳,333100,0793
江西省,上饶市,玉山县,334700,0793
江西省,上饶市,余干县,335100,0793
江西省,抚州市,抚州市,344000,0794
江西省,抚州市,资溪县,335300,0794
江西省,抚州市,东乡区,331800,0794
江西省,抚州市,广昌县,344900,0794
江西省,抚州市,南城县,344700,0794
江西省,抚州市,黎川县,344600,0794
江西省,抚州市,南丰县,344500,0794
江西省,抚州市,乐安县,344300,0794
江西省,抚州市,宜黄县,344400,0794
江西省,抚州市,尔安,344300,0794
江西省,抚州市,金溪县,344800,0794
江西省,抚州市,临川区,344100,0794
江西省,抚州市,崇仁县,344200,0794
江西省,宜春市,宜春市,336000,0795
江西省,宜春市,上高县,336400,0795
江西省,宜春市,宜丰县,336300,0795
江西省,宜春市,靖安县,330600,0795
江西省,宜春市,铜鼓县,336200,0795
江西省,宜春市,樟树市,331200,0795
江西省,宜春市,高安市,330800,0795
江西省,宜春市,袁州区,336000,0795
江西省,宜春市,万载县,336100,0795
江西省,宜春市,丰城市,331100,0795
江西省,宜春市,奉新县,330700,0795
江西省,吉安市,吉安市,343000,0796
江西省,吉安市,井冈山市,343600,0796
江西省,吉安市,遂川县,343900,0796
江西省,吉安市,万安县,343800,0796
江西省,吉安市,永新县,343400,0796
江西省,吉安市,吉州区,343000,0796
江西省,吉安市,青原区,343000,0796
江西省,吉安市,吉安县,343100,0796
江西省,吉安市,吉水县,331600,0796
江西省,吉安市,峡江县,331400,0796
江西省,吉安市,新干县,331300,0796
江西省,吉安市,永丰县,331500,0796
江西省,吉安市,泰和县,343700,0796
江西省,吉安市,宁冈,343500,0796
江西省,吉安市,井岗山,343600,0796
江西省,吉安市,安福县,343200,0796
江西省,赣州市,赣州市,341000,0797
江西省,赣州市,南康区,341400,0797
江西省,赣州市,石城县,342700,0797
江西省,赣州市,于都县,342300,0797
江西省,赣州市,兴国县,342400,0797
江西省,赣州市,会昌县,342600,0797
江西省,赣州市,寻乌县,342200,0797
江西省,赣州市,上犹县,341200,0797
江西省,赣州市,崇义县,341300,0797
江西省,赣州市,安远县,342100,0797
江西省,赣州市,龙南县,341700,0797
江西省,赣州市,定南县,341900,0797
江西省,赣州市,全南县,341800,0797
江西省,赣州市,宁都县,342800,0797
江西省,赣州市,赣县,341100,0797
江西省,赣州市,信丰县,341600,0797
江西省,赣州市,瑞金市,342500,0797
江西省,赣州市,大余县,341500,0797
江西省,赣州市,章贡区,341000,0797
江西省,景德镇市,景德镇市,333000,0798
江西省,景德镇市,浮梁县,333400,0798
江西省,景德镇市,乐平市,333300,0798
江西省,景德镇市,珠山区,333000,0798
江西省,景德镇市,昌江区,333000,0798
江西省,萍乡市,萍乡市,337000,0799
江西省,萍乡市,安源区,337000,0799
江西省,萍乡市,湘东区,337000,0799
江西省,萍乡市,上栗县,337000,0799
江西省,萍乡市,芦溪县,337200,0799
江西省,萍乡市,莲花县,337100,0799
山东省,菏泽市,菏泽市,274000,0530
山东省,菏泽市,定陶区,274100,0530
山东省,菏泽市,东明县,274500,0530
山东省,菏泽市,巨野县,274900,0530
山东省,菏泽市,郓城县,274700,0530
山东省,菏泽市,鄄城县,274600,0530
山东省,菏泽市,曹县,274400,0530
山东省,菏泽市,单县,274300,0530
山东省,菏泽市,成武县,274200,0530
山东省,菏泽市,牡丹区,274000,0530
山东省,济南市,济南市,250000,0531
山东省,济南市,高新区,250000,0531
山东省,济南市,历下区,250000,0531
山东省,济南市,槐荫区,250000,0531
山东省,济南市,天桥区,250000,0531
山东省,济南市,历城区,250100,0531
山东省,济南市,长清区,250300,0531
山东省,济南市,平阴县,250400,0531
山东省,济南市,济阳县,251400,0531
山东省,济南市,商河县,251600,0531
山东省,济南市,市中区,250000,0531
山东省,济南市,章丘区,250200,0531
山东省,青岛市,青岛市,266000,0532
山东省,青岛市,市南区,266000,0532
山东省,青岛市,市北区,266000,0532
山东省,青岛市,四方区,266000,0532
山东省,青岛市,崂山区,266100,0532
山东省,青岛市,即墨市,266200,0532
山东省,青岛市,平度市,266700,0532
山东省,青岛市,胶南市,266400,0532
山东省,青岛市,城阳区,266100,0532
山东省,青岛市,黄岛区,266500,0532
山东省,青岛市,李沧区,266100,0532
山东省,青岛市,胶州市,266300,0532
山东省,青岛市,莱西市,266600,0532
山东省,淄博市,淄博市,255000,0533
山东省,淄博市,张店区,255000,0533
山东省,淄博市,博山区,255200,0533
山东省,淄博市,临淄区,255400,0533
山东省,淄博市,桓台县,256400,0533
山东省,淄博市,高青县,256300,0533
山东省,淄博市,沂源县,256100,0533
山东省,淄博市,淄川区,255100,0533
山东省,淄博市,周村区,255300,0533
山东省,德州市,德州市,253000,0534
山东省,德州市,武城县,253300,0534
山东省,德州市,禹城市,251200,0534
山东省,德州市,德城区,253000,0534
山东省,德州市,陵城区,253500,0534
山东省,德州市,庆云县,253700,0534
山东省,德州市,临邑县,251500,0534
山东省,德州市,齐河县,251100,0534
山东省,德州市,夏津县,253200,0534
山东省,德州市,监邑,251500,0534
山东省,德州市,乐陵市,253600,0534
山东省,德州市,宁津县,253400,0534
山东省,德州市,平原县,253100,0534
山东省,烟台市,烟台市,264000,0535
山东省,烟台市,芝罘区,264000,0535
山东省,烟台市,福山区,265500,0535
山东省,烟台市,莱山区,264000,0535
山东省,烟台市,长岛县,265800,0535
山东省,烟台市,龙口市,265700,0535
山东省,烟台市,莱州市,261400,0535
山东省,烟台市,蓬莱市,265600,0535
山东省,烟台市,招远市,265400,0535
山东省,烟台市,栖霞市,265300,0535
山东省,烟台市,海阳市,265100,0535
山东省,烟台市,开发区,264000,0535
山东省,烟台市,牟平区,264100,0535
山东省,烟台市,莱阳市,265200,0535
山东省,潍坊市,潍坊市,261000,0536
山东省,潍坊市,潍城区,261000,0536
山东省,潍坊市,寒亭区,261100,0536
山东省,潍坊市,奎文区,261000,0536
山东省,潍坊市,临朐县,262600,0536
山东省,潍坊市,昌乐县,262400,0536
山东省,潍坊市,诸城市,262200,0536
山东省,潍坊市,寿光市,262700,0536
山东省,潍坊市,安丘市,262100,0536
山东省,潍坊市,高密市,261500,0536
山东省,潍坊市,坊子区,261200,0536
山东省,潍坊市,青州市,262500,0536
山东省,潍坊市,昌邑市,261300,0536
山东省,济宁市,济宁市,272000,0537
山东省,济宁市,市中区,272000,0537
山东省,济宁市,任城区,272000,0537
山东省,济宁市,微山县,277600,0537
山东省,济宁市,金乡县,272200,0537
山东省,济宁市,嘉祥县,272400,0537
山东省,济宁市,汶上县,272500,0537
山东省,济宁市,梁山县,272600,0537
山东省,济宁市,曲阜市,273100,0537
山东省,济宁市,邹城市,273500,0537
山东省,济宁市,兖州区,272100,0537
山东省,济宁市,鱼台县,272300,0537
山东省,济宁市,泗水县,273200,0537
山东省,泰安市,泰安市,271000,0538
山东省,泰安市,岱岳区,271000,0538
山东省,泰安市,宁阳县,271400,0538
山东省,泰安市,东平县,271500,0538
山东省,泰安市,肥城市,271600,0538
山东省,泰安市,泰山区,271000,0538
山东省,泰安市,新泰市,271200,0538
山东省,临沂市,临沂市,276000,0539
山东省,临沂市,临沭县,276700,0539
山东省,临沂市,莒南县,276600,0539
山东省,临沂市,沂水县,276400,0539
山东省,临沂市,兰陵县,277700,0539
山东省,临沂市,费县,273400,0539
山东省,临沂市,平邑县,273300,0539
山东省,临沂市,罗庄区,276000,0539
山东省,临沂市,河东区,276000,0539
山东省,临沂市,沂南县,276300,0539
山东省,临沂市,蒙阴县,276200,0539
山东省,临沂市,兰山区,276000,0539
山东省,临沂市,郯城县,276100,0539
山东省,滨州市,滨州市,256600,0543
山东省,滨州市,滨城区,256600,0543
山东省,滨州市,惠民县,251700,0543
山东省,滨州市,阳信县,251800,0543
山东省,滨州市,无棣县,251900,0543
山东省,滨州市,沾化区,256800,0543
山东省,滨州市,博兴县,256500,0543
山东省,滨州市,邹平县,256200,0543
山东省,东营市,东营市,257000,0546
山东省,东营市,广饶县,257300,0546
山东省,东营市,垦利区,257500,0546
山东省,东营市,利津县,257400,0546
山东省,东营市,东营区,257100,0546
山东省,东营市,河口区,257200,0546
山东省,威海市,威海市,264200,0631
山东省,威海市,乳山市,264500,0631
山东省,威海市,环翠区,264200,0631
山东省,威海市,文登区,264400,0631
山东省,威海市,荣城,264300,0631
山东省,威海市,石岛管理区,264300,0631
山东省,威海市,荣成市,264300,0631
山东省,枣庄市,枣庄市,277000,0632
山东省,枣庄市,薛城区,277000,0632
山东省,枣庄市,峄城区,277300,0632
山东省,枣庄市,台儿庄区,277400,0632
山东省,枣庄市,市中区,277100,0632
山东省,枣庄市,滕州市,277500,0632
山东省,枣庄市,山亭区,277200,0632
山东省,日照市,日照市,276800,0633
山东省,日照市,东港区,276800,0633
山东省,日照市,岚山区,276800,0633
山东省,日照市,五莲县,262300,0633
山东省,日照市,莒县,276500,0633
山东省,莱芜市,莱芜市,271100,0634
山东省,莱芜市,莱城区,271100,0634
山东省,莱芜市,钢城区,271100,0634
山东省,聊城市,聊城市,252000,0635
山东省,聊城市,东阿县,252200,0635
山东省,聊城市,高唐县,252800,0635
山东省,聊城市,临清市,252600,0635
山东省,聊城市,东昌府区,252000,0635
山东省,聊城市,阳谷县,252300,0635
山东省,聊城市,茌平县,252100,0635
山东省,聊城市,冠县,252500,0635
山东省,聊城市,莘县,252400,0635
河南省,商丘市,商丘市,476000,0370
河南省,商丘市,梁园区,476000,0370
河南省,商丘市,睢阳区,476000,0370
河南省,商丘市,民权县,476800,0370
河南省,商丘市,宁陵县,476700,0370
河南省,商丘市,柘城县,476200,0370
河南省,商丘市,虞城县,476300,0370
河南省,商丘市,永城市,476600,0370
河南省,商丘市,商丘县,476100,0370
河南省,商丘市,睢县,476900,0370
河南省,商丘市,夏邑县,476400,0370
河南省,郑州市,郑州市,450000,0371
河南省,郑州市,中原区,450000,0371
河南省,郑州市,管城回族区,450000,0371
河南省,郑州市,金水区,450000,0371
河南省,郑州市,邙山区,450000,0371
河南省,郑州市,巩义市,451200,0371
河南省,郑州市,荥阳市,450100,0371
河南省,郑州市,登封市,452400,0371
河南省,郑州市,上街区,450000,0371
河南省,郑州市,新密市,452300,0371
河南省,郑州市,惠济区,450000,0371
河南省,郑州市,巩县,451200,0371
河南省,郑州市,二七区,450000,0371
河南省,郑州市,新郑市,451100,0371
河南省,郑州市,中牟县,451400,0371
河南省,开封市,开封市,475000,0371
河南省,开封市,龙亭区,475000,0371
河南省,开封市,顺河回族区,475000,0371
河南省,开封市,禹王台区,475000,0371
河南省,开封市,金明区,475000,0371
河南省,开封市,杞县,475200,0371
河南省,开封市,尉氏县,475500,0371
河南省,开封市,祥符区,475100,0371
河南省,开封市,兰考县,475300,0371
河南省,开封市,鼓楼区,475000,0371
河南省,开封市,通许县,475400,0371
河南省,安阳市,安阳市,455000,0372
河南省,安阳市,北关区,455000,0372
河南省,安阳市,殷都区,455000,0372
河南省,安阳市,龙安区,455000,0372
河南省,安阳市,滑县,456400,0372
河南省,安阳市,内黄县,456300,0372
河南省,安阳市,林州市,456500,0372
河南省,安阳市,林县,456500,0372
河南省,安阳市,文峰区,455000,0372
河南省,安阳市,安阳县,455100,0372
河南省,安阳市,汤阴县,456100,0372
河南省,新乡市,新乡市,453000,0373
河南省,新乡市,红旗区,453000,0373
河南省,新乡市,新乡县,453700,0373
河南省,新乡市,获嘉县,453800,0373
河南省,新乡市,延津县,453200,0373
河南省,新乡市,封丘县,453300,0373
河南省,新乡市,长垣县,453400,0373
河南省,新乡市,辉县市,453600,0373
河南省,新乡市,凤泉区,453000,0373
河南省,新乡市,牧野区,453000,0373
河南省,新乡市,原阳县,453500,0373
河南省,新乡市,卫辉市,453100,0373
河南省,新乡市,卫滨区,453000,0373
河南省,许昌市,许昌市,461000,0374
河南省,许昌市,魏都区,461000,0374
河南省,许昌市,建安区,461100,0374
河南省,许昌市,鄢陵县,461200,0374
河南省,许昌市,襄城县,461700,0374
河南省,许昌市,禹州市,461600,0374
河南省,许昌市,长葛市,461500,0374
河南省,平顶山市,平顶山市,467000,0375
河南省,平顶山市,汝州市,467500,0375
河南省,平顶山市,新华区,467000,0375
河南省,平顶山市,卫东区,467000,0375
河南省,平顶山市,石龙区,467000,0375
河南省,平顶山市,湛河区,467000,0375
河南省,平顶山市,宝丰县,467400,0375
河南省,平顶山市,鲁山县,467300,0375
河南省,平顶山市,郏县,467100,0375
河南省,平顶山市,舞钢市,462500,0375
河南省,平顶山市,叶县,467200,0375
河南省,信阳市,信阳市,464000,0376
河南省,信阳市,罗山县,464200,0376
河南省,信阳市,固始县,465200,0376
河南省,信阳市,淮滨县,464400,0376
河南省,信阳市,息县,464300,0376
河南省,信阳市,潢川县,465100,0376
河南省,信阳市,商城县,465300,0376
河南省,信阳市,浉河区,464000,0376
河南省,信阳市,平桥区,464000,0376
河南省,信阳市,光山县,465400,0376
河南省,信阳市,新县,465500,0376
河南省,南阳市,南阳市,473000,0377
河南省,南阳市,社旗县,473300,0377
河南省,南阳市,唐河县,473400,0377
河南省,南阳市,新野县,473500,0377
河南省,南阳市,卧龙区,473000,0377
河南省,南阳市,方城县,473200,0377
河南省,南阳市,邓州市,474100,0377
河南省,南阳市,内乡县,474300,0377
河南省,南阳市,桐柏县,474700,0377
河南省,南阳市,西峡县,474500,0377
河南省,南阳市,淅川县,474400,0377
河南省,南阳市,浙川,474400,0377
河南省,南阳市,宛城区,473000,0377
河南省,南阳市,南召县,474600,0377
河南省,南阳市,镇平县,474200,0377
河南省,洛阳市,洛阳市,471000,0379
河南省,洛阳市,老城区,471000,0379
河南省,洛阳市,西工区,471000,0379
河南省,洛阳市,吉利区,471000,0379
河南省,洛阳市,洛龙区,471000,0379
河南省,洛阳市,孟津县,471100,0379
河南省,洛阳市,新安县,471800,0379
河南省,洛阳市,伊川县,471300,0379
河南省,洛阳市,偃师市,471900,0379
河南省,洛阳市,嵩县,471400,0379
河南省,洛阳市,宜阳县,471600,0379
河南省,洛阳市,洛宁县,471700,0379
河南省,洛阳市,瀍河回族区,471000,0379
河南省,洛阳市,涧西区,471000,0379
河南省,洛阳市,栾川县,471500,0379
河南省,洛阳市,汝阳县,471200,0379
河南省,济源市,济源市,454600,0391
河南省,焦作市,焦作市,454100,0391
河南省,焦作市,孟州市,454700,0391
河南省,焦作市,温县,454800,0391
河南省,焦作市,武陟县,454900,0391
河南省,焦作市,博爱县,454400,0391
河南省,焦作市,解放区,454000,0391
河南省,焦作市,马村区,454000,0391
河南省,焦作市,山阳区,454000,0391
河南省,焦作市,孟县,454700,0391
河南省,焦作市,沁阳市,454500,0391
河南省,焦作市,修武县,454300,0391
河南省,焦作市,中站区,454000,0391
河南省,鹤壁市,鹤壁市,458000,0392
河南省,鹤壁市,鹤山区,458000,0392
河南省,鹤壁市,山城区,458000,0392
河南省,鹤壁市,淇滨区,458000,0392
河南省,鹤壁市,淇县,456700,0392
河南省,鹤壁市,浚县,456200,0392
河南省,濮阳市,濮阳市,457000,0393
河南省,濮阳市,清丰县,457300,0393
河南省,濮阳市,南乐县,457400,0393
河南省,濮阳市,台前县,457600,0393
河南省,濮阳市,濮阳县,457100,0393
河南省,濮阳市,华龙区,457000,0393
河南省,濮阳市,范县,457500,0393
河南省,周口市,周口市,466000,0394
河南省,周口市,扶沟县,461300,0394
河南省,周口市,西华县,466600,0394
河南省,周口市,商水县,466100,0394
河南省,周口市,淮阳县,466700,0394
河南省,周口市,鹿邑县,477200,0394
河南省,周口市,项城市,466200,0394
河南省,周口市,郸城县,477100,0394
河南省,周口市,川汇区,466000,0394
河南省,周口市,沈丘县,466300,0394
河南省,周口市,太康县,461400,0394
河南省,漯河市,漯河市,462000,0395
河南省,漯河市,源汇区,462000,0395
河南省,漯河市,舞阳县,462400,0395
河南省,漯河市,临颍县,462600,0395
河南省,漯河市,召陵区,462000,0395
河南省,漯河市,临颖,462600,0395
河南省,漯河市,郾城区,462000,0395
河南省,驻马店市,驻马店市,463000,0396
河南省,驻马店市,驿城区,463000,0396
河南省,驻马店市,新蔡县,463500,0396
河南省,驻马店市,上蔡县,463800,0396
河南省,驻马店市,平舆县,463400,0396
河南省,驻马店市,正阳县,463600,0396
河南省,驻马店市,泌阳县,463700,0396
河南省,驻马店市,汝南县,463300,0396
河南省,驻马店市,遂平县,463100,0396
河南省,驻马店市,西平县,463900,0396
河南省,驻马店市,确山县,463200,0396
河南省,三门峡市,三门峡市,472000,0398
河南省,三门峡市,湖滨区,472000,0398
河南省,三门峡市,渑池县,472400,0398
河南省,三门峡市,陕州区,472100,0398
河南省,三门峡市,卢氏县,472200,0398
河南省,三门峡市,义马市,472300,0398
河南省,三门峡市,灵宝市,472500,0398
湖北省,神农架林区,神农架林区,442400,0719
湖北省,江汉（天门/仙桃/潜江）区,江汉（天门/仙桃/潜江）区,433000,0728
湖北省,十堰市,十堰市,442000,0719
湖北省,十堰市,丹江口市,442700,0719
湖北省,十堰市,竹溪县,442300,0719
湖北省,十堰市,房县,442100,0719
湖北省,十堰市,张湾区,442000,0719
湖北省,十堰市,郧阳区,442500,0719
湖北省,十堰市,竹山县,442200,0719
湖北省,十堰市,茅箭区,442000,0719
湖北省,十堰市,郧西县,442600,0719
湖北省,随州市,随州市,441300,0722
湖北省,随州市,广水市,432700,0722
湖北省,随州市,随县,441300,0722
湖北省,随州市,随枣,441200,0722
湖北省,随州市,曾都区,441300,0722
湖北省,荆门市,荆门市,448000,0724
湖北省,荆门市,钟祥市,431900,0724
湖北省,荆门市,京山县,431800,0724
湖北省,荆门市,沙洋县,448200,0724
湖北省,荆门市,掇刀区,448100,0724
湖北省,荆门市,东宝区,448100,0724
湖北省,潜江市,潜江市,433100,0728
湖北省,天门市,天门市,431700,0728
湖北省,仙桃市,仙桃市,433000,0728
湖北省,武汉市,武汉市,430000,027
湖北省,武汉市,江汉区,430000,027
湖北省,武汉市,武昌区,430000,027
湖北省,武汉市,蔡甸区,430100,027
湖北省,武汉市,东西湖区,430000,027
湖北省,武汉市,汉南区,430000,027
湖北省,武汉市,汉阳区,430000,027
湖北省,武汉市,黄陂区,430300,027
湖北省,武汉市,江岸区,430000,027
湖北省,武汉市,硚口区,430000,027
湖北省,武汉市,青山区,430000,027
湖北省,武汉市,武昌县,430200,027
湖北省,武汉市,江夏区,430200,027
湖北省,武汉市,洪山区,430000,027
湖北省,武汉市,新洲区,430400,027
湖北省,襄阳市,襄阳市,441000,0710
湖北省,襄阳市,高新区,441000,0710
湖北省,襄阳市,襄州区,441100,0710
湖北省,襄阳市,老河口市,441800,0710
湖北省,襄阳市,宜城市,441400,0710
湖北省,襄阳市,枣阳市,441200,0710
湖北省,襄阳市,谷城县,441700,0710
湖北省,襄阳市,南漳县,441500,0710
湖北省,襄阳市,樊城区,441000,0710
湖北省,襄阳市,襄城区,441000,0710
湖北省,襄阳市,保康县,441600,0710
湖北省,鄂州市,鄂州市,436000,0711
湖北省,鄂州市,梁子湖区,436000,0711
湖北省,鄂州市,华容区,436000,0711
湖北省,鄂州市,鄂城区,436000,0711
湖北省,孝感市,孝感市,432000,0712
湖北省,孝感市,孝昌县,432900,0712
湖北省,孝感市,大悟县,432800,0712
湖北省,孝感市,云梦县,432500,0712
湖北省,孝感市,安陆市,432600,0712
湖北省,孝感市,汉川市,431600,0712
湖北省,孝感市,孝南区,432000,0712
湖北省,孝感市,应城市,432400,0712
湖北省,黄冈市,黄冈市,438000,0713
湖北省,黄冈市,红安县,438400,0713
湖北省,黄冈市,罗田县,438600,0713
湖北省,黄冈市,英山县,438700,0713
湖北省,黄冈市,浠水县,438200,0713
湖北省,黄冈市,黄梅县,435500,0713
湖北省,黄冈市,麻城市,438300,0713
湖北省,黄冈市,武穴市,435400,0713
湖北省,黄冈市,团风县,438800,0713
湖北省,黄冈市,黄州区,438000,0713
湖北省,黄冈市,蕲春县,435300,0713
湖北省,黄石市,黄石市,435000,0714
湖北省,黄石市,黄石港区,435000,0714
湖北省,黄石市,下陆区,435000,0714
湖北省,黄石市,铁山区,435000,0714
湖北省,黄石市,阳新县,435200,0714
湖北省,黄石市,团城山开发区,435000,0714
湖北省,黄石市,西塞山区,435000,0714
湖北省,黄石市,大冶市,435100,0714
湖北省,咸宁市,咸宁市,437000,0715
湖北省,咸宁市,咸安区,437000,0715
湖北省,咸宁市,通城县,437400,0715
湖北省,咸宁市,崇阳县,437500,0715
湖北省,咸宁市,通山县,437600,0715
湖北省,咸宁市,赤壁市,437300,0715
湖北省,咸宁市,蒲圻,437300,0715
湖北省,咸宁市,嘉鱼县,437200,0715
湖北省,荆州市,荆州市,434000,0716
湖北省,荆州市,洪湖市,433200,0716
湖北省,荆州市,松滋市,434200,0716
湖北省,荆州市,沙市区,434000,0716
湖北省,荆州市,荆州区,434000,0716
湖北省,荆州市,公安县,434300,0716
湖北省,荆州市,监利县,433300,0716
湖北省,荆州市,江陵县,434100,0716
湖北省,荆州市,荆沙,434100,0716
湖北省,荆州市,石首市,434400,0716
湖北省,宜昌市,宜昌市,443000,0717
湖北省,宜昌市,枝江市,443200,0717
湖北省,宜昌市,长阳土家族自治县,443500,0717
湖北省,宜昌市,当阳市,444100,0717
湖北省,宜昌市,西陵区,443000,0717
湖北省,宜昌市,伍家岗区,443000,0717
湖北省,宜昌市,猇亭区,443000,0717
湖北省,宜昌市,夷陵区,443100,0717
湖北省,宜昌市,远安县,444200,0717
湖北省,宜昌市,兴山县,443700,0717
湖北省,宜昌市,宜都市,443300,0717
湖北省,宜昌市,远发,444200,0717
湖北省,宜昌市,枝城,443300,0717
湖北省,宜昌市,五峰土家族自治县,443400,0717
湖北省,宜昌市,点军区,443000,0717
湖北省,宜昌市,秭归县,443600,0717
湖北省,恩施土家族苗族自治州,恩施土家族苗族自治州,445000,0718
湖北省,恩施土家族苗族自治州,利川市,445400,0718
湖北省,恩施土家族苗族自治州,建始县,445300,0718
湖北省,恩施土家族苗族自治州,巴东县,444300,0718
湖北省,恩施土家族苗族自治州,咸丰县,445600,0718
湖北省,恩施土家族苗族自治州,来凤县,445700,0718
湖北省,恩施土家族苗族自治州,鹤峰县,445800,0718
湖北省,恩施土家族苗族自治州,恩施市,445000,0718
湖北省,恩施土家族苗族自治州,宣恩县,445500,0718
湖南省,岳阳市,岳阳市,414000,0730
湖南省,岳阳市,岳阳楼区,414000,0730
湖南省,岳阳市,云溪区,414000,0730
湖南省,岳阳市,岳阳县,414100,0730
湖南省,岳阳市,华容县,414200,0730
湖南省,岳阳市,汨罗市,414400,0730
湖南省,岳阳市,临湘市,414300,0730
湖南省,岳阳市,平江县,414500,0730
湖南省,岳阳市,湘阴县,414600,0730
湖南省,岳阳市,君山区,414000,0730
湖南省,长沙市,长沙市,410000,0731
湖南省,长沙市,开福区,410000,0731
湖南省,长沙市,雨花区,410000,0731
湖南省,长沙市,宁乡县,410600,0731
湖南省,长沙市,浏阳市,410300,0731
湖南省,长沙市,芙蓉区,410000,0731
湖南省,长沙市,岳麓区,410200,0731
湖南省,长沙市,望城区,410200,0731
湖南省,长沙市,长沙县,410100,0731
湖南省,长沙市,天心区,410000,0731
湖南省,湘潭市,湘潭市,411100,0731
湖南省,湘潭市,雨湖区,411100,0731
湖南省,湘潭市,岳塘区,411100,0731
湖南省,湘潭市,湘乡市,411400,0731
湖南省,湘潭市,韶山市,411300,0731
湖南省,湘潭市,湘潭县,411200,0731
湖南省,株洲市,株洲市,412000,0731
湖南省,株洲市,醴陵市,412200,0731
湖南省,株洲市,芦淞区,412000,0731
湖南省,株洲市,石峰区,412000,0731
湖南省,株洲市,天元区,412000,0731
湖南省,株洲市,茶陵县,412400,0731
湖南省,株洲市,炎陵县,412500,0731
湖南省,株洲市,株洲县,412100,0731
湖南省,株洲市,荷塘区,412000,0731
湖南省,株洲市,攸县,412300,0731
湖南省,衡阳市,衡阳市,421000,0734
湖南省,衡阳市,珠晖区,421000,0734
湖南省,衡阳市,雁峰区,421000,0734
湖南省,衡阳市,石鼓区,421000,0734
湖南省,衡阳市,蒸湘区,421000,0734
湖南省,衡阳市,衡阳县,421200,0734
湖南省,衡阳市,衡山县,421300,0734
湖南省,衡阳市,衡东县,421400,0734
湖南省,衡阳市,祁东县,421600,0734
湖南省,衡阳市,常宁市,421500,0734
湖南省,衡阳市,南岳区,421900,0734
湖南省,衡阳市,衡南县,421100,0734
湖南省,衡阳市,耒阳市,421800,0734
湖南省,郴州市,郴州市,423000,0735
湖南省,郴州市,北湖区,423000,0735
湖南省,郴州市,苏仙区,423000,0735
湖南省,郴州市,桂阳县,424400,0735
湖南省,郴州市,永兴县,423300,0735
湖南省,郴州市,嘉禾县,424500,0735
湖南省,郴州市,临武县,424300,0735
湖南省,郴州市,汝城县,424100,0735
湖南省,郴州市,安仁县,423600,0735
湖南省,郴州市,资兴市,423400,0735
湖南省,郴州市,宜章县,424200,0735
湖南省,郴州市,桂东县,423500,0735
湖南省,常德市,常德市,415000,0736
湖南省,常德市,澧县,415500,0736
湖南省,常德市,桃源县,415700,0736
湖南省,常德市,石门县,415300,0736
湖南省,常德市,津市市,415400,0736
湖南省,常德市,鼎城区,415100,0736
湖南省,常德市,安乡县,415600,0736
湖南省,常德市,汉寿县,415900,0736
湖南省,常德市,武陵区,415000,0736
湖南省,常德市,临澧县,415200,0736
湖南省,益阳市,益阳市,413000,0737
湖南省,益阳市,资阳区,413000,0737
湖南省,益阳市,赫山区,413000,0737
湖南省,益阳市,南县,413200,0737
湖南省,益阳市,桃江县,413400,0737
湖南省,益阳市,安化县,413500,0737
湖南省,益阳市,沅江市,413100,0737
湖南省,娄底市,娄底市,417000,0738
湖南省,娄底市,娄星区,417000,0738
湖南省,娄底市,双峰县,417700,0738
湖南省,娄底市,新化县,417600,0738
湖南省,娄底市,涟源市,417100,0738
湖南省,娄底市,冷水江市,417500,0738
湖南省,邵阳市,邵阳市,422000,0739
湖南省,邵阳市,武冈市,422400,0739
湖南省,邵阳市,双清区,422000,0739
湖南省,邵阳市,北塔区,422000,0739
湖南省,邵阳市,邵东县,422800,0739
湖南省,邵阳市,新邵县,422900,0739
湖南省,邵阳市,邵阳县,422100,0739
湖南省,邵阳市,隆回县,422200,0739
湖南省,邵阳市,洞口县,422300,0739
湖南省,邵阳市,绥宁县,422600,0739
湖南省,邵阳市,新宁县,422700,0739
湖南省,邵阳市,武岗,422400,0739
湖南省,邵阳市,大祥区,422000,0739
湖南省,邵阳市,城步苗族自治县,422500,0739
湖南省,张家界市,张家界市,427000,0744
湖南省,张家界市,慈利县,427200,0744
湖南省,张家界市,武陵源区,427400,0744
湖南省,张家界市,永定区,427300,0744
湖南省,张家界市,桑植县,427100,0744
湖南省,怀化市,怀化市,418000,0745
湖南省,怀化市,通道侗族自治县,418500,0745
湖南省,怀化市,麻阳苗族自治县,419400,0745
湖南省,怀化市,新晃侗族自治县,419200,0745
湖南省,怀化市,芷江侗族自治县,419100,0745
湖南省,怀化市,靖州苗族侗族自治县,418400,0745
湖南省,怀化市,鹤城区,418000,0745
湖南省,怀化市,沅陵县,419600,0745
湖南省,怀化市,辰溪县,419500,0745
湖南省,怀化市,溆浦县,419300,0745
湖南省,怀化市,洪江市,418100,0745
湖南省,怀化市,黔阳,418100,0745
湖南省,怀化市,中方县,418000,0745
湖南省,怀化市,会同县,418300,0745
湖南省,永州市,永州市,425000,0746
湖南省,永州市,江华瑶族自治县,425500,0746
湖南省,永州市,东安县,425900,0746
湖南省,永州市,双牌县,425200,0746
湖南省,永州市,道县,425300,0746
湖南省,永州市,江永县,425400,0746
湖南省,永州市,蓝山县,425800,0746
湖南省,永州市,新田县,425700,0746
湖南省,永州市,冷水滩区,425000,0746
湖南省,永州市,零陵区,425100,0746
湖南省,永州市,祁阳县,426100,0746
湖南省,永州市,宁远县,425600,0746
湖南省,湘西土家族苗族自治州,湘西土家族苗族自治州,416000,0743
湖南省,湘西土家族苗族自治州,吉首市,416000,0743
湖南省,湘西土家族苗族自治州,泸溪县,416100,0743
湖南省,湘西土家族苗族自治州,龙山县,416800,0743
湖南省,湘西土家族苗族自治州,花垣县,416400,0743
湖南省,湘西土家族苗族自治州,保靖县,416500,0743
湖南省,湘西土家族苗族自治州,古丈县,416300,0743
湖南省,湘西土家族苗族自治州,永顺县,416700,0743
湖南省,湘西土家族苗族自治州,凤凰县,416200,0743
广东省,广州市,广州市,510000,020
广东省,广州市,越秀区,510000,020
广东省,广州市,黄埔区,510700,020
广东省,广州市,番禺区,511400,020
广东省,广州市,南沙区,511400,020
广东省,广州市,萝岗区,510000,020
广东省,广州市,增城区,511300,020
广东省,广州市,从化区,510900,020
广东省,广州市,海珠区,510200,020
广东省,广州市,荔湾区,510100,020
广东省,广州市,天河区,510600,020
广东省,广州市,花都区（原花县）,510800,020
广东省,广州市,花都区,510800,020
广东省,广州市,白云区,510400,020
广东省,汕尾市,汕尾市,516600,0660
广东省,汕尾市,海丰县,516400,0660
广东省,汕尾市,陆河县,516700,0660
广东省,汕尾市,陆丰市,516500,0660
广东省,汕尾市,红海湾经济开发试验区,516600,0660
广东省,汕尾市,城区,516600,0660
广东省,阳江市,阳江市,529500,0662
广东省,阳江市,江城区,529500,0662
广东省,阳江市,阳西县,529800,0662
广东省,阳江市,阳东区,529900,0662
广东省,阳江市,阳春市,529600,0662
广东省,揭阳市,揭阳市,522000,0663
广东省,揭阳市,榕城区,522000,0663
广东省,揭阳市,揭东区,515500,0663
广东省,揭阳市,揭西县,515400,0663
广东省,揭阳市,惠来县,515200,0663
广东省,揭阳市,东山区,522000,0663
广东省,揭阳市,经济开发试验区,522000,0663
广东省,揭阳市,普宁市,515300,0663
广东省,茂名市,茂名市,525000,0668
广东省,茂名市,茂南区,525000,0668
广东省,茂名市,电白区,525400,0668
广东省,茂名市,高州市,525200,0668
广东省,茂名市,化州市,525100,0668
广东省,茂名市,茂港区,525000,0668
广东省,茂名市,信宜市,525300,0668
广东省,江门市,江门市,529000,0750
广东省,江门市,蓬江区,529000,0750
广东省,江门市,江海区,529000,0750
广东省,江门市,新会区,529100,0750
广东省,江门市,台山市,529200,0750
广东省,江门市,开平市,529300,0750
广东省,江门市,鹤山市,529700,0750
广东省,江门市,恩平市,529400,0750
广东省,韶关市,韶关市,512000,0751
广东省,韶关市,武江区,512000,0751
广东省,韶关市,曲江区,512100,0751
广东省,韶关市,始兴县,512500,0751
广东省,韶关市,仁化县,512300,0751
广东省,韶关市,翁源县,512600,0751
广东省,韶关市,新丰县,511100,0751
广东省,韶关市,乐昌市,512200,0751
广东省,韶关市,南雄市,512400,0751
广东省,韶关市,浈江区,512000,0751
广东省,韶关市,乳源瑶族自治县,512700,0751
广东省,惠州市,惠州市,516000,0752
广东省,惠州市,惠阳区,516200,0752
广东省,惠州市,博罗县,516100,0752
广东省,惠州市,惠东县,516300,0752
广东省,惠州市,龙门县,516800,0752
广东省,惠州市,惠城区,516000,0752
广东省,梅州市,梅州市,514000,0753
广东省,梅州市,兴宁市,514500,0753
广东省,梅州市,平远县,514600,0753
广东省,梅州市,蕉岭县,514100,0753
广东省,梅州市,梅县区,514700,0753
广东省,梅州市,大埔县,514200,0753
广东省,梅州市,丰顺县,514300,0753
广东省,梅州市,五华县,514400,0753
广东省,梅州市,梅江区,514000,0753
广东省,汕头市,汕头市,515000,0754
广东省,汕头市,龙湖区,515000,0754
广东省,汕头市,金平区,515000,0754
广东省,汕头市,濠江区,515000,0754
广东省,汕头市,潮阳区,515100,0754
广东省,汕头市,澄海区,515800,0754
广东省,汕头市,南澳县,515900,0754
广东省,汕头市,潮南区,515100,0754
广东省,深圳市,深圳市,518000,0755
广东省,深圳市,南山区,518000,0755
广东省,深圳市,宝安区,518100,0755
广东省,深圳市,盐田区,518000,0755
广东省,深圳市,罗湖区,518000,0755
广东省,深圳市,福田区,518000,0755
广东省,深圳市,龙岗区,518100,0755
广东省,深圳市,龙华区,518000,0755
广东省,深圳市,坪山区,518000,0755
广东省,珠海市,珠海市,519000,0756
广东省,珠海市,斗门区,519100,0756
广东省,珠海市,金湾区,519000,0756
广东省,珠海市,香洲区,519000,0756
广东省,佛山市,佛山市,528000,0757
广东省,佛山市,三水区,528100,0757
广东省,佛山市,高明区,528500,0757
广东省,佛山市,南海区,528200,0757
广东省,佛山市,顺德区,528300,0757
广东省,佛山市,禅城区,528000,0757
广东省,肇庆市,肇庆市,526000,0758
广东省,肇庆市,端州区,526000,0758
广东省,肇庆市,广宁县,526300,0758
广东省,肇庆市,怀集县,526400,0758
广东省,肇庆市,封开县,526500,0758
广东省,肇庆市,德庆县,526600,0758
广东省,肇庆市,高要区,526100,0758
广东省,肇庆市,四会市,526200,0758
广东省,肇庆市,鼎湖区,526000,0758
广东省,湛江市,湛江市,524000,0759
广东省,湛江市,霞山区,524000,0759
广东省,湛江市,坡头区,524000,0759
广东省,湛江市,遂溪县,524300,0759
广东省,湛江市,徐闻县,524100,0759
广东省,湛江市,廉江市,524400,0759
广东省,湛江市,雷州市,524200,0759
广东省,湛江市,赤坎区,524000,0759
广东省,湛江市,东海岛,524000,0759
广东省,湛江市,开发区,524000,0759
广东省,湛江市,吴川市,524500,0759
广东省,湛江市,麻章区,524000,0759
广东省,中山市,中山市,528400,0760
广东省,河源市,河源市,517000,0762
广东省,河源市,紫金县,517400,0762
广东省,河源市,龙川县,517300,0762
广东省,河源市,东源县,517500,0762
广东省,河源市,连平县,517100,0762
广东省,河源市,和平县,517200,0762
广东省,河源市,源城区,517000,0762
广东省,清远市,清远市,511500,0763
广东省,清远市,清城区,511500,0763
广东省,清远市,佛冈县,511600,0763
广东省,清远市,阳山县,513100,0763
广东省,清远市,连山壮族瑶族自治县,513200,0763
广东省,清远市,连南瑶族自治县,513300,0763
广东省,清远市,清新区,511800,0763
广东省,清远市,英德市,513000,0763
广东省,清远市,连州市,513400,0763
广东省,云浮市,云浮市,527300,0766
广东省,云浮市,云城区,527300,0766
广东省,云浮市,郁南县,527100,0766
广东省,云浮市,云安区,527500,0766
广东省,云浮市,罗定市,527200,0766
广东省,云浮市,新兴县,527400,0766
广东省,潮州市,潮州市,521000,0768
广东省,潮州市,湘桥区,521000,0768
广东省,潮州市,潮安区,515600,0768
广东省,潮州市,枫溪区,521000,0768
广东省,潮州市,饶平县,515700,0768
广东省,东莞市,东莞市,523000,0769
广西壮族自治区,防城港市,防城港市,538000,0770
广西壮族自治区,防城港市,港口区,538000,0770
广西壮族自治区,防城港市,上思县,535500,0770
广西壮族自治区,防城港市,东兴市,538100,0770
广西壮族自治区,防城港市,防城区,538000,0770
广西壮族自治区,南宁市,南宁市,530000,0771
广西壮族自治区,南宁市,兴宁区,530000,0771
广西壮族自治区,南宁市,青秀区,530000,0771
广西壮族自治区,南宁市,西乡塘区,530000,0771
广西壮族自治区,南宁市,良庆区,530200,0771
广西壮族自治区,南宁市,邕宁区,530200,0771
广西壮族自治区,南宁市,隆安县,532700,0771
广西壮族自治区,南宁市,马山县,530600,0771
广西壮族自治区,南宁市,上林县,530500,0771
广西壮族自治区,南宁市,宾阳县,530400,0771
广西壮族自治区,南宁市,江南区,530000,0771
广西壮族自治区,南宁市,武鸣区,530100,0771
广西壮族自治区,南宁市,横县,530300,0771
广西壮族自治区,崇左市,崇左市,532200,0771
广西壮族自治区,崇左市,江洲区,532200,0771
广西壮族自治区,崇左市,扶绥县,532100,0771
广西壮族自治区,崇左市,宁明县,532500,0771
广西壮族自治区,崇左市,龙州县,532400,0771
广西壮族自治区,崇左市,大新县,532300,0771
广西壮族自治区,崇左市,天等县,532800,0771
广西壮族自治区,崇左市,凭祥市,532600,0771
广西壮族自治区,崇左市,江州区,532200,0771
广西壮族自治区,柳州市,柳州市,545000,0772
广西壮族自治区,柳州市,城中区,545000,0772
广西壮族自治区,柳州市,柳南区,545000,0772
广西壮族自治区,柳州市,柳北区,545000,0772
广西壮族自治区,柳州市,柳江区,545100,0772
广西壮族自治区,柳州市,柳城县,545200,0772
广西壮族自治区,柳州市,鹿寨县,545600,0772
广西壮族自治区,柳州市,融水苗族自治县,545300,0772
广西壮族自治区,柳州市,三江侗族自治县,545500,0772
广西壮族自治区,柳州市,融冰,545300,0772
广西壮族自治区,柳州市,鱼峰区,545000,0772
广西壮族自治区,柳州市,融安县,545400,0772
广西壮族自治区,来宾市,来宾市,546100,0772
广西壮族自治区,来宾市,金秀瑶族自治县,545700,0772
广西壮族自治区,来宾市,兴宾区,546100,0772
广西壮族自治区,来宾市,忻城县,546200,0772
广西壮族自治区,来宾市,象州县,545800,0772
广西壮族自治区,来宾市,合山市,546500,0772
广西壮族自治区,来宾市,武宣县,545900,0772
广西壮族自治区,桂林市,桂林市,541000,0773
广西壮族自治区,桂林市,秀峰区,541000,0773
广西壮族自治区,桂林市,叠彩区,541000,0773
广西壮族自治区,桂林市,象山区,541000,0773
广西壮族自治区,桂林市,七星区,541000,0773
广西壮族自治区,桂林市,雁山区,541000,0773
广西壮族自治区,桂林市,阳朔县,541900,0773
广西壮族自治区,桂林市,临桂区,541100,0773
广西壮族自治区,桂林市,灵川县,541200,0773
广西壮族自治区,桂林市,兴安县,541300,0773
广西壮族自治区,桂林市,永福县,541800,0773
广西壮族自治区,桂林市,灌阳县,541600,0773
广西壮族自治区,桂林市,资源县,541400,0773
广西壮族自治区,桂林市,平乐县,542400,0773
广西壮族自治区,桂林市,荔蒲县,546600,0773
广西壮族自治区,桂林市,恭城瑶族自治县,542500,0773
广西壮族自治区,桂林市,全州县,541500,0773
广西壮族自治区,桂林市,龙胜各族自治县,541700,0773
广西壮族自治区,桂林市,荔浦县,546600,0773
广西壮族自治区,梧州市,梧州市,543000,0774
广西壮族自治区,梧州市,万秀区,543000,0774
广西壮族自治区,梧州市,蝶山区,543000,0774
广西壮族自治区,梧州市,长洲区,543000,0774
广西壮族自治区,梧州市,苍梧县,543100,0774
广西壮族自治区,梧州市,蒙山县,546700,0774
广西壮族自治区,梧州市,岑溪市,543200,0774
广西壮族自治区,梧州市,龙圩区,543000,0774
广西壮族自治区,梧州市,藤县,543300,0774
广西壮族自治区,贺州市,贺州市,542800,0774
广西壮族自治区,贺州市,昭平县,546800,0774
广西壮族自治区,贺州市,富川瑶族自治县,542700,0774
广西壮族自治区,贺州市,八步区,542800,0774
广西壮族自治区,贺州市,贺县,542800,0774
广西壮族自治区,贺州市,钟山县,542600,0774
广西壮族自治区,贺州市,平桂区,542800,0774
广西壮族自治区,玉林市,玉林市,537000,0775
广西壮族自治区,玉林市,玉州区,537000,0775
广西壮族自治区,玉林市,容县,537500,0775
广西壮族自治区,玉林市,陆川县,537700,0775
广西壮族自治区,玉林市,博白县,537600,0775
广西壮族自治区,玉林市,兴业县,537800,0775
广西壮族自治区,玉林市,北流市,537400,0775
广西壮族自治区,玉林市,福绵区,537000,0775
广西壮族自治区,贵港市,贵港市,537100,0775
广西壮族自治区,贵港市,港北区,537100,0775
广西壮族自治区,贵港市,港南区,537100,0775
广西壮族自治区,贵港市,覃塘区,537100,0775
广西壮族自治区,贵港市,桂平市,537200,0775
广西壮族自治区,贵港市,平南县,537300,0775
广西壮族自治区,百色市,百色市,533000,0776
广西壮族自治区,百色市,右江区,533000,0776
广西壮族自治区,百色市,田阳县,533600,0776
广西壮族自治区,百色市,田东县,531500,0776
广西壮族自治区,百色市,平果县,531400,0776
广西壮族自治区,百色市,德保县,533700,0776
广西壮族自治区,百色市,靖西市,533800,0776
广西壮族自治区,百色市,西林县,533500,0776
广西壮族自治区,百色市,凌云县,533100,0776
广西壮族自治区,百色市,乐业县,533200,0776
广西壮族自治区,百色市,田林县,533300,0776
广西壮族自治区,百色市,那坡县,533900,0776
广西壮族自治区,百色市,隆林各族自治县,533400,0776
广西壮族自治区,钦州市,钦州市,535000,0777
广西壮族自治区,钦州市,钦南区,535000,0777
广西壮族自治区,钦州市,钦北区,535000,0777
广西壮族自治区,钦州市,灵山县,535400,0777
广西壮族自治区,钦州市,浦北县,535300,0777
广西壮族自治区,河池市,河池市,547000,0778
广西壮族自治区,河池市,南丹县,547200,0778
广西壮族自治区,河池市,天峨县,547300,0778
广西壮族自治区,河池市,凤山县,547600,0778
广西壮族自治区,河池市,宜州区,546300,0778
广西壮族自治区,河池市,都安瑶族自治县,530700,0778
广西壮族自治区,河池市,大化瑶族自治县,530800,0778
广西壮族自治区,河池市,东兰县,547400,0778
广西壮族自治区,河池市,罗城仫佬族自治县,546400,0778
广西壮族自治区,河池市,巴马瑶族自治县,547500,0778
广西壮族自治区,河池市,金城江区,547000,0778
广西壮族自治区,河池市,环江毛南族自治县,547100,0778
广西壮族自治区,北海市,北海市,536000,0779
广西壮族自治区,北海市,铁山港区,536000,0779
广西壮族自治区,北海市,合浦县,536100,0779
广西壮族自治区,北海市,银海区,536000,0779
广西壮族自治区,北海市,海城区,536000,0779
海南省,海口市,海口市,570100,0898
海南省,海口市,龙华区,570100,0898
海南省,海口市,琼山区,571100,0898
海南省,海口市,美兰区,571100,0898
海南省,海口市,秀英区,570300,0898
海南省,三亚市,三亚市,572000,0898
海南省,三亚市,海棠区,572000,0898
海南省,三亚市,吉阳区,572000,0898
海南省,三亚市,天涯区,572000,0898
海南省,三亚市,崖州区,572000,0898
海南省,东方市,东方市,572600,0898
海南省,万宁市,万宁市,571500,0898
海南省,文昌市,文昌市,571300,0898
海南省,儋州市,儋州市,571700,0898
海南省,琼海市,琼海市,571400,0898
海南省,五指山市,五指山市,572200,0898
海南省,三沙市,三沙市,573100,0898
海南省,三沙市,西沙群岛,573100,0898
海南省,三沙市,南沙群岛,573100,0898
海南省,三沙市,中沙群岛,573100,0898
海南省,临高县,临高县,571800,0898
海南省,澄迈县,澄迈县,571900,0898
海南省,屯昌县,屯昌县,571600,0898
海南省,定安县,定安县,571200,0898
海南省,琼中黎族苗族自治县,琼中黎族苗族自治县,572900,0898
海南省,保亭黎族苗族自治县,保亭黎族苗族自治县,572300,0898
海南省,陵水黎族自治县,陵水黎族自治县,572400,0898
海南省,乐东黎族自治县,乐东黎族自治县,572500,0898
海南省,昌江黎族自治县,昌江黎族自治县,572700,0898
海南省,白沙黎族自治县,白沙黎族自治县,572800,0898
重庆市,重庆市,忠县,404300,023
重庆市,重庆市,南桐,400800,023
重庆市,重庆市,壁山,402700,023
重庆市,重庆市,巴县,401300,023
重庆市,重庆市,万县,404000,023
重庆市,重庆市,南川区,408400,023
重庆市,重庆市,巴南区,401300,023
重庆市,重庆市,璧山区,402700,023
重庆市,重庆市,长寿区,401200,023
重庆市,重庆市,合川区,401500,023
重庆市,重庆市,江津区,402200,023
重庆市,重庆市,荣昌区,402400,023
重庆市,重庆市,铜梁区,402500,023
重庆市,重庆市,潼南区,402600,023
重庆市,重庆市,万州区,404000,023
重庆市,重庆市,永川区,402100,023
重庆市,重庆市,渝北区,401100,023
重庆市,重庆市,綦江区,401400,023
重庆市,重庆市,大足区,402300,023
重庆市,重庆市,开州区,405400,023
重庆市,重庆市,涪陵区,408000,023
重庆市,重庆市,渝中区,400000,023
重庆市,重庆市,大渡口区,400000,023
重庆市,重庆市,江北区,400000,023
重庆市,重庆市,沙坪坝区,400000,023
重庆市,重庆市,九龙坡区,400000,023
重庆市,重庆市,南岸区,400000,023
重庆市,重庆市,北碚区,400700,023
重庆市,重庆市,万盛区,400800,023
重庆市,重庆市,双桥区,400900,023
重庆市,重庆市,黔江区,409000,023
重庆市,重庆市,梁平区,405200,023
重庆市,重庆市,武隆区,408500,023
重庆市,重庆市,高新区,400000,023
重庆市,重庆市,重庆市,400000,023
重庆市,重庆市,城口县,405900,023
重庆市,重庆市,丰都县,408200,023
重庆市,重庆市,垫江县,408300,023
重庆市,重庆市,云阳县,404500,023
重庆市,重庆市,奉节县,404600,023
重庆市,重庆市,巫山县,404700,023
重庆市,重庆市,巫溪县,405800,023
重庆市,重庆市,石柱土家族自治县,409100,023
重庆市,重庆市,秀山土家族苗族自治县,409900,023
重庆市,重庆市,酉阳土家族苗族自治县,409800,023
重庆市,重庆市,彭水苗族土家族自治县,409600,023
四川省,成都市,成都市,610000,028
四川省,成都市,高新区,610000,028
四川省,成都市,锦江区,610000,028
四川省,成都市,青羊区,610000,028
四川省,成都市,金牛区,610000,028
四川省,成都市,武侯区,610000,028
四川省,成都市,成华区,610000,028
四川省,成都市,龙泉驿区,610100,028
四川省,成都市,青白江区,610300,028
四川省,成都市,金堂县,610400,028
四川省,成都市,双流区,610200,028
四川省,成都市,郫都区,611700,028
四川省,成都市,大邑县,611300,028
四川省,成都市,新津县,611400,028
四川省,成都市,都江堰市,611800,028
四川省,成都市,彭州市,611900,028
四川省,成都市,崇州市,611200,028
四川省,成都市,温江区,611100,028
四川省,成都市,简阳市,641400,028
四川省,成都市,新都区,610500,028
四川省,成都市,蒲江县,611600,028
四川省,成都市,邛崃市,611500,028
四川省,眉山市,眉山市,620000,028
四川省,眉山市,洪雅县,620300,028
四川省,眉山市,仁寿县,620500,028
四川省,眉山市,东坡区,620000,028
四川省,眉山市,青神县,620400,028
四川省,眉山市,丹棱县,620200,028
四川省,眉山市,彭山区,620800,028
四川省,资阳市,资阳市,641300,028
四川省,资阳市,乐至县,641500,028
四川省,资阳市,雁江区,641300,028
四川省,资阳市,安岳县,642300,028
四川省,攀枝花市,攀枝花市,617000,0812
四川省,攀枝花市,西区,617000,0812
四川省,攀枝花市,仁和区,617000,0812
四川省,攀枝花市,米易县,617200,0812
四川省,攀枝花市,东区,617000,0812
四川省,攀枝花市,盐边县,617100,0812
四川省,自贡市,自贡市,643000,0813
四川省,自贡市,富顺县,643200,0813
四川省,自贡市,荣县,643100,0813
四川省,自贡市,自流井区,643000,0813
四川省,自贡市,大安区,643000,0813
四川省,自贡市,沿滩区,643000,0813
四川省,自贡市,贡井区,643100,0813
四川省,绵阳市,绵阳市,621000,0816
四川省,绵阳市,涪城区,621000,0816
四川省,绵阳市,游仙区,621000,0816
四川省,绵阳市,盐亭县,621600,0816
四川省,绵阳市,江油市,621700,0816
四川省,绵阳市,安州区,622600,0816
四川省,绵阳市,北川羌族自治县,622700,0816
四川省,绵阳市,平武县,622500,0816
四川省,绵阳市,梓潼县,622100,0816
四川省,绵阳市,三台县,621100,0816
四川省,南充市,南充市,637000,0817
四川省,南充市,高坪区,637100,0817
四川省,南充市,南部县,637300,0817
四川省,南充市,蓬安县,637800,0817
四川省,南充市,仪陇县,637600,0817
四川省,南充市,西充县,637200,0817
四川省,南充市,阆中市,637400,0817
四川省,南充市,嘉陵区,637900,0817
四川省,南充市,顺庆区,637500,0817
四川省,南充市,营山县,637700,0817
四川省,达州市,达州市,635000,0818
四川省,达州市,通川区,635000,0818
四川省,达州市,达县,635000,0818
四川省,达州市,渠县,635200,0818
四川省,达州市,开江县,636200,0818
四川省,达州市,万源市,636300,0818
四川省,达州市,达川区,636400,0818
四川省,达州市,大竹县,635100,0818
四川省,达州市,宣汉县,636100,0818
四川省,遂宁市,遂宁市,629000,0825
四川省,遂宁市,船山区,629000,0825
四川省,遂宁市,安居区,629000,0825
四川省,遂宁市,蓬溪县,629100,0825
四川省,遂宁市,大英县,629300,0825
四川省,遂宁市,射洪县,629200,0825
四川省,广安市,广安市,638500,0826
四川省,广安市,武胜县,638400,0826
四川省,广安市,邻水县,638500,0826
四川省,广安市,广安区,638000,0826
四川省,广安市,华蓥市,638600,0826
四川省,广安市,前锋区,638000,0826
四川省,广安市,岳池县,638300,0826
四川省,巴中市,巴中市,636600,0827
四川省,巴中市,通江县,636700,0827
四川省,巴中市,平昌县,636400,0827
四川省,巴中市,巴州区,636000,0827
四川省,巴中市,南江县,636600,0827
四川省,巴中市,恩阳区,636000,0827
四川省,泸州市,泸州市,646000,0830
四川省,泸州市,江阳区,646000,0830
四川省,泸州市,纳溪区,646300,0830
四川省,泸州市,合江县,646200,0830
四川省,泸州市,叙永县,646400,0830
四川省,泸州市,古蔺县,646500,0830
四川省,泸州市,龙马潭区,646600,0830
四川省,泸州市,泸县,646100,0830
四川省,宜宾市,宜宾市,644000,0831
四川省,宜宾市,兴文县,644400,0831
四川省,宜宾市,翠屏区,644000,0831
四川省,宜宾市,宜宾县,644600,0831
四川省,宜宾市,长宁县,644300,0831
四川省,宜宾市,高县,645100,0831
四川省,宜宾市,筠连县,645200,0831
四川省,宜宾市,屏山县,645300,0831
四川省,宜宾市,南溪区,644100,0831
四川省,宜宾市,珙县,644500,0831
四川省,宜宾市,江安县,644200,0831
四川省,内江市,内江市,641000,0832
四川省,内江市,市中区,641000,0832
四川省,内江市,东兴区,641100,0832
四川省,内江市,资中县,641200,0832
四川省,内江市,威远县,642400,0832
四川省,内江市,隆昌县,642100,0832
四川省,乐山市,乐山市,614000,0833
四川省,乐山市,市中区,614000,0833
四川省,乐山市,沙湾区,614900,0833
四川省,乐山市,五通桥区,614800,0833
四川省,乐山市,金口河区,614700,0833
四川省,乐山市,犍为县,614400,0833
四川省,乐山市,井研县,613100,0833
四川省,乐山市,夹江县,614100,0833
四川省,乐山市,沐川县,614500,0833
四川省,乐山市,峨边彝族自治县,614300,0833
四川省,乐山市,马边彝族自治县,614600,0833
四川省,乐山市,峨眉山市,614200,0833
四川省,乐山市,丹梭,612200,0833
四川省,雅安市,雅安市,625000,0835
四川省,雅安市,天全县,625500,0835
四川省,雅安市,芦山县,625600,0835
四川省,雅安市,宝兴县,625700,0835
四川省,雅安市,雨城区,625000,0835
四川省,雅安市,名山区,625100,0835
四川省,雅安市,荥经县,625200,0835
四川省,雅安市,汉源县,625300,0835
四川省,雅安市,石棉县,625400,0835
四川省,德阳市,德阳市,618000,0838
四川省,德阳市,旌阳区,618000,0838
四川省,德阳市,中江县,618100,0838
四川省,德阳市,罗江县,618500,0838
四川省,德阳市,广汉市,618300,0838
四川省,德阳市,绵竹市,618200,0838
四川省,德阳市,什邡市,618400,0838
四川省,广元市,广元市,628000,0839
四川省,广元市,苍溪县,628400,0839
四川省,广元市,市中区,628000,0839
四川省,广元市,朝天区,628000,0839
四川省,广元市,旺苍县,628200,0839
四川省,广元市,青川县,628100,0839
四川省,广元市,剑阁县,628300,0839
四川省,广元市,利州区,628000,0839
四川省,广元市,昭化区,628000,0839
四川省,甘孜藏族自治州,甘孜藏族自治州,626000,0836
四川省,甘孜藏族自治州,泸定县,626100,0836
四川省,甘孜藏族自治州,丹巴县,626300,0836
四川省,甘孜藏族自治州,道孚县,626400,0836
四川省,甘孜藏族自治州,炉霍县,626500,0836
四川省,甘孜藏族自治州,甘孜县,626700,0836
四川省,甘孜藏族自治州,新龙县,626800,0836
四川省,甘孜藏族自治州,色达县,626600,0836
四川省,甘孜藏族自治州,白玉县,627100,0836
四川省,甘孜藏族自治州,稻城县,627700,0836
四川省,甘孜藏族自治州,得荣县,627900,0836
四川省,甘孜藏族自治州,九龙县,626200,0836
四川省,甘孜藏族自治州,理塘县,627500,0836
四川省,甘孜藏族自治州,石渠县,627300,0836
四川省,甘孜藏族自治州,乡城县,627800,0836
四川省,甘孜藏族自治州,雅江县,627400,0836
四川省,甘孜藏族自治州,康定市,626000,0836
四川省,甘孜藏族自治州,巴塘县,627600,0836
四川省,甘孜藏族自治州,德格县,627200,0836
四川省,阿坝藏族羌族自治州,阿坝藏族羌族自治州,624000,0837
四川省,阿坝藏族羌族自治州,壤塘县,624300,0837
四川省,阿坝藏族羌族自治州,阿坝县,624600,0837
四川省,阿坝藏族羌族自治州,若尔盖县,624500,0837
四川省,阿坝藏族羌族自治州,汶川县,623000,0837
四川省,阿坝藏族羌族自治州,理县,623100,0837
四川省,阿坝藏族羌族自治州,茂县,623200,0837
四川省,阿坝藏族羌族自治州,松潘县,623300,0837
四川省,阿坝藏族羌族自治州,金川县,624100,0837
四川省,阿坝藏族羌族自治州,小金县,624200,0837
四川省,阿坝藏族羌族自治州,黑水县,623500,0837
四川省,阿坝藏族羌族自治州,红原县,624400,0837
四川省,阿坝藏族羌族自治州,九寨沟县,623400,0837
四川省,阿坝藏族羌族自治州,马尔康市,624000,0837
四川省,凉山彝族自治州,凉山彝族自治州,615000,0834
四川省,凉山彝族自治州,西昌市,615000,0834
四川省,凉山彝族自治州,木里藏族自治县,615800,0834
四川省,凉山彝族自治州,盐源县,615700,0834
四川省,凉山彝族自治州,会理县,615100,0834
四川省,凉山彝族自治州,会东县,615200,0834
四川省,凉山彝族自治州,宁南县,615400,0834
四川省,凉山彝族自治州,普格县,615300,0834
四川省,凉山彝族自治州,布拖县,616300,0834
四川省,凉山彝族自治州,甘洛县,616800,0834
四川省,凉山彝族自治州,金阳县,616200,0834
四川省,凉山彝族自治州,美姑县,616400,0834
四川省,凉山彝族自治州,喜德县,616700,0834
四川省,凉山彝族自治州,越西县,616600,0834
四川省,凉山彝族自治州,昭觉县,616100,0834
四川省,凉山彝族自治州,德昌县,615500,0834
四川省,凉山彝族自治州,冕宁县,615600,0834
四川省,凉山彝族自治州,雷波县,616500,0834
贵州省,贵阳市,贵阳市,550000,0851
贵州省,贵阳市,南明区,550000,0851
贵州省,贵阳市,云岩区,550000,0851
贵州省,贵阳市,花溪区,550000,0851
贵州省,贵阳市,白云区,550000,0851
贵州省,贵阳市,小河区,550000,0851
贵州省,贵阳市,开阳县,550300,0851
贵州省,贵阳市,息烽县,551100,0851
贵州省,贵阳市,修文县,550200,0851
贵州省,贵阳市,观山湖区,550000,0851
贵州省,贵阳市,清镇市,551400,0851
贵州省,贵阳市,乌当区,550000,0851
贵州省,遵义市,遵义市,563000,0851
贵州省,遵义市,红花岗区,563000,0851
贵州省,遵义市,汇川区,563000,0851
贵州省,遵义市,遵义县,563100,0851
贵州省,遵义市,绥阳县,563300,0851
贵州省,遵义市,正安县,563400,0851
贵州省,遵义市,道真仡佬族苗族自治县,563500,0851
贵州省,遵义市,务川仡佬族苗族自治县,564300,0851
贵州省,遵义市,湄潭县,564100,0851
贵州省,遵义市,余庆县,564400,0851
贵州省,遵义市,习水县,564600,0851
贵州省,遵义市,仁怀市,564500,0851
贵州省,遵义市,桐梓县,563200,0851
贵州省,遵义市,凤冈县,564200,0851
贵州省,遵义市,赤水市,564700,0851
贵州省,安顺市,安顺市,561000,0851
贵州省,安顺市,西秀区,561000,0851
贵州省,安顺市,平坝区,561100,0851
贵州省,安顺市,普定县,562100,0851
贵州省,安顺市,镇宁布依族苗族自治县,561200,0851
贵州省,安顺市,关岭布依族苗族自治县,561300,0851
贵州省,安顺市,紫云苗族布依族自治县,550800,0851
贵州省,铜仁市,铜仁市,554300,0856
贵州省,铜仁市,江口县,554400,0856
贵州省,铜仁市,石阡县,555100,0856
贵州省,铜仁市,思南县,565100,0856
贵州省,铜仁市,印江土家族苗族自治县,555200,0856
贵州省,铜仁市,德江县,565200,0856
贵州省,铜仁市,松桃苗族自治县,554100,0856
贵州省,铜仁市,万山区,554200,0856
贵州省,铜仁市,玉屏侗族自治县,554000,0856
贵州省,铜仁市,碧江区,554300,0856
贵州省,铜仁市,沿河土家族自治县,565300,0856
贵州省,毕节市,毕节市,551700,0857
贵州省,毕节市,织金县,552100,0857
贵州省,毕节市,纳雍县,553300,0857
贵州省,毕节市,威宁彝族回族苗族自治县,553100,0857
贵州省,毕节市,赫章县,553200,0857
贵州省,毕节市,七星关区,551700,0857
贵州省,毕节市,大方县,551600,0857
贵州省,毕节市,黔西县,551500,0857
贵州省,毕节市,金沙县,551800,0857
贵州省,六盘水市,六盘水市,553000,0858
贵州省,六盘水市,钟山区,553000,0858
贵州省,六盘水市,六枝特区,553400,0858
贵州省,六盘水市,水城县,553000,0858
贵州省,六盘水市,盘县,553500,0858
贵州省,黔西南布依族苗族自治州,黔西南布依族苗族自治州,562400,0859
贵州省,黔西南布依族苗族自治州,望谟县,552300,0859
贵州省,黔西南布依族苗族自治州,册亨县,552200,0859
贵州省,黔西南布依族苗族自治州,兴义市,562400,0859
贵州省,黔西南布依族苗族自治州,兴仁县,562300,0859
贵州省,黔西南布依族苗族自治州,普安县,561500,0859
贵州省,黔西南布依族苗族自治州,晴隆县,561400,0859
贵州省,黔西南布依族苗族自治州,贞丰县,562200,0859
贵州省,黔西南布依族苗族自治州,安龙县,552400,0859
贵州省,黔南布依族苗族自治州,黔南布依族苗族自治州,558000,0854
贵州省,黔南布依族苗族自治州,福泉市,550500,0854
贵州省,黔南布依族苗族自治州,荔波县,558400,0854
贵州省,黔南布依族苗族自治州,贵定县,551300,0854
贵州省,黔南布依族苗族自治州,瓮安县,550400,0854
贵州省,黔南布依族苗族自治州,平塘县,558300,0854
贵州省,黔南布依族苗族自治州,罗甸县,550100,0854
贵州省,黔南布依族苗族自治州,长顺县,550700,0854
贵州省,黔南布依族苗族自治州,龙里县,551200,0854
贵州省,黔南布依族苗族自治州,三都水族自治县,558100,0854
贵州省,黔南布依族苗族自治州,都匀市,558000,0854
贵州省,黔南布依族苗族自治州,独山县,558200,0854
贵州省,黔南布依族苗族自治州,惠水县,550600,0854
贵州省,黔东南苗族侗族自治州,黔东南苗族侗族自治州,556000,0855
贵州省,黔东南苗族侗族自治州,丹寨县,557500,0855
贵州省,黔东南苗族侗族自治州,榕江县,557200,0855
贵州省,黔东南苗族侗族自治州,从江县,557400,0855
贵州省,黔东南苗族侗族自治州,雷山县,557100,0855
贵州省,黔东南苗族侗族自治州,麻江县,557600,0855
贵州省,黔东南苗族侗族自治州,三穗县,556500,0855
贵州省,黔东南苗族侗族自治州,镇远县,557700,0855
贵州省,黔东南苗族侗族自治州,天柱县,556600,0855
贵州省,黔东南苗族侗族自治州,锦屏县,556700,0855
贵州省,黔东南苗族侗族自治州,剑河县,556400,0855
贵州省,黔东南苗族侗族自治州,黎平县,557300,0855
贵州省,黔东南苗族侗族自治州,凯里市,556000,0855
贵州省,黔东南苗族侗族自治州,黄平县,556100,0855
贵州省,黔东南苗族侗族自治州,施秉县,556200,0855
贵州省,黔东南苗族侗族自治州,岑巩县,557800,0855
贵州省,黔东南苗族侗族自治州,台江县,556300,0855
云南省,昭通市,昭通市,657000,0870
云南省,昭通市,昭阳区,657000,0870
云南省,昭通市,鲁甸县,657100,0870
云南省,昭通市,巧家县,654600,0870
云南省,昭通市,大关县,657400,0870
云南省,昭通市,永善县,657300,0870
云南省,昭通市,绥江县,657700,0870
云南省,昭通市,彝良县,657600,0870
云南省,昭通市,威信县,657900,0870
云南省,昭通市,水富县,657800,0870
云南省,昭通市,盐津县,657500,0870
云南省,昭通市,镇雄县,657200,0870
云南省,昆明市,昆明市,650000,0871
云南省,昆明市,晋宁区,650600,0871
云南省,昆明市,富民县,650400,0871
云南省,昆明市,宜良县,652100,0871
云南省,昆明市,石林彝族自治县,652200,0871
云南省,昆明市,嵩明县,651700,0871
云南省,昆明市,寻甸回族彝族自治县,655200,0871
云南省,昆明市,安宁市,650300,0871
云南省,昆明市,五华区,650000,0871
云南省,昆明市,东川区,654100,0871
云南省,昆明市,盘龙区,650200,0871
云南省,昆明市,西山区,650200,0871
云南省,昆明市,呈贡区,650500,0871
云南省,昆明市,禄劝彝族苗族自治县,651500,0871
云南省,昆明市,官渡区,650200,0871
云南省,昆明市,路南,652200,0871
云南省,曲靖市,曲靖市,655000,0874
云南省,曲靖市,麒麟区,655000,0874
云南省,曲靖市,马龙县,655100,0874
云南省,曲靖市,陆良县,655600,0874
云南省,曲靖市,师宗县,655700,0874
云南省,曲靖市,罗平县,655800,0874
云南省,曲靖市,富源县,655500,0874
云南省,曲靖市,宣威市,655400,0874
云南省,曲靖市,沾益区,655300,0874
云南省,曲靖市,会泽县,654200,0874
云南省,保山市,保山市,678000,0875
云南省,保山市,隆阳区,678000,0875
云南省,保山市,昌宁县,678100,0875
云南省,保山市,腾冲市,679100,0875
云南省,保山市,龙陵县,678300,0875
云南省,保山市,施甸县,678200,0875
云南省,普洱市,普洱市,665000,0879
云南省,普洱市,西盟佤族自治县,665700,0879
云南省,普洱市,澜沧拉祜族自治县,665600,0879
云南省,普洱市,江城哈尼族彝族自治县,665900,0879
云南省,普洱市,镇沅彝族哈尼族拉祜族自治县,666500,0879
云南省,普洱市,景谷傣族彝族自治县,666400,0879
云南省,普洱市,景东彝族自治县,676200,0879
云南省,普洱市,墨江哈尼族自治县,654800,0879
云南省,普洱市,普洱哈尼族彝族自治县,665100,0879
云南省,普洱市,思茅区,665000,0879
云南省,普洱市,宁洱哈尼族彝族自治县,665000,0879
云南省,普洱市,孟连傣族拉祜族佤族自治县,665800,0879
云南省,临沧市,临沧市,677000,0883
云南省,临沧市,沧源佤族自治县,677400,0883
云南省,临沧市,临翔区,677000,0883
云南省,临沧市,云县,675800,0883
云南省,临沧市,永德县,677600,0883
云南省,临沧市,镇康县,677700,0883
云南省,临沧市,耿马傣族佤族自治县,677500,0883
云南省,临沧市,凤庆县,675900,0883
云南省,临沧市,双江拉祜族佤族布朗族傣族自治县,677300,0883
云南省,玉溪市,玉溪市,653100,0877
云南省,玉溪市,元江哈尼族彝族傣族自治县,653300,0877
云南省,玉溪市,华宁县,652800,0877
云南省,玉溪市,易门县,651100,0877
云南省,玉溪市,峨山彝族自治县,653200,0877
云南省,玉溪市,新平彝族傣族自治县,653400,0877
云南省,玉溪市,红塔区,653100,0877
云南省,玉溪市,澄江县,652500,0877
云南省,玉溪市,通海县,652700,0877
云南省,玉溪市,江川区,652600,0877
云南省,丽江市,丽江市,674100,0888
云南省,丽江市,宁蒗彝族自治县,674300,0888
云南省,丽江市,古城区,674100,0888
云南省,丽江市,玉龙纳西族自治县,674100,0888
云南省,丽江市,永胜县,674200,0888
云南省,丽江市,华坪县,674800,0888
云南省,楚雄彝族自治州,楚雄彝族自治州,675000,0878
云南省,楚雄彝族自治州,永仁县,651400,0878
云南省,楚雄彝族自治州,武定县,651600,0878
云南省,楚雄彝族自治州,禄丰县,651200,0878
云南省,楚雄彝族自治州,楚雄市,675000,0878
云南省,楚雄彝族自治州,双柏县,675100,0878
云南省,楚雄彝族自治州,南华县,675200,0878
云南省,楚雄彝族自治州,姚安县,675300,0878
云南省,楚雄彝族自治州,大姚县,675400,0878
云南省,楚雄彝族自治州,元谋县,651300,0878
云南省,楚雄彝族自治州,牟定县,675500,0878
云南省,怒江傈僳族自治州,怒江傈僳族自治州,673100,0886
云南省,怒江傈僳族自治州,泸水市,673200,0886
云南省,怒江傈僳族自治州,福贡县,673400,0886
云南省,怒江傈僳族自治州,贡山独龙族怒族自治县,673500,0886
云南省,怒江傈僳族自治州,六库,673100,0886
云南省,怒江傈僳族自治州,兰坪白族普米族自治县,671400,0886
云南省,迪庆藏族自治州,迪庆藏族自治州,674400,0887
云南省,迪庆藏族自治州,香格里拉县,674400,0887
云南省,迪庆藏族自治州,德钦县,674500,0887
云南省,迪庆藏族自治州,维西傈僳族自治县,674600,0887
云南省,迪庆藏族自治州,中甸,674400,0887
云南省,文山壮族苗族自治州,文山壮族苗族自治州,663000,0876
云南省,文山壮族苗族自治州,文山县,663000,0876
云南省,文山壮族苗族自治州,西畴县,663500,0876
云南省,文山壮族苗族自治州,麻栗坡县,663600,0876
云南省,文山壮族苗族自治州,马关县,663700,0876
云南省,文山壮族苗族自治州,丘北县,663200,0876
云南省,文山壮族苗族自治州,广南县,663300,0876
云南省,文山壮族苗族自治州,砚山县,663100,0876
云南省,文山壮族苗族自治州,富宁县,663400,0876
云南省,西双版纳傣族自治州,西双版纳傣族自治州,666100,0691
云南省,西双版纳傣族自治州,景洪市,666100,0691
云南省,西双版纳傣族自治州,勐海县,666200,0691
云南省,西双版纳傣族自治州,孟海,666200,0691
云南省,西双版纳傣族自治州,孟腊,666300,0691
云南省,西双版纳傣族自治州,勐腊县,666300,0691
云南省,德宏傣族景颇族自治州,德宏傣族景颇族自治州,678400,0692
云南省,德宏傣族景颇族自治州,瑞丽市,678600,0692
云南省,德宏傣族景颇族自治州,潞西市,678400,0692
云南省,德宏傣族景颇族自治州,梁河县,679200,0692
云南省,德宏傣族景颇族自治州,盈江县,679300,0692
云南省,德宏傣族景颇族自治州,陇川县,678700,0692
云南省,德宏傣族景颇族自治州,畹町,678500,0692
云南省,德宏傣族景颇族自治州,芒市,678400,0692
云南省,大理白族自治州,大理白族自治州,671000,0872
云南省,大理白族自治州,云龙县,672700,0872
云南省,大理白族自治州,洱源县,671200,0872
云南省,大理白族自治州,鹤庆县,671500,0872
云南省,大理白族自治州,大理市,671000,0872
云南省,大理白族自治州,漾濞彝族自治县,672500,0872
云南省,大理白族自治州,祥云县,672100,0872
云南省,大理白族自治州,弥渡县,675600,0872
云南省,大理白族自治州,南涧彝族自治县,675700,0872
云南省,大理白族自治州,巍山彝族回族自治县,672400,0872
云南省,大理白族自治州,永平县,672600,0872
云南省,大理白族自治州,剑川县,671300,0872
云南省,大理白族自治州,宾川县,671600,0872
云南省,红河哈尼族彝族自治州,红河哈尼族彝族自治州,661400,0873
云南省,红河哈尼族彝族自治州,绿春县,662500,0873
云南省,红河哈尼族彝族自治州,河口瑶族自治县,661300,0873
云南省,红河哈尼族彝族自治州,个旧市,661000,0873
云南省,红河哈尼族彝族自治州,开远市,661600,0873
云南省,红河哈尼族彝族自治州,屏边苗族自治县,661200,0873
云南省,红河哈尼族彝族自治州,建水县,654300,0873
云南省,红河哈尼族彝族自治州,石屏县,662200,0873
云南省,红河哈尼族彝族自治州,弥勒市,652300,0873
云南省,红河哈尼族彝族自治州,泸西县,652400,0873
云南省,红河哈尼族彝族自治州,元阳县,662400,0873
云南省,红河哈尼族彝族自治州,金平苗族瑶族傣族自治县,661500,0873
云南省,红河哈尼族彝族自治州,蒙自市,661100,0873
云南省,红河哈尼族彝族自治州,红河县,654400,0873
西藏自治区,那曲地区,那曲地区,852000,0896
西藏自治区,那曲地区,那曲县,852000,0896
西藏自治区,那曲地区,比如县,852300,0896
西藏自治区,那曲地区,聂荣县,853500,0896
西藏自治区,那曲地区,安多县,853400,0896
西藏自治区,那曲地区,申扎县,853100,0896
西藏自治区,那曲地区,索县,852200,0896
西藏自治区,那曲地区,班戈县,852500,0896
西藏自治区,那曲地区,巴青县,852100,0896
西藏自治区,那曲地区,尼玛县,853200,0896
西藏自治区,那曲地区,嘉黎县,852400,0896
西藏自治区,那曲地区,双湖县,852000,0896
西藏自治区,阿里地区,阿里地区,859000,0897
西藏自治区,阿里地区,札达县,859600,0897
西藏自治区,阿里地区,日土县,859700,0897
西藏自治区,阿里地区,措勤县,859300,0897
西藏自治区,阿里地区,革吉县,859100,0897
西藏自治区,阿里地区,改则县,859200,0897
西藏自治区,阿里地区,噶尔县,859400,0897
西藏自治区,阿里地区,普兰县,859500,0897
西藏自治区,拉萨市,拉萨市,850000,0891
西藏自治区,拉萨市,城关区,850000,0891
西藏自治区,拉萨市,林周县,851600,0891
西藏自治区,拉萨市,当雄县,851500,0891
西藏自治区,拉萨市,曲水县,850600,0891
西藏自治区,拉萨市,堆龙德庆区,851400,0891
西藏自治区,拉萨市,达孜县,850100,0891
西藏自治区,拉萨市,墨竹工卡县,850200,0891
西藏自治区,拉萨市,尼木县,851300,0891
西藏自治区,日喀则市,日喀则市,857000,0892
西藏自治区,日喀则市,桑珠孜区,857000,0892
西藏自治区,日喀则市,南木林县,857100,0892
西藏自治区,日喀则市,江孜县,857400,0892
西藏自治区,日喀则市,萨迦县,857800,0892
西藏自治区,日喀则市,拉孜县,858100,0892
西藏自治区,日喀则市,昂仁县,858500,0892
西藏自治区,日喀则市,谢通门县,858900,0892
西藏自治区,日喀则市,白朗县,857300,0892
西藏自治区,日喀则市,仁布县,857200,0892
西藏自治区,日喀则市,康马县,857500,0892
西藏自治区,日喀则市,定结县,857900,0892
西藏自治区,日喀则市,亚东县,857600,0892
西藏自治区,日喀则市,吉隆县,858700,0892
西藏自治区,日喀则市,聂拉木县,858300,0892
西藏自治区,日喀则市,萨嘎县,858600,0892
西藏自治区,日喀则市,定日县,858200,0892
西藏自治区,日喀则市,仲巴县,858800,0892
西藏自治区,日喀则市,岗巴县,857700,0892
西藏自治区,山南市,山南市,856000,0893
西藏自治区,山南市,浪卡子县,851100,0893
西藏自治区,山南市,洛扎县,851200,0893
西藏自治区,山南市,加查县,856400,0893
西藏自治区,山南市,错那县,856700,0893
西藏自治区,山南市,乃东区,856100,0893
西藏自治区,山南市,扎囊县,850800,0893
西藏自治区,山南市,桑日县,856200,0893
西藏自治区,山南市,琼结县,856800,0893
西藏自治区,山南市,曲松县,856300,0893
西藏自治区,山南市,措美县,856900,0893
西藏自治区,山南市,隆子县,856600,0893
西藏自治区,山南市,贡嘎县,850700,0893
西藏自治区,林芝市,林芝市,860000,0894
西藏自治区,林芝市,朗县,860400,0894
西藏自治区,林芝市,波密县,860300,0894
西藏自治区,林芝市,察隅县,860600,0894
西藏自治区,林芝市,巴宜区,860100,0894
西藏自治区,林芝市,工布江达县,860200,0894
西藏自治区,林芝市,米林县,860500,0894
西藏自治区,林芝市,墨脱县,860700,0894
西藏自治区,昌都市,昌都市,854000,0895
西藏自治区,昌都市,卡若区,854000,0895
西藏自治区,昌都市,江达县,854100,0895
西藏自治区,昌都市,类乌齐县,855600,0895
西藏自治区,昌都市,丁青县,855700,0895
西藏自治区,昌都市,察雅县,854300,0895
西藏自治区,昌都市,八宿县,854600,0895
西藏自治区,昌都市,芒康县,854500,0895
西藏自治区,昌都市,洛隆县,855400,0895
西藏自治区,昌都市,边坝县,855500,0895
西藏自治区,昌都市,贡觉县,854200,0895
西藏自治区,昌都市,左贡县,854400,0895
陕西省,西安市,西安市,710000,029
陕西省,西安市,高新区,710000,029
陕西省,西安市,新城区,710000,029
陕西省,西安市,莲湖区,710000,029
陕西省,西安市,灞桥区,710000,029
陕西省,西安市,未央区,710000,029
陕西省,西安市,阎良区,710000,029
陕西省,西安市,临潼区,710600,029
陕西省,西安市,长安区,710100,029
陕西省,西安市,蓝田县,710500,029
陕西省,西安市,周至县,710400,029
陕西省,西安市,鄠邑区,710300,029
陕西省,西安市,高陵区,710200,029
陕西省,西安市,碑林区,710000,029
陕西省,西安市,雁塔区,710000,029
陕西省,咸阳市,咸阳市,712000,029
陕西省,咸阳市,渭城区,712000,029
陕西省,咸阳市,三原县,713800,029
陕西省,咸阳市,泾阳县,713700,029
陕西省,咸阳市,乾县,713300,029
陕西省,咸阳市,永寿县,713400,029
陕西省,咸阳市,彬县,713500,029
陕西省,咸阳市,长武县,713600,029
陕西省,咸阳市,淳化县,711200,029
陕西省,咸阳市,武功县,712200,029
陕西省,咸阳市,兴平市,713100,029
陕西省,咸阳市,杨陵区,712100,029
陕西省,咸阳市,秦都区,712000,029
陕西省,咸阳市,礼泉县,713200,029
陕西省,咸阳市,旬邑县,711300,029
陕西省,咸阳市,杨凌区,712100,029
陕西省,延安市,延安市,716000,0911
陕西省,延安市,宝塔区,716000,0911
陕西省,延安市,延长县,717100,0911
陕西省,延安市,子长县,717300,0911
陕西省,延安市,安塞区,717400,0911
陕西省,延安市,志丹县,717500,0911
陕西省,延安市,吴起县,717600,0911
陕西省,延安市,富县,727500,0911
陕西省,延安市,洛川县,727400,0911
陕西省,延安市,宜川县,716200,0911
陕西省,延安市,黄龙县,715700,0911
陕西省,延安市,黄陵县,727300,0911
陕西省,延安市,吴旗,717600,0911
陕西省,延安市,延川县,717200,0911
陕西省,延安市,甘泉县,716100,0911
陕西省,榆林市,榆林市,719000,0912
陕西省,榆林市,榆阳区,719000,0912
陕西省,榆林市,神木县,719300,0912
陕西省,榆林市,府谷县,719400,0912
陕西省,榆林市,靖边县,718500,0912
陕西省,榆林市,定边县,718600,0912
陕西省,榆林市,绥德县,718000,0912
陕西省,榆林市,佳县,719200,0912
陕西省,榆林市,吴堡县,718200,0912
陕西省,榆林市,清涧县,718300,0912
陕西省,榆林市,横山区,719100,0912
陕西省,榆林市,米脂县,718100,0912
陕西省,榆林市,子洲县,718400,0912
陕西省,渭南市,渭南市,714000,0913
陕西省,渭南市,白水县,715600,0913
陕西省,渭南市,富平县,711700,0913
陕西省,渭南市,韩城市,715400,0913
陕西省,渭南市,华阴市,714200,0913
陕西省,渭南市,临渭区,714000,0913
陕西省,渭南市,华县,714100,0913
陕西省,渭南市,潼关县,714300,0913
陕西省,渭南市,合阳县,715300,0913
陕西省,渭南市,澄城县,715200,0913
陕西省,渭南市,蒲城县,715500,0913
陕西省,渭南市,大荔县,715100,0913
陕西省,渭南市,华州区,714100,0913
陕西省,商洛市,商洛市,726000,0914
陕西省,商洛市,洛南县,726100,0914
陕西省,商洛市,丹凤县,726200,0914
陕西省,商洛市,商南县,726300,0914
陕西省,商洛市,镇安县,711500,0914
陕西省,商洛市,柞水县,711400,0914
陕西省,商洛市,商州区,726000,0914
陕西省,商洛市,山阳县,726400,0914
陕西省,安康市,安康市,725000,0915
陕西省,安康市,旬阳县,725700,0915
陕西省,安康市,白河县,725800,0915
陕西省,安康市,岚皋县,725400,0915
陕西省,安康市,平利县,725500,0915
陕西省,安康市,镇坪县,725600,0915
陕西省,安康市,汉阴县,725100,0915
陕西省,安康市,石泉县,725200,0915
陕西省,安康市,宁陕县,711600,0915
陕西省,安康市,紫阳县,725300,0915
陕西省,安康市,汉滨区,725000,0915
陕西省,汉中市,汉中市,723000,0916
陕西省,汉中市,留坝县,724100,0916
陕西省,汉中市,佛坪县,723400,0916
陕西省,汉中市,勉县,724200,0916
陕西省,汉中市,宁强县,724400,0916
陕西省,汉中市,镇巴县,723600,0916
陕西省,汉中市,汉台区,723000,0916
陕西省,汉中市,南郑县,723100,0916
陕西省,汉中市,城固县,723200,0916
陕西省,汉中市,西乡县,723500,0916
陕西省,汉中市,略阳县,724300,0916
陕西省,汉中市,洋县,723300,0916
陕西省,宝鸡市,宝鸡市,721000,0917
陕西省,宝鸡市,太白县,721600,0917
陕西省,宝鸡市,凤翔县,721400,0917
陕西省,宝鸡市,岐山县,722400,0917
陕西省,宝鸡市,扶风县,722200,0917
陕西省,宝鸡市,眉县,722300,0917
陕西省,宝鸡市,陇县,721200,0917
陕西省,宝鸡市,千阳县,721100,0917
陕西省,宝鸡市,凤县,721700,0917
陕西省,宝鸡市,渭滨区,721000,0917
陕西省,宝鸡市,金台区,721000,0917
陕西省,宝鸡市,宝鸡县,721300,0917
陕西省,宝鸡市,麟游县,721500,0917
陕西省,宝鸡市,陈仓区,721300,0917
陕西省,铜川市,铜川市,727000,0919
陕西省,铜川市,耀州区,727100,0919
陕西省,铜川市,宜君县,727200,0919
陕西省,铜川市,印台区,727000,0919
陕西省,铜川市,耀县,727100,0919
陕西省,铜川市,王益区,727000,0919
甘肃省,兰州市,兰州市,730000,0931
甘肃省,兰州市,城关区,730000,0931
甘肃省,兰州市,七里河区,730000,0931
甘肃省,兰州市,安宁区,730000,0931
甘肃省,兰州市,红古区,730000,0931
甘肃省,兰州市,永登县,730300,0931
甘肃省,兰州市,皋兰县,730200,0931
甘肃省,兰州市,榆中县,730100,0931
甘肃省,兰州市,西固区,730000,0931
甘肃省,定西市,定西市,743000,0932
甘肃省,定西市,通渭县,743300,0932
甘肃省,定西市,陇西县,748100,0932
甘肃省,定西市,渭源县,748200,0932
甘肃省,定西市,漳县,748300,0932
甘肃省,定西市,岷县,748400,0932
甘肃省,定西市,安定区,743000,0932
甘肃省,定西市,临洮县,730500,0932
甘肃省,平凉市,平凉市,744000,0933
甘肃省,平凉市,泾川县,744300,0933
甘肃省,平凉市,灵台县,744400,0933
甘肃省,平凉市,崇信县,744200,0933
甘肃省,平凉市,华亭县,744100,0933
甘肃省,平凉市,庄浪县,744600,0933
甘肃省,平凉市,静宁县,743400,0933
甘肃省,平凉市,崆峒区,744000,0933
甘肃省,庆阳市,庆阳市,745000,0934
甘肃省,庆阳市,镇原县,744500,0934
甘肃省,庆阳市,环县,745700,0934
甘肃省,庆阳市,华池县,745600,0934
甘肃省,庆阳市,正宁县,745300,0934
甘肃省,庆阳市,西峰区,745000,0934
甘肃省,庆阳市,庆城县,745100,0934
甘肃省,庆阳市,宁县,745200,0934
甘肃省,庆阳市,合水县,745400,0934
甘肃省,武威市,武威市,733000,0935
甘肃省,武威市,民勤县,733300,0935
甘肃省,武威市,古浪县,733100,0935
甘肃省,武威市,天祝藏族自治县,733200,0935
甘肃省,武威市,凉州区,733000,0935
甘肃省,金昌市,金昌市,737100,0935
甘肃省,金昌市,金川区,737100,0935
甘肃省,金昌市,永昌县,737200,0935
甘肃省,张掖市,张掖市,734000,0936
甘肃省,张掖市,甘州区,734000,0936
甘肃省,张掖市,山丹县,734100,0936
甘肃省,张掖市,肃南裕固族自治县,734400,0936
甘肃省,张掖市,临泽县,734200,0936
甘肃省,张掖市,高台县,734300,0936
甘肃省,张掖市,萧南,734400,0936
甘肃省,张掖市,民乐县,734500,0936
甘肃省,酒泉市,酒泉市,735000,0937
甘肃省,酒泉市,金塔县,735300,0937
甘肃省,酒泉市,敦煌市,736200,0937
甘肃省,酒泉市,瓜州县,736100,0937
甘肃省,酒泉市,阿克塞哈萨克族自治县,736400,0937
甘肃省,酒泉市,玉门市,735200,0937
甘肃省,酒泉市,安西,736100,0937
甘肃省,酒泉市,肃州区,735000,0937
甘肃省,酒泉市,肃北蒙古族自治县,736300,0937
甘肃省,嘉峪关市,嘉峪关市,735100,0937
甘肃省,天水市,天水市,741000,0938
甘肃省,天水市,张家川回族自治县,741500,0938
甘肃省,天水市,清水县,741400,0938
甘肃省,天水市,秦安县,741600,0938
甘肃省,天水市,甘谷县,741200,0938
甘肃省,天水市,武山县,741300,0938
甘肃省,天水市,麦积区,741000,0938
甘肃省,天水市,秦州区,741000,0938
甘肃省,陇南市,陇南市,742500,0939
甘肃省,陇南市,武都区,746000,0939
甘肃省,陇南市,成县,742500,0939
甘肃省,陇南市,宕昌县,748500,0939
甘肃省,陇南市,康县,746500,0939
甘肃省,陇南市,西和县,742100,0939
甘肃省,陇南市,徽县,742300,0939
甘肃省,陇南市,两当县,742400,0939
甘肃省,陇南市,文县,746400,0939
甘肃省,陇南市,礼县,742200,0939
甘肃省,白银市,白银市,730900,0943
甘肃省,白银市,景泰县,730400,0943
甘肃省,白银市,白银区,730900,0943
甘肃省,白银市,平川区,730900,0943
甘肃省,白银市,会宁县,730700,0943
甘肃省,白银市,靖远县,730600,0943
甘肃省,临夏回族自治州,临夏回族自治州,731100,0930
甘肃省,临夏回族自治州,临夏市,731100,0930
甘肃省,临夏回族自治州,康乐县,731500,0930
甘肃省,临夏回族自治州,永靖县,731600,0930
甘肃省,临夏回族自治州,广河县,731300,0930
甘肃省,临夏回族自治州,和政县,731200,0930
甘肃省,临夏回族自治州,积石山保安族东乡族撒拉族自治县,731700,0930
甘肃省,临夏回族自治州,临夏县,731800,0930
甘肃省,临夏回族自治州,东乡族自治县,731400,0930
甘肃省,甘南藏族自治州,甘南藏族自治州,747000,0941
甘肃省,甘南藏族自治州,合作市,747000,0941
甘肃省,甘南藏族自治州,临潭县,747500,0941
甘肃省,甘南藏族自治州,卓尼县,747600,0941
甘肃省,甘南藏族自治州,舟曲县,746300,0941
甘肃省,甘南藏族自治州,迭部县,747400,0941
甘肃省,甘南藏族自治州,碌曲县,747200,0941
甘肃省,甘南藏族自治州,夏河县,747100,0941
甘肃省,甘南藏族自治州,甘南州,747000,0941
甘肃省,甘南藏族自治州,玛曲县,747300,0941
甘肃省,甘南藏族自治州,旧尼,747600,0941
青海省,西宁市,西宁市,810000,0971
青海省,西宁市,城东区,810000,0971
青海省,西宁市,城中区,810000,0971
青海省,西宁市,城西区,810000,0971
青海省,西宁市,大通回族土族自治县,810100,0971
青海省,西宁市,湟源县,812100,0971
青海省,西宁市,湟中县,811600,0972
青海省,西宁市,城北区,810000,0971
青海省,海东市,海东市,810600,0972
青海省,海东市,平安区,810600,0972
青海省,海东市,民和回族土族自治县,810800,0972
青海省,海东市,乐都区,810700,0972
青海省,海东市,互助土族自治县,810500,0972
青海省,海东市,化隆回族自治县,810900,0972
青海省,海东市,循化撒拉族自治县,811100,0972
青海省,黄南藏族自治州,黄南藏族自治州,811300,0973
青海省,黄南藏族自治州,尖扎县,811200,0973
青海省,黄南藏族自治州,泽库县,811400,0973
青海省,黄南藏族自治州,河南蒙古族自治县,811500,0973
青海省,黄南藏族自治州,同仁县,811300,0973
青海省,海南藏族自治州,海南藏族自治州,813000,0974
青海省,海南藏族自治州,同德县,813200,0974
青海省,海南藏族自治州,贵德县,811700,0974
青海省,海南藏族自治州,兴海县,813300,0974
青海省,海南藏族自治州,贵南县,813100,0974
青海省,海南藏族自治州,共和县,813000,0974
青海省,果洛藏族自治州,果洛藏族自治州,814000,0975
青海省,果洛藏族自治州,班玛县,814300,0975
青海省,果洛藏族自治州,甘德县,814100,0975
青海省,果洛藏族自治州,达日县,814200,0975
青海省,果洛藏族自治州,玛多县,813500,0975
青海省,果洛藏族自治州,玛沁县,814000,0975
青海省,果洛藏族自治州,久治县,624700,0975
青海省,玉树藏族自治州,玉树藏族自治州,815000,0976
青海省,玉树藏族自治州,玉树市,815000,0976
青海省,玉树藏族自治州,杂多县,815300,0976
青海省,玉树藏族自治州,称多县,815100,0976
青海省,玉树藏族自治州,治多县,815400,0976
青海省,玉树藏族自治州,囊谦县,815200,0976
青海省,玉树藏族自治州,曲麻莱县,815500,0976
青海省,海西蒙古族藏族自治州,海西蒙古族藏族自治州,817000,0979
青海省,海西蒙古族藏族自治州,冷湖行委,816300,0977
青海省,海西蒙古族藏族自治州,德令哈市,817000,0977
青海省,海西蒙古族藏族自治州,都兰县,816100,0977
青海省,海西蒙古族藏族自治州,天峻县,817200,0977
青海省,海西蒙古族藏族自治州,格尔木市,816000,0979
青海省,海西蒙古族藏族自治州,乌兰县,817100,0977
青海省,海西蒙古族藏族自治州,茫崖行政区,817500,0977
青海省,海西蒙古族藏族自治州,大柴旦行政区,817300,0977
青海省,海北藏族自治州,海北藏族自治州,812200,0970
青海省,海北藏族自治州,门源回族自治县,810300,0970
青海省,海北藏族自治州,祁连县,810400,0970
青海省,海北藏族自治州,海晏县,812200,0970
青海省,海北藏族自治州,刚察县,812300,0970
宁夏回族自治区,银川市,银川市,750000,0951
宁夏回族自治区,银川市,兴庆区,750000,0951
宁夏回族自治区,银川市,金凤区,750000,0951
宁夏回族自治区,银川市,永宁县,750100,0951
宁夏回族自治区,银川市,贺兰县,750200,0951
宁夏回族自治区,银川市,灵武市,750400,0951
宁夏回族自治区,银川市,西夏区,750000,0951
宁夏回族自治区,石嘴山市,石嘴山市,753000,0952
宁夏回族自治区,石嘴山市,平罗县,753400,0952
宁夏回族自治区,石嘴山市,惠农区,753200,0952
宁夏回族自治区,石嘴山市,大武口区,753000,0952
宁夏回族自治区,吴忠市,吴忠市,751100,0953
宁夏回族自治区,吴忠市,利通区,751100,0953
宁夏回族自治区,吴忠市,同心县,751300,0953
宁夏回族自治区,吴忠市,青铜峡市,751600,0953
宁夏回族自治区,吴忠市,盐池县,751500,0953
宁夏回族自治区,吴忠市,红寺堡区,751900,0953
宁夏回族自治区,固原市,固原市,756000,0954
宁夏回族自治区,固原市,原州区,756000,0954
宁夏回族自治区,固原市,西吉县,756200,0954
宁夏回族自治区,固原市,泾源县,756400,0954
宁夏回族自治区,固原市,彭阳县,756500,0954
宁夏回族自治区,固原市,隆德县,756300,0954
宁夏回族自治区,中卫市,中卫市,755000,0955
宁夏回族自治区,中卫市,沙坡头区,755000,0955
宁夏回族自治区,中卫市,中宁县,755100,0955
宁夏回族自治区,中卫市,海原县,755200,0955
新疆维吾尔自治区,和田地区,和田地区,848000,0903
新疆维吾尔自治区,和田地区,和田市,848000,0903
新疆维吾尔自治区,和田地区,和田县,848000,0903
新疆维吾尔自治区,和田地区,墨玉县,848100,0903
新疆维吾尔自治区,和田地区,洛浦县,848200,0903
新疆维吾尔自治区,和田地区,于田县,848400,0903
新疆维吾尔自治区,和田地区,民丰县,848500,0903
新疆维吾尔自治区,和田地区,皮山县,845100,0903
新疆维吾尔自治区,和田地区,策勒县,848300,0903
新疆维吾尔自治区,和田地区,昆玉市,848100,0903
新疆维吾尔自治区,阿勒泰地区,阿勒泰地区,836500,0906
新疆维吾尔自治区,阿勒泰地区,布尔津县,836600,0906
新疆维吾尔自治区,阿勒泰地区,富蕴县,836100,0906
新疆维吾尔自治区,阿勒泰地区,福海县,836400,0906
新疆维吾尔自治区,阿勒泰地区,吉木乃县,836800,0906
新疆维吾尔自治区,阿勒泰地区,哈巴河县,836700,0906
新疆维吾尔自治区,阿勒泰地区,青河县,836200,0906
新疆维吾尔自治区,阿勒泰地区,阿勒泰市,836500,0906
新疆维吾尔自治区,塔城地区,塔城地区,834700,0901
新疆维吾尔自治区,塔城地区,托里县,834500,0901
新疆维吾尔自治区,塔城地区,裕民县,834800,0901
新疆维吾尔自治区,塔城地区,额敏县,834600,0901
新疆维吾尔自治区,塔城地区,和布克赛尔蒙古自治县,834400,0990
新疆维吾尔自治区,塔城地区,乌苏市,833000,0992
新疆维吾尔自治区,塔城地区,沙湾县,832100,0993
新疆维吾尔自治区,塔城地区,塔城市,834700,0901
新疆维吾尔自治区,阿克苏地区,阿克苏地区,843000,0997
新疆维吾尔自治区,阿克苏地区,阿克苏市,843000,0997
新疆维吾尔自治区,阿克苏地区,温宿县,843100,0997
新疆维吾尔自治区,阿克苏地区,库车县,842000,0997
新疆维吾尔自治区,阿克苏地区,柯坪县,843600,0997
新疆维吾尔自治区,阿克苏地区,新和县,842100,0997
新疆维吾尔自治区,阿克苏地区,拜城县,842300,0997
新疆维吾尔自治区,阿克苏地区,阿瓦提县,843200,0997
新疆维吾尔自治区,阿克苏地区,沙雅县,842200,0997
新疆维吾尔自治区,阿克苏地区,乌什县,843400,0997
新疆维吾尔自治区,喀什地区,喀什地区,844000,0998
新疆维吾尔自治区,喀什地区,伽师县,844300,0998
新疆维吾尔自治区,喀什地区,巴楚县,843800,0998
新疆维吾尔自治区,喀什地区,莎车县,844700,0998
新疆维吾尔自治区,喀什地区,叶城县,844900,0998
新疆维吾尔自治区,喀什地区,麦盖提县,844600,0998
新疆维吾尔自治区,喀什地区,岳普湖县,844400,0998
新疆维吾尔自治区,喀什地区,喀什市,844000,0998
新疆维吾尔自治区,喀什地区,疏勒县,844200,0998
新疆维吾尔自治区,喀什地区,英吉沙县,844500,0998
新疆维吾尔自治区,喀什地区,泽普县,844800,0998
新疆维吾尔自治区,喀什地区,塔什库尔干塔吉克自治县,845200,0998
新疆维吾尔自治区,喀什地区,疏附县,844100,0998
新疆维吾尔自治区,喀什地区,咯什,844000,0998
新疆维吾尔自治区,图木舒克市,图木舒克市,844000,0998
新疆维吾尔自治区,阿拉尔市,阿拉尔市,843300,0997
新疆维吾尔自治区,哈密市,哈密市,839000,0902
新疆维吾尔自治区,哈密市,伊吾县,839300,0902
新疆维吾尔自治区,哈密市,哈密市,839100,0902
新疆维吾尔自治区,哈密市,马里坤,839200,0902
新疆维吾尔自治区,哈密市,巴里坤哈萨克自治县,839200,0902
新疆维吾尔自治区,哈密市,伊州区,839000,0902
新疆维吾尔自治区,五家渠市,五家渠市,831300,0994
新疆维吾尔自治区,吐鲁番市,吐鲁番市,838000,0995
新疆维吾尔自治区,吐鲁番市,高昌区,838000,0995
新疆维吾尔自治区,吐鲁番市,鄯善县,838200,0995
新疆维吾尔自治区,吐鲁番市,托克逊县,838100,0995
新疆维吾尔自治区,克拉玛依市,克拉玛依市,834000,0990
新疆维吾尔自治区,克拉玛依市,白碱滩区,834000,0990
新疆维吾尔自治区,克拉玛依市,乌尔禾区,834000,0990
新疆维吾尔自治区,克拉玛依市,独山子区,833600,0992
新疆维吾尔自治区,克拉玛依市,克拉玛依区,834000,0990
新疆维吾尔自治区,乌鲁木齐市,乌鲁木齐市,830000,0991
新疆维吾尔自治区,乌鲁木齐市,乌鲁木齐县,830000,0991
新疆维吾尔自治区,乌鲁木齐市,东山区,830000,0991
新疆维吾尔自治区,乌鲁木齐市,天山区,830000,0991
新疆维吾尔自治区,乌鲁木齐市,沙依巴克区,830000,0991
新疆维吾尔自治区,乌鲁木齐市,水磨沟区,830000,0991
新疆维吾尔自治区,乌鲁木齐市,达坂城区,830000,0991
新疆维吾尔自治区,乌鲁木齐市,米东区,831400,0991
新疆维吾尔自治区,乌鲁木齐市,头屯河区,830000,0991
新疆维吾尔自治区,乌鲁木齐市,新市区,830000,0991
新疆维吾尔自治区,石河子市,石河子市,832000,0993
新疆维吾尔自治区,可克达拉市,可克达拉市,835200,0999
新疆维吾尔自治区,铁门关市,铁门关市,841000,0996
新疆维吾尔自治区,双河市,双河市,833400,0909
新疆维吾尔自治区,北屯市,北屯市,836000,0906
新疆维吾尔自治区,昌吉回族自治州,昌吉回族自治州,831100,0994
新疆维吾尔自治区,昌吉回族自治州,木垒哈萨克自治县,831900,0994
新疆维吾尔自治区,昌吉回族自治州,玛纳斯县,832200,0994
新疆维吾尔自治区,昌吉回族自治州,奇台县,831800,0994
新疆维吾尔自治区,昌吉回族自治州,吉木萨尔县,831700,0994
新疆维吾尔自治区,昌吉回族自治州,昌吉市,831100,0994
新疆维吾尔自治区,昌吉回族自治州,阜康市,831500,0994
新疆维吾尔自治区,昌吉回族自治州,米泉市,831400,0994
新疆维吾尔自治区,昌吉回族自治州,呼图壁县,831200,0994
新疆维吾尔自治区,克孜勒苏柯尔克孜自治州,克孜勒苏柯尔克孜自治州,845300,0908
新疆维吾尔自治区,克孜勒苏柯尔克孜自治州,阿克陶县,845500,0908
新疆维吾尔自治区,克孜勒苏柯尔克孜自治州,阿图什市,845300,0908
新疆维吾尔自治区,克孜勒苏柯尔克孜自治州,阿合奇县,843500,0997
新疆维吾尔自治区,克孜勒苏柯尔克孜自治州,乌恰县,845400,0908
新疆维吾尔自治区,博尔塔拉蒙古自治州,博尔塔拉蒙古自治州,833400,0909
新疆维吾尔自治区,博尔塔拉蒙古自治州,温泉县,833500,0909
新疆维吾尔自治区,博尔塔拉蒙古自治州,博乐市,833400,0909
新疆维吾尔自治区,博尔塔拉蒙古自治州,精河县,833300,0909
新疆维吾尔自治区,博尔塔拉蒙古自治州,阿拉山口市,833400,0909
新疆维吾尔自治区,巴音郭楞蒙古自治州,巴音郭楞蒙古自治州,841000,0996
新疆维吾尔自治区,巴音郭楞蒙古自治州,库尔勒市,841000,0996
新疆维吾尔自治区,巴音郭楞蒙古自治州,轮台县,841600,0996
新疆维吾尔自治区,巴音郭楞蒙古自治州,若羌县,841800,0996
新疆维吾尔自治区,巴音郭楞蒙古自治州,且末县,841900,0996
新疆维吾尔自治区,巴音郭楞蒙古自治州,焉耆回族自治县,841100,0996
新疆维吾尔自治区,巴音郭楞蒙古自治州,和静县,841300,0996
新疆维吾尔自治区,巴音郭楞蒙古自治州,博湖县,841400,0996
新疆维吾尔自治区,巴音郭楞蒙古自治州,尉犁县,841500,0996
新疆维吾尔自治区,巴音郭楞蒙古自治州,和硕县,841200,0996
新疆维吾尔自治区,伊犁哈萨克自治州,伊犁哈萨克自治州,835000,0999
新疆维吾尔自治区,伊犁哈萨克自治州,奎屯市,833200,0992
新疆维吾尔自治区,伊犁哈萨克自治州,尼勒克县,835700,0999
新疆维吾尔自治区,伊犁哈萨克自治州,昭苏县,835600,0999
新疆维吾尔自治区,伊犁哈萨克自治州,伊宁县,835100,0999
新疆维吾尔自治区,伊犁哈萨克自治州,伊宁市,835000,0999
新疆维吾尔自治区,伊犁哈萨克自治州,察布查尔锡伯自治县,835300,0999
新疆维吾尔自治区,伊犁哈萨克自治州,霍城县,835200,0999
新疆维吾尔自治区,伊犁哈萨克自治州,巩留县,835400,0999
新疆维吾尔自治区,伊犁哈萨克自治州,新源县,835800,0999
新疆维吾尔自治区,伊犁哈萨克自治州,霍尔果斯市,835200,0999
新疆维吾尔自治区,伊犁哈萨克自治州,特克斯县,835500,0999
香港特别行政区,香港特别行政区,北区,999000,00852
香港特别行政区,香港特别行政区,东区,999000,00852
香港特别行政区,香港特别行政区,南区,999000,00852
香港特别行政区,香港特别行政区,油尖旺区,999000,00852
香港特别行政区,香港特别行政区,深水埗区,999000,00852
香港特别行政区,香港特别行政区,九龙城区,999000,00852
香港特别行政区,香港特别行政区,黄大仙区,999000,00852
香港特别行政区,香港特别行政区,观塘区,999000,00852
香港特别行政区,香港特别行政区,中西区,999000,00852
香港特别行政区,香港特别行政区,湾仔区,999000,00852
香港特别行政区,香港特别行政区,大埔区,999000,00852
香港特别行政区,香港特别行政区,沙田区,999000,00852
香港特别行政区,香港特别行政区,西贡区,999000,00852
香港特别行政区,香港特别行政区,荃湾区,999000,00852
香港特别行政区,香港特别行政区,屯门区,999000,00852
香港特别行政区,香港特别行政区,元朗区,999000,00852
香港特别行政区,香港特别行政区,葵青区,999000,00852
香港特别行政区,香港特别行政区,离岛区,999000,00852
澳门特别行政区,澳门特别行政区,大堂区,999000,00853
澳门特别行政区,澳门特别行政区,路氹城,999000,00853
澳门特别行政区,澳门特别行政区,花地玛堂区,999000,00853
澳门特别行政区,澳门特别行政区,圣安多尼堂区,999000,00853
澳门特别行政区,澳门特别行政区,望德堂区,999000,00853
澳门特别行政区,澳门特别行政区,风顺堂区,999000,00853
澳门特别行政区,澳门特别行政区,嘉模堂区,999000,00853
澳门特别行政区,澳门特别行政区,圣方济各堂区,999000,00853
台湾省,基隆市,基隆市,200,008862
台湾省,台北市,台北市,222,008862
台湾省,台北市,北投区,112,008862
台湾省,台北市,中正区,100,008862
台湾省,新北市,新北市,220,008862
台湾省,新北市,八里,249,008862
台湾省,新北市,板桥,220,008862
台湾省,台中市,台中市,400,008864
台湾省,台南市,台南市,700,008866
台湾省,台南市,安平,708,008866
台湾省,高雄县,高雄县,800,008867
台湾省,高雄县,阿莲,822,008867
台湾省,屏东县,屏东县,900,008868
台湾省,屏东县,车城,944,008868
台湾省,屏东县,潮州,920,008868
台湾省,屏东县,春日,942,008868
台湾省,台东县,台东县,210,0088689
台湾省,台东县,池上,958,0088689
台湾省,台东县,成功,961,0088689
台湾省,台东县,长宾,962,0088689
台湾省,台东县,卑南,954,0088689
台湾省,南投县,南投县,540,0088649
台湾省,南投县,草屯,542,0088649
台湾省,嘉义县,嘉义县,600,008865
台湾省,嘉义县,朴子,613,008865
台湾省,嘉义县,布袋,625,008865
台湾省,云林县,云林县,640,008865
台湾省,云林县,褒忠,634,008865
台湾省,云林县,北港,651,008865
台湾省,云林县,莿桐,647,008865
台湾省,澎湖县,澎湖县,880,008866
台湾省,澎湖县,白沙,884,008866
台湾省,台南县,台南市,700,008866
台湾省,台南县,安平,708,008866
台湾省,花莲县,花莲县,950,008863
台湾省,桃园县,桃园县,330,008863
台湾省,桃园县,八德,334,008863
台湾省,新竹县,新竹县,300,008863
台湾省,新竹县,宝山,308,008863
台湾省,新竹县,北埔,314,008863
台湾省,宜兰县,宜兰县,260,008863
台湾省,苗栗县,苗栗县,360,0088637
台湾省,彰化县,彰化县,500,008864
台湾省,彰化县,北斗,521,008864
台湾省,台中县,台中市,400,008864
